{"type":"FeatureCollection","features":[{"type":"Feature","geometry":{"type":"Point","coordinates":[-88.221965200001,32.089590800001]},"properties":{"size":"0.0015824036711765","color":"#8BE01B","unit":"kg","weight":"453.59237","address":"BUTLER, ALABAMA USA","placename":"Butler, AL, USA","title":"1000 Pounds"}},{"type":"Feature","geometry":{"type":"Point","coordinates":[-88.2461183,31.342234599997]},"properties":{"size":"0.003164807342353","color":"#8BE01B","unit":"kg","weight":"907.18474","address":"WASHINGTON, ALABAMA USA","placename":"Washington, AL, USA","title":"2000 Pounds"}},{"type":"Feature","geometry":{"type":"Point","coordinates":[-87.830852199998,33.684553899997]},"properties":{"size":"0.0047472110135296","color":"#8BE01B","unit":"kg","weight":"1360.77711","address":"FAYETTE, ALABAMA USA","placename":"Fayette, AL 35555, USA","title":"3000 Pounds"}},{"type":"Feature","geometry":{"type":"Point","coordinates":[-86.0121573,31.839516299999]},"properties":{"size":"0.0063296146847061","color":"#8BE01B","unit":"kg","weight":"1814.36948","address":"PIKE, ALABAMA USA","placename":"Pike, AL, USA","title":"4000 Pounds"}},{"type":"Feature","geometry":{"type":"Point","coordinates":[-82.171363199999,29.972381800003]},"properties":{"size":"0.007912018355882599","color":"#8BE01B","unit":"kg","weight":"2267.96185","address":"BRADFORD, FLORIDA USA","placename":"Bradford, FL, USA","title":"5000 Pounds"}},{"type":"Feature","geometry":{"type":"Point","coordinates":[-85.848623599996,32.920124399999]},"properties":{"size":"0.0094944220270591","color":"#8BE01B","unit":"kg","weight":"2721.55422","address":"TALLAPOOSA, ALABAMA USA","placename":"Tallapoosa, AL, USA","title":"6000 Pounds"}},{"type":"Feature","geometry":{"type":"Point","coordinates":[-79.245114899996,35.043248800002]},"properties":{"size":"0.012659229369412","color":"#8BE01B","unit":"kg","weight":"3628.73896","address":"HOKE, NORTH CAROLINA USA","placename":"Hoke, NC, USA","title":"8000 Pounds"}},{"type":"Feature","geometry":{"type":"Point","coordinates":[-86.175175900002,30.5640199]},"properties":{"size":"0.015824036711765","color":"#8BE01B","unit":"kg","weight":"4535.9237","address":"WALTON, FLORIDA USA","placename":"Walton, FL, USA","title":"10000 Pounds"}},{"type":"Feature","geometry":{"type":"Point","coordinates":[-86.982428799998,31.501570999999]},"properties":{"size":"0.018988844054118","color":"#8BE01B","unit":"kg","weight":"5443.10844","address":"CONECUH, ALABAMA USA","placename":"Conecuh, AL, USA","title":"12000 Pounds"}},{"type":"Feature","geometry":{"type":"Point","coordinates":[-78.384222700004,34.919754799997]},"properties":{"size":"0.020571247725295","color":"#8BE01B","unit":"kg","weight":"5896.70081","address":"SAMPSON, NORTH CAROLINA USA","placename":"Sampson, NC, USA","title":"13000 Pounds"}},{"type":"Feature","geometry":{"type":"Point","coordinates":[-87.820015899998,37.476711899997]},"properties":{"size":"0.025318458738824","color":"#8BE01B","unit":"kg","weight":"7257.47792","address":"CLAY, KENTUCKY USA","placename":"Clay, KY 42404, USA","title":"16000 Pounds"}},{"type":"Feature","geometry":{"type":"Point","coordinates":[-87.460397000004,31.511906800004]},"properties":{"size":"0.03164807342353","color":"#8BE01B","unit":"kg","weight":"9071.847400000001","address":"MONROE, ALABAMA USA","placename":"Monroe, AL, USA","title":"20000 Pounds"}},{"type":"Feature","geometry":{"type":"Point","coordinates":[-85.684578000004,31.464529800001]},"properties":{"size":"0.037977688108236","color":"#8BE01B","unit":"kg","weight":"10886.21688","address":"DALE, ALABAMA USA","placename":"Dale, AL, USA","title":"24000 Pounds"}},{"type":"Feature","geometry":{"type":"Point","coordinates":[-95.814288500002,32.493697400001]},"properties":{"size":"0.052219321148825","color":"#8BE01B","unit":"kg","weight":"14968.54821","address":"VAN ZANDT, TEXAS USA","placename":"Van Zandt, TX, USA","title":"33000 Pounds"}},{"type":"Feature","geometry":{"type":"Point","coordinates":[-95.5691126,29.044414700004]},"properties":{"size":"0.063296146847061","color":"#8BE01B","unit":"kg","weight":"18143.6948","address":"BRAZORIA, TEXAS USA","placename":"Brazoria, TX 77422, USA","title":"40000 Pounds"}},{"type":"Feature","geometry":{"type":"Point","coordinates":[-89.186179100003,36.571172099997]},"properties":{"size":"0.075955376216473","color":"#8BE01B","unit":"kg","weight":"21772.43376","address":"HICKMAN, KENTUCKY USA","placename":"Hickman, KY 42050, USA","title":"48000 Pounds"}},{"type":"Feature","geometry":{"type":"Point","coordinates":[-89.017933200003,33.1650338]},"properties":{"size":"0.12184508268059","color":"#8BE01B","unit":"kg","weight":"34926.61249","address":"WINSTON, MISSISSIPPI USA","placename":"Winston, MS, USA","title":"77000 Pounds"}},{"type":"Feature","geometry":{"type":"Point","coordinates":[-82.849865399998,31.5088073]},"properties":{"size":"0.17089959648706","color":"#8BE01B","unit":"kg","weight":"48987.97596","address":"DOUGLAS, GEORGIA USA","placename":"Douglas, GA, USA","title":"108000 Pounds"}},{"type":"Feature","geometry":{"type":"Point","coordinates":[-97.005278000001,28.139167000003]},"properties":{"size":"0.29274467916766","color":"#8BE01B","unit":"kg","weight":"83914.58845","address":"LAMAR, TEXAS USA","placename":"Lamar, TX 78382, USA","title":"185000 Pounds"}},{"type":"Feature","geometry":{"type":"Point","coordinates":[-120.9876321,37.509071100002]},"properties":{"size":"0.31173352322177","color":"#8BE01B","unit":"kg","weight":"89357.69689000001","address":"STANISLAUS, CALIFORNIA USA","placename":"Stanislaus, CA, USA","title":"197000 Pounds"}},{"type":"Feature","geometry":{"type":"Point","coordinates":[-90.6393702,35.607858600001]},"properties":{"size":"0.34021678930295","color":"#8BE01B","unit":"kg","weight":"97522.35954999999","address":"POINSETT, ARKANSAS USA","placename":"Poinsett, AR, USA","title":"215000 Pounds"}},{"type":"Feature","geometry":{"type":"Point","coordinates":[-117.3961564,33.953348700002]},"properties":{"size":"0.3433815966453","color":"#8BE01B","unit":"kg","weight":"98429.54429000001","address":"RIVERSIDE, CALIFORNIA USA","placename":"Riverside, CA, USA","title":"217000 Pounds"}},{"type":"Feature","geometry":{"type":"Point","coordinates":[-84.312126399999,32.904768400002]},"properties":{"size":"0.34812880765883","color":"#8BE01B","unit":"kg","weight":"99790.3214","address":"UPSON, GEORGIA USA","placename":"Upson, GA, USA","title":"220000 Pounds"}},{"type":"Feature","geometry":{"type":"Point","coordinates":[-85.396276899996,32.588870199998]},"properties":{"size":"0.37344726639766","color":"#8BE01B","unit":"kg","weight":"107047.79932","address":"LEE, ALABAMA USA","placename":"Lee, AL, USA","title":"236000 Pounds"}},{"type":"Feature","geometry":{"type":"Point","coordinates":[-83.572387599999,34.117053699997]},"properties":{"size":"0.46997389033943","color":"#8BE01B","unit":"kg","weight":"134716.93389","address":"JEFFERSON, GEORGIA USA","placename":"Jefferson, GA, USA","title":"297000 Pounds"}},{"type":"Feature","geometry":{"type":"Point","coordinates":[-88.710896400001,36.688772800001]},"properties":{"size":"0.50003956009178","color":"#8BE01B","unit":"kg","weight":"143335.18892","address":"GRAVES, KENTUCKY USA","placename":"Graves, KY, USA","title":"316000 Pounds"}},{"type":"Feature","geometry":{"type":"Point","coordinates":[-122.1233228,40.027101499997]},"properties":{"size":"0.59814858770472","color":"#8BE01B","unit":"kg","weight":"171457.91586","address":"TEHAMA, CALIFORNIA USA","placename":"Tehama, CA, USA","title":"378000 Pounds"}},{"type":"Feature","geometry":{"type":"Point","coordinates":[-91.753881699998,35.290061199999]},"properties":{"size":"0.81810269799826","color":"#8BE01B","unit":"kg","weight":"234507.25529","address":"WHITE, ARKANSAS USA","placename":"White, AR, USA","title":"517000 Pounds"}},{"type":"Feature","geometry":{"type":"Point","coordinates":[-94.976654000001,33.6072302]},"properties":{"size":"0.8624100007912","color":"#8BE01B","unit":"kg","weight":"247207.84165","address":"RED RIVER, TEXAS USA","placename":"Red River, TX, USA","title":"545000 Pounds"}},{"type":"Feature","geometry":{"type":"Point","coordinates":[-118.8596804,35.493727400003]},"properties":{"size":"0.93045335865179","color":"#8BE01B","unit":"kg","weight":"266712.31356","address":"KERN, CALIFORNIA USA","placename":"Kern, CA, USA","title":"588000 Pounds"}},{"type":"Feature","geometry":{"type":"Point","coordinates":[-96.663812000002,28.416936500003]},"properties":{"size":"1.0918585331118","color":"#8BE01B","unit":"kg","weight":"312978.7353","address":"CALHOUN, TEXAS USA","placename":"Calhoun, TX, USA","title":"690000 Pounds"}},{"type":"Feature","geometry":{"type":"Point","coordinates":[-91.899861100004,34.783979500003]},"properties":{"size":"1.2042091937653","color":"#8BE01B","unit":"kg","weight":"345183.79357","address":"LONOKE, ARKANSAS USA","placename":"Lonoke, AR 72086, USA","title":"761000 Pounds"}},{"type":"Feature","geometry":{"type":"Point","coordinates":[-87.3413599,30.638940799996]},"properties":{"size":"1.6773478914471","color":"#8BE01B","unit":"kg","weight":"480807.9122","address":"ESCAMBIA, FLORIDA USA","placename":"Escambia, FL, USA","title":"1060000 Pounds"}},{"type":"Feature","geometry":{"type":"Point","coordinates":[-77.056446399998,35.0877672]},"properties":{"size":"2.0903552496242","color":"#8BE01B","unit":"kg","weight":"599195.5207699999","address":"CRAVEN, NORTH CAROLINA USA","placename":"Craven, NC, USA","title":"1321000 Pounds"}},{"type":"Feature","geometry":{"type":"Point","coordinates":[-77.424297199999,35.558922099998]},"properties":{"size":"2.572988369333","color":"#8BE01B","unit":"kg","weight":"737541.19362","address":"PITT, NORTH CAROLINA USA","placename":"Pitt, NC, USA","title":"1626000 Pounds"}},{"type":"Feature","geometry":{"type":"Point","coordinates":[-115.5694391,32.847552800002]},"properties":{"size":"2.6631853785901","color":"#8BE01B","unit":"kg","weight":"763395.95871","address":"IMPERIAL, CALIFORNIA USA","placename":"Imperial, CA, USA","title":"1683000 Pounds"}},{"type":"Feature","geometry":{"type":"Point","coordinates":[-88.728100000003,32.040149900004]},"properties":{"size":"2.7106574887254","color":"#8BE01B","unit":"kg","weight":"777003.72981","address":"QUITMAN, MISSISSIPPI USA","placename":"Quitman, MS 39355, USA","title":"1713000 Pounds"}},{"type":"Feature","geometry":{"type":"Point","coordinates":[-94.423548199999,35.949526000001]},"properties":{"size":"2.7169871034101","color":"#8BE01B","unit":"kg","weight":"778818.09929","address":"LINCOLN, ARKANSAS USA","placename":"Lincoln, AR 72744, USA","title":"1717000 Pounds"}},{"type":"Feature","geometry":{"type":"Point","coordinates":[-88.826300599998,33.656783800002]},"properties":{"size":"3.451222406836","color":"#8BE01B","unit":"kg","weight":"989284.95897","address":"CLAY, MISSISSIPPI USA","placename":"Clay, MS, USA","title":"2181000 Pounds"}},{"type":"Feature","geometry":{"type":"Point","coordinates":[-76.663818600001,34.718217400004]},"properties":{"size":"3.5524962417913","color":"#8BE01B","unit":"kg","weight":"1018314.87065","address":"BEAUFORT, NORTH CAROLINA USA","placename":"Beaufort, NC, USA","title":"2245000 Pounds"}},{"type":"Feature","geometry":{"type":"Point","coordinates":[-88.090076200003,33.3339954]},"properties":{"size":"4.3943349948572","color":"#8BE01B","unit":"kg","weight":"1259626.01149","address":"PICKENS, ALABAMA USA","placename":"Pickens, AL, USA","title":"2777000 Pounds"}},{"type":"Feature","geometry":{"type":"Point","coordinates":[-77.052174200003,35.546551700003]},"properties":{"size":"4.571564206029","color":"#8BE01B","unit":"kg","weight":"1310428.35693","address":"WASHINGTON, NORTH CAROLINA USA","placename":"Washington, NC, USA","title":"2889000 Pounds"}},{"type":"Feature","geometry":{"type":"Point","coordinates":[-91.679861900003,35.736188599998]},"properties":{"size":"5.3010522984413","color":"#8BE01B","unit":"kg","weight":"1519534.4395","address":"DESHA, ARKANSAS USA","placename":"Desha, Greenbrier, AR 72527, USA","title":"3350000 Pounds"}},{"type":"Feature","geometry":{"type":"Point","coordinates":[-90.5231561,34.366773099997]},"properties":{"size":"5.3295355645225","color":"#8BE01B","unit":"kg","weight":"1527699.10216","address":"COAHOMA, MISSISSIPPI USA","placename":"Coahoma, MS 38617, USA","title":"3368000 Pounds"}},{"type":"Feature","geometry":{"type":"Point","coordinates":[-96.102737100001,29.3116366]},"properties":{"size":"5.513094390379","color":"#8BE01B","unit":"kg","weight":"1580315.81708","address":"WHARTON, TEXAS USA","placename":"Wharton, TX 77488, USA","title":"3484000 Pounds"}},{"type":"Feature","geometry":{"type":"Point","coordinates":[-88.556531000002,33.877358500001]},"properties":{"size":"6.1650447029037","color":"#8BE01B","unit":"kg","weight":"1767195.87352","address":"MONROE, MISSISSIPPI USA","placename":"Monroe, MS, USA","title":"3896000 Pounds"}},{"type":"Feature","geometry":{"type":"Point","coordinates":[-87.776333300003,32.245908499998]},"properties":{"size":"6.7299628135137","color":"#8BE01B","unit":"kg","weight":"1929128.34961","address":"MARENGO, ALABAMA USA","placename":"Marengo, AL, USA","title":"4253000 Pounds"}},{"type":"Feature","geometry":{"type":"Point","coordinates":[-90.263366999997,33.906512999997]},"properties":{"size":"6.9230160613973","color":"#8BE01B","unit":"kg","weight":"1984466.61875","address":"SHARKEY, MISSISSIPPI USA","placename":"Sharkey, MS 38921, USA","title":"4375000 Pounds"}},{"type":"Feature","geometry":{"type":"Point","coordinates":[-89.017933200003,33.881879099999]},"properties":{"size":"6.9910594192579","color":"#8BE01B","unit":"kg","weight":"2003971.09066","address":"CHICKASAW, MISSISSIPPI USA","placename":"Chickasaw, MS, USA","title":"4418000 Pounds"}},{"type":"Feature","geometry":{"type":"Point","coordinates":[-93.621780200002,33.251169500001]},"properties":{"size":"7.2806392910832","color":"#8BE01B","unit":"kg","weight":"2086978.49437","address":"LAFAYETTE, ARKANSAS USA","placename":"Lafayette, AR, USA","title":"4601000 Pounds"}},{"type":"Feature","geometry":{"type":"Point","coordinates":[-88.2461183,32.615555099997]},"properties":{"size":"8.336102539757899","color":"#8BE01B","unit":"kg","weight":"2389524.60516","address":"SUMTER, ALABAMA USA","placename":"Sumter, AL, USA","title":"5268000 Pounds"}},{"type":"Feature","geometry":{"type":"Point","coordinates":[-90.563608999999,36.131493099998]},"properties":{"size":"8.3867394572355","color":"#8BE01B","unit":"kg","weight":"2404039.561","address":"GREENE, ARKANSAS USA","placename":"Greene, AR, USA","title":"5300000 Pounds"}},{"type":"Feature","geometry":{"type":"Point","coordinates":[-95.967462500004,28.690822199999]},"properties":{"size":"11.84903868977","color":"#8BE01B","unit":"kg","weight":"3396499.66656","address":"MATAGORDA, TEXAS USA","placename":"Matagorda, TX 77457, USA","title":"7488000 Pounds"}},{"type":"Feature","geometry":{"type":"Point","coordinates":[-91.753881699998,33.156593899997]},"properties":{"size":"14.692618086874","color":"#8BE01B","unit":"kg","weight":"4211605.15545","address":"ASHLEY, ARKANSAS USA","placename":"Ashley, AR, USA","title":"9285000 Pounds"}},{"type":"Feature","geometry":{"type":"Point","coordinates":[-88.440388299996,33.473423]},"properties":{"size":"14.979033151357","color":"#8BE01B","unit":"kg","weight":"4293705.37442","address":"LOWNDES, MISSISSIPPI USA","placename":"Lowndes, MS, USA","title":"9466000 Pounds"}},{"type":"Feature","geometry":{"type":"Point","coordinates":[-87.301613199997,32.598888000001]},"properties":{"size":"19.577498219796","color":"#8BE01B","unit":"kg","weight":"5611844.80164","address":"PERRY, ALABAMA USA","placename":"Perry, AL, USA","title":"12372000 Pounds"}},{"type":"Feature","geometry":{"type":"Point","coordinates":[-90.374835400001,32.807891199997]},"properties":{"size":"19.773716275022","color":"#8BE01B","unit":"kg","weight":"5668090.25552","address":"YAZOO, MISSISSIPPI USA","placename":"Yazoo, MS, USA","title":"12496000 Pounds"}},{"type":"Feature","geometry":{"type":"Point","coordinates":[-91.501500200003,29.796039899997]},"properties":{"size":"20.083867394572","color":"#8BE01B","unit":"kg","weight":"5756994.36004","address":"FRANKLIN, LOUISIANA USA","placename":"Franklin, LA, USA","title":"12692000 Pounds"}},{"type":"Feature","geometry":{"type":"Point","coordinates":[-87.933480299997,32.971810699999]},"properties":{"size":"32.018355882586","color":"#8BE01B","unit":"kg","weight":"9177988.01458","address":"GREENE, ALABAMA USA","placename":"Greene, AL, USA","title":"20234000 Pounds"}},{"type":"Feature","geometry":{"type":"Point","coordinates":[-90.943846799996,33.300146599999]},"properties":{"size":"37.230793575441","color":"#8BE01B","unit":"kg","weight":"10672121.28136","address":"WASHINGTON, MISSISSIPPI USA","placename":"Washington, MS, USA","title":"23528000 Pounds"}},{"type":"Feature","geometry":{"type":"Point","coordinates":[-87.1422895,32.233213800003]},"properties":{"size":"45.054197325738","color":"#8BE01B","unit":"kg","weight":"12914681.95864","address":"DALLAS, ALABAMA USA","placename":"Dallas, AL, USA","title":"28472000 Pounds"}},{"type":"Feature","geometry":{"type":"Point","coordinates":[-88.556531000002,33.160560799997]},"properties":{"size":"49.136798797373","color":"#8BE01B","unit":"kg","weight":"14084950.27324","address":"NOXUBEE, MISSISSIPPI USA","placename":"Noxubee, MS, USA","title":"31052000 Pounds"}},{"type":"Feature","geometry":{"type":"Point","coordinates":[-90.525782300002,33.167783400003]},"properties":{"size":"77.12793733681499","color":"#8BE01B","unit":"kg","weight":"22108545.70617","address":"HUMPHREYS, MISSISSIPPI USA","placename":"Humphreys, MS, USA","title":"48741000 Pounds"}},{"type":"Feature","geometry":{"type":"Point","coordinates":[-90.5370327,33.542895399999]},"properties":{"size":"85.50676477569399","color":"#8BE01B","unit":"kg","weight":"24510317.30532","address":"SUNFLOWER, MISSISSIPPI USA","placename":"Sunflower, MS 38778, USA","title":"54036000 Pounds"}},{"type":"Feature","geometry":{"type":"Point","coordinates":[-91.286389000003,33.205555999999]},"properties":{"size":"86.790094153018","color":"#8BE01B","unit":"kg","weight":"24878180.71739","address":"CHICOT, ARKANSAS USA","placename":"Chicot, Planters, AR 71640, USA","title":"54847000 Pounds"}},{"type":"Feature","geometry":{"type":"Point","coordinates":[-87.618637899998,32.785910199998]},"properties":{"size":"92.398132763668","color":"#8BE01B","unit":"kg","weight":"26485712.07667","address":"HALE, ALABAMA USA","placename":"Hale, AL, USA","title":"58391000 Pounds"}},{"type":"Feature","geometry":{"type":"Point","coordinates":[-90.374835400001,33.527442700002]},"properties":{"size":"100","color":"#8BE01B","unit":"kg","weight":"28664769.82215","address":"LEFLORE, MISSISSIPPI USA","placename":"Leflore, MS, USA","title":"63195000 Pounds"}}],"properties":{"title":"US Catfish Production 2007","name":"US Catfish Production 2007"}}