{"supplychain":{"category":null,"created":1323450362,"enable_comments":true,"flags":0,"id":1535,"modified":1323450363,"other_perms":1,"passcode":null,"user_featured":false,"usergroup_id":null,"usergroup_perms":0,"user_id":1,"owner":{"id":1,"name":"administrator","avatar":"http:\/\/free.sourcemap.com\/assets\/images\/default-user.png","banner_url":null,"display_name":null},"taxonomy":null,"attributes":{"title":"US Catfish Production 2007","name":"US Catfish Production 2007"},"stops":[{"local_stop_id":67,"id":67,"geometry":"POINT(-9820824.242846 3775076.565696)","attributes":{"size":"0.0015824036711765","color":"#8BE01B","unit":"kg","weight":"453.59237","address":"BUTLER, ALABAMA USA","placename":"Butler, AL, USA","title":"1000 Pounds"}},{"local_stop_id":66,"id":66,"geometry":"POINT(-9823512.953639 3677275.035765)","attributes":{"size":"0.003164807342353","color":"#8BE01B","unit":"kg","weight":"907.18474","address":"WASHINGTON, ALABAMA USA","placename":"Washington, AL, USA","title":"2000 Pounds"}},{"local_stop_id":65,"id":65,"geometry":"POINT(-9777285.742843 3986523.561777)","attributes":{"size":"0.0047472110135296","color":"#8BE01B","unit":"kg","weight":"1360.77711","address":"FAYETTE, ALABAMA USA","placename":"Fayette, AL 35555, USA","title":"3000 Pounds"}},{"local_stop_id":64,"id":64,"geometry":"POINT(-9574829.552667 3742263.033985)","attributes":{"size":"0.0063296146847061","color":"#8BE01B","unit":"kg","weight":"1814.36948","address":"PIKE, ALABAMA USA","placename":"Pike, AL, USA","title":"4000 Pounds"}},{"local_stop_id":63,"id":63,"geometry":"POINT(-9147274.309213 3500000.275169)","attributes":{"size":"0.007912018355882599","color":"#8BE01B","unit":"kg","weight":"2267.96185","address":"BRADFORD, FLORIDA USA","placename":"Bradford, FL, USA","title":"5000 Pounds"}},{"local_stop_id":62,"id":62,"geometry":"POINT(-9556625.064455 3884706.606364)","attributes":{"size":"0.0094944220270591","color":"#8BE01B","unit":"kg","weight":"2721.55422","address":"TALLAPOOSA, ALABAMA USA","placename":"Tallapoosa, AL, USA","title":"6000 Pounds"}},{"local_stop_id":61,"id":61,"geometry":"POINT(-8821525.838522 4169760.037543)","attributes":{"size":"0.012659229369412","color":"#8BE01B","unit":"kg","weight":"3628.73896","address":"HOKE, NORTH CAROLINA USA","placename":"Hoke, NC, USA","title":"8000 Pounds"}},{"local_stop_id":60,"id":60,"geometry":"POINT(-9592976.700209 3576257.329201)","attributes":{"size":"0.015824036711765","color":"#8BE01B","unit":"kg","weight":"4535.9237","address":"WALTON, FLORIDA USA","placename":"Walton, FL, USA","title":"10000 Pounds"}},{"local_stop_id":59,"id":59,"geometry":"POINT(-9682839.681978 3698060.439593)","attributes":{"size":"0.018988844054118","color":"#8BE01B","unit":"kg","weight":"5443.10844","address":"CONECUH, ALABAMA USA","placename":"Conecuh, AL, USA","title":"12000 Pounds"}},{"local_stop_id":58,"id":58,"geometry":"POINT(-8725691.757191 4152981.48197)","attributes":{"size":"0.020571247725295","color":"#8BE01B","unit":"kg","weight":"5896.70081","address":"SAMPSON, NORTH CAROLINA USA","placename":"Sampson, NC, USA","title":"13000 Pounds"}},{"local_stop_id":57,"id":57,"geometry":"POINT(-9776079.451445 4505764.229265)","attributes":{"size":"0.025318458738824","color":"#8BE01B","unit":"kg","weight":"7257.47792","address":"CLAY, KENTUCKY USA","placename":"Clay, KY 42404, USA","title":"16000 Pounds"}},{"local_stop_id":56,"id":56,"geometry":"POINT(-9736046.858618 3699409.964265)","attributes":{"size":"0.03164807342353","color":"#8BE01B","unit":"kg","weight":"9071.847400000001","address":"MONROE, ALABAMA USA","placename":"Monroe, AL, USA","title":"20000 Pounds"}},{"local_stop_id":55,"id":55,"geometry":"POINT(-9538363.591797 3693225.26922)","attributes":{"size":"0.037977688108236","color":"#8BE01B","unit":"kg","weight":"10886.21688","address":"DALE, ALABAMA USA","placename":"Dale, AL, USA","title":"24000 Pounds"}},{"local_stop_id":54,"id":54,"geometry":"POINT(-10665997.80654 3828291.984103)","attributes":{"size":"0.052219321148825","color":"#8BE01B","unit":"kg","weight":"14968.54821","address":"VAN ZANDT, TEXAS USA","placename":"Van Zandt, TX, USA","title":"33000 Pounds"}},{"local_stop_id":53,"id":53,"geometry":"POINT(-10638704.950197 3381300.246448)","attributes":{"size":"0.063296146847061","color":"#8BE01B","unit":"kg","weight":"18143.6948","address":"BRAZORIA, TEXAS USA","placename":"Brazoria, TX 77422, USA","title":"40000 Pounds"}},{"local_stop_id":52,"id":52,"geometry":"POINT(-9928160.04321 4379501.081371)","attributes":{"size":"0.075955376216473","color":"#8BE01B","unit":"kg","weight":"21772.43376","address":"HICKMAN, KENTUCKY USA","placename":"Hickman, KY 42050, USA","title":"48000 Pounds"}},{"local_stop_id":51,"id":51,"geometry":"POINT(-9909430.995294 3917229.983598)","attributes":{"size":"0.12184508268059","color":"#8BE01B","unit":"kg","weight":"34926.61249","address":"WINSTON, MISSISSIPPI USA","placename":"Winston, MS, USA","title":"77000 Pounds"}},{"local_stop_id":50,"id":50,"geometry":"POINT(-9222804.828619 3699005.253102)","attributes":{"size":"0.17089959648706","color":"#8BE01B","unit":"kg","weight":"48987.97596","address":"DOUGLAS, GEORGIA USA","placename":"Douglas, GA, USA","title":"108000 Pounds"}},{"local_stop_id":49,"id":49,"geometry":"POINT(-10798578.15122 3266530.921457)","attributes":{"size":"0.29274467916766","color":"#8BE01B","unit":"kg","weight":"83914.58845","address":"LAMAR, TEXAS USA","placename":"Lamar, TX 78382, USA","title":"185000 Pounds"}},{"local_stop_id":48,"id":48,"geometry":"POINT(-13468281.597656 4510304.283134)","attributes":{"size":"0.31173352322177","color":"#8BE01B","unit":"kg","weight":"89357.69689000001","address":"STANISLAUS, CALIFORNIA USA","placename":"Stanislaus, CA, USA","title":"197000 Pounds"}},{"local_stop_id":47,"id":47,"geometry":"POINT(-10089928.536487 4246796.61357)","attributes":{"size":"0.34021678930295","color":"#8BE01B","unit":"kg","weight":"97522.35954999999","address":"POINSETT, ARKANSAS USA","placename":"Poinsett, AR, USA","title":"215000 Pounds"}},{"local_stop_id":46,"id":46,"geometry":"POINT(-13068480.351536 4022539.615139)","attributes":{"size":"0.3433815966453","color":"#8BE01B","unit":"kg","weight":"98429.54429000001","address":"RIVERSIDE, CALIFORNIA USA","placename":"Riverside, CA, USA","title":"217000 Pounds"}},{"local_stop_id":45,"id":45,"geometry":"POINT(-9385582.978546 3882670.372485)","attributes":{"size":"0.34812880765883","color":"#8BE01B","unit":"kg","weight":"99790.3214","address":"UPSON, GEORGIA USA","placename":"Upson, GA, USA","title":"220000 Pounds"}},{"local_stop_id":44,"id":44,"geometry":"POINT(-9506270.060149 3840859.645481)","attributes":{"size":"0.37344726639766","color":"#8BE01B","unit":"kg","weight":"107047.79932","address":"LEE, ALABAMA USA","placename":"Lee, AL, USA","title":"236000 Pounds"}},{"local_stop_id":43,"id":43,"geometry":"POINT(-9303235.63201 4044530.32842)","attributes":{"size":"0.46997389033943","color":"#8BE01B","unit":"kg","weight":"134716.93389","address":"JEFFERSON, GEORGIA USA","placename":"Jefferson, GA, USA","title":"297000 Pounds"}},{"local_stop_id":42,"id":42,"geometry":"POINT(-9875251.815063 4395814.060383)","attributes":{"size":"0.50003956009178","color":"#8BE01B","unit":"kg","weight":"143335.18892","address":"GRAVES, KENTUCKY USA","placename":"Graves, KY, USA","title":"316000 Pounds"}},{"local_stop_id":41,"id":41,"geometry":"POINT(-13594706.108079 4869881.377542)","attributes":{"size":"0.59814858770472","color":"#8BE01B","unit":"kg","weight":"171457.91586","address":"TEHAMA, CALIFORNIA USA","placename":"Tehama, CA, USA","title":"378000 Pounds"}},{"local_stop_id":40,"id":40,"geometry":"POINT(-10213995.38915 4203369.502268)","attributes":{"size":"0.81810269799826","color":"#8BE01B","unit":"kg","weight":"234507.25529","address":"WHITE, ARKANSAS USA","placename":"White, AR, USA","title":"517000 Pounds"}},{"local_stop_id":39,"id":39,"geometry":"POINT(-10572752.760529 3976183.782245)","attributes":{"size":"0.8624100007912","color":"#8BE01B","unit":"kg","weight":"247207.84165","address":"RED RIVER, TEXAS USA","placename":"Red River, TX, USA","title":"545000 Pounds"}},{"local_stop_id":38,"id":38,"geometry":"POINT(-13231399.097979 4231180.801095)","attributes":{"size":"0.93045335865179","color":"#8BE01B","unit":"kg","weight":"266712.31356","address":"KERN, CALIFORNIA USA","placename":"Kern, CA, USA","title":"588000 Pounds"}},{"local_stop_id":37,"id":37,"geometry":"POINT(-10760566.329977 3301642.367208)","attributes":{"size":"1.0918585331118","color":"#8BE01B","unit":"kg","weight":"312978.7353","address":"CALHOUN, TEXAS USA","placename":"Calhoun, TX, USA","title":"690000 Pounds"}},{"local_stop_id":36,"id":36,"geometry":"POINT(-10230245.741625 4134563.43352)","attributes":{"size":"1.2042091937653","color":"#8BE01B","unit":"kg","weight":"345183.79357","address":"LONOKE, ARKANSAS USA","placename":"Lonoke, AR 72086, USA","title":"761000 Pounds"}},{"local_stop_id":35,"id":35,"geometry":"POINT(-9722795.70926 3585946.974446)","attributes":{"size":"1.6773478914471","color":"#8BE01B","unit":"kg","weight":"480807.9122","address":"ESCAMBIA, FLORIDA USA","placename":"Escambia, FL, USA","title":"1060000 Pounds"}},{"local_stop_id":34,"id":34,"geometry":"POINT(-8577884.375587 4175814.761758)","attributes":{"size":"2.0903552496242","color":"#8BE01B","unit":"kg","weight":"599195.5207699999","address":"CRAVEN, NORTH CAROLINA USA","placename":"Craven, NC, USA","title":"1321000 Pounds"}},{"local_stop_id":33,"id":33,"geometry":"POINT(-8618833.339331 4240098.235322)","attributes":{"size":"2.572988369333","color":"#8BE01B","unit":"kg","weight":"737541.19362","address":"PITT, NORTH CAROLINA USA","placename":"Pitt, NC, USA","title":"1626000 Pounds"}},{"local_stop_id":32,"id":32,"geometry":"POINT(-12865131.111876 3875086.585091)","attributes":{"size":"2.6631853785901","color":"#8BE01B","unit":"kg","weight":"763395.95871","address":"IMPERIAL, CALIFORNIA USA","placename":"Imperial, CA, USA","title":"1683000 Pounds"}},{"local_stop_id":31,"id":31,"geometry":"POINT(-9877166.911055 3768582.080063)","attributes":{"size":"2.7106574887254","color":"#8BE01B","unit":"kg","weight":"777003.72981","address":"QUITMAN, MISSISSIPPI USA","placename":"Quitman, MS 39355, USA","title":"1713000 Pounds"}},{"local_stop_id":30,"id":30,"geometry":"POINT(-10511181.304518 4293678.448218)","attributes":{"size":"2.7169871034101","color":"#8BE01B","unit":"kg","weight":"778818.09929","address":"LINCOLN, ARKANSAS USA","placename":"Lincoln, AR 72744, USA","title":"1717000 Pounds"}},{"local_stop_id":29,"id":29,"geometry":"POINT(-9888098.551842 3982809.055524)","attributes":{"size":"3.451222406836","color":"#8BE01B","unit":"kg","weight":"989284.95897","address":"CLAY, MISSISSIPPI USA","placename":"Clay, MS, USA","title":"2181000 Pounds"}},{"local_stop_id":28,"id":28,"geometry":"POINT(-8534177.24882 4125653.643559)","attributes":{"size":"3.5524962417913","color":"#8BE01B","unit":"kg","weight":"1018314.87065","address":"BEAUFORT, NORTH CAROLINA USA","placename":"Beaufort, NC, USA","title":"2245000 Pounds"}},{"local_stop_id":27,"id":27,"geometry":"POINT(-9806142.426525 3939720.643462)","attributes":{"size":"4.3943349948572","color":"#8BE01B","unit":"kg","weight":"1259626.01149","address":"PICKENS, ALABAMA USA","placename":"Pickens, AL, USA","title":"2777000 Pounds"}},{"local_stop_id":26,"id":26,"geometry":"POINT(-8577408.796459 4238405.635344)","attributes":{"size":"4.571564206029","color":"#8BE01B","unit":"kg","weight":"1310428.35693","address":"WASHINGTON, NORTH CAROLINA USA","placename":"Washington, NC, USA","title":"2889000 Pounds"}},{"local_stop_id":25,"id":25,"geometry":"POINT(-10205755.542706 4264381.784275)","attributes":{"size":"5.3010522984413","color":"#8BE01B","unit":"kg","weight":"1519534.4395","address":"DESHA, ARKANSAS USA","placename":"Desha, Greenbrier, AR 72527, USA","title":"3350000 Pounds"}},{"local_stop_id":24,"id":24,"geometry":"POINT(-10076991.642052 4078157.660509)","attributes":{"size":"5.3295355645225","color":"#8BE01B","unit":"kg","weight":"1527699.10216","address":"COAHOMA, MISSISSIPPI USA","placename":"Coahoma, MS 38617, USA","title":"3368000 Pounds"}},{"local_stop_id":23,"id":23,"geometry":"POINT(-10698107.757812 3415370.500613)","attributes":{"size":"5.513094390379","color":"#8BE01B","unit":"kg","weight":"1580315.81708","address":"WHARTON, TEXAS USA","placename":"Wharton, TX 77488, USA","title":"3484000 Pounds"}},{"local_stop_id":22,"id":22,"geometry":"POINT(-9858067.937339 4012346.133045)","attributes":{"size":"6.1650447029037","color":"#8BE01B","unit":"kg","weight":"1767195.87352","address":"MONROE, MISSISSIPPI USA","placename":"Monroe, MS, USA","title":"3896000 Pounds"}},{"local_stop_id":21,"id":21,"geometry":"POINT(-9771216.726657 3795633.400723)","attributes":{"size":"6.7299628135137","color":"#8BE01B","unit":"kg","weight":"1929128.34961","address":"MARENGO, ALABAMA USA","placename":"Marengo, AL, USA","title":"4253000 Pounds"}},{"local_stop_id":20,"id":20,"geometry":"POINT(-10048072.051726 4016255.903212)","attributes":{"size":"6.9230160613973","color":"#8BE01B","unit":"kg","weight":"1984466.61875","address":"SHARKEY, MISSISSIPPI USA","placename":"Sharkey, MS 38921, USA","title":"4375000 Pounds"}},{"local_stop_id":19,"id":19,"geometry":"POINT(-9909430.995294 4012952.281497)","attributes":{"size":"6.9910594192579","color":"#8BE01B","unit":"kg","weight":"2003971.09066","address":"CHICKASAW, MISSISSIPPI USA","placename":"Chickasaw, MS, USA","title":"4418000 Pounds"}},{"local_stop_id":18,"id":18,"geometry":"POINT(-10421928.899024 3928690.165628)","attributes":{"size":"7.2806392910832","color":"#8BE01B","unit":"kg","weight":"2086978.49437","address":"LAFAYETTE, ARKANSAS USA","placename":"Lafayette, AR, USA","title":"4601000 Pounds"}},{"local_stop_id":17,"id":17,"geometry":"POINT(-9823512.953639 3844385.806612)","attributes":{"size":"8.336102539757899","color":"#8BE01B","unit":"kg","weight":"2389524.60516","address":"SUMTER, ALABAMA USA","placename":"Sumter, AL, USA","title":"5268000 Pounds"}},{"local_stop_id":16,"id":16,"geometry":"POINT(-10081494.838281 4318729.736921)","attributes":{"size":"8.3867394572355","color":"#8BE01B","unit":"kg","weight":"2404039.561","address":"GREENE, ARKANSAS USA","placename":"Greene, AR, USA","title":"5300000 Pounds"}},{"local_stop_id":15,"id":15,"geometry":"POINT(-10683049.058223 3336353.174382)","attributes":{"size":"11.84903868977","color":"#8BE01B","unit":"kg","weight":"3396499.66656","address":"MATAGORDA, TEXAS USA","placename":"Matagorda, TX 77457, USA","title":"7488000 Pounds"}},{"local_stop_id":14,"id":14,"geometry":"POINT(-10213995.38915 3916107.677973)","attributes":{"size":"14.692618086874","color":"#8BE01B","unit":"kg","weight":"4211605.15545","address":"ASHLEY, ARKANSAS USA","placename":"Ashley, AR, USA","title":"9285000 Pounds"}},{"local_stop_id":13,"id":13,"geometry":"POINT(-9845138.991115 3958312.868321)","attributes":{"size":"14.979033151357","color":"#8BE01B","unit":"kg","weight":"4293705.37442","address":"LOWNDES, MISSISSIPPI USA","placename":"Lowndes, MS, USA","title":"9466000 Pounds"}},{"local_stop_id":12,"id":12,"geometry":"POINT(-9718371.126855 3842183.281361)","attributes":{"size":"19.577498219796","color":"#8BE01B","unit":"kg","weight":"5611844.80164","address":"PERRY, ALABAMA USA","placename":"Perry, AL, USA","title":"12372000 Pounds"}},{"local_stop_id":11,"id":11,"geometry":"POINT(-10060480.657254 3869832.406662)","attributes":{"size":"19.773716275022","color":"#8BE01B","unit":"kg","weight":"5668090.25552","address":"YAZOO, MISSISSIPPI USA","placename":"Yazoo, MS, USA","title":"12496000 Pounds"}},{"local_stop_id":10,"id":10,"geometry":"POINT(-10185900.409085 3477359.523548)","attributes":{"size":"20.083867394572","color":"#8BE01B","unit":"kg","weight":"5756994.36004","address":"FRANKLIN, LOUISIANA USA","placename":"Franklin, LA, USA","title":"12692000 Pounds"}},{"local_stop_id":9,"id":9,"geometry":"POINT(-9788710.250676 3891562.902759)","attributes":{"size":"32.018355882586","color":"#8BE01B","unit":"kg","weight":"9177988.01458","address":"GREENE, ALABAMA USA","placename":"Greene, AL, USA","title":"20234000 Pounds"}},{"local_stop_id":8,"id":8,"geometry":"POINT(-10123822.716557 3935211.507479)","attributes":{"size":"37.230793575441","color":"#8BE01B","unit":"kg","weight":"10672121.28136","address":"WASHINGTON, MISSISSIPPI USA","placename":"Washington, MS, USA","title":"23528000 Pounds"}},{"local_stop_id":7,"id":7,"geometry":"POINT(-9700635.2937 3793962.644364)","attributes":{"size":"45.054197325738","color":"#8BE01B","unit":"kg","weight":"12914681.95864","address":"DALLAS, ALABAMA USA","placename":"Dallas, AL, USA","title":"28472000 Pounds"}},{"local_stop_id":6,"id":6,"geometry":"POINT(-9858067.937339 3916635.16771)","attributes":{"size":"49.136798797373","color":"#8BE01B","unit":"kg","weight":"14084950.27324","address":"NOXUBEE, MISSISSIPPI USA","placename":"Noxubee, MS, USA","title":"31052000 Pounds"}},{"local_stop_id":5,"id":5,"geometry":"POINT(-10077283.989299 3917595.638222)","attributes":{"size":"77.12793733681499","color":"#8BE01B","unit":"kg","weight":"22108545.70617","address":"HUMPHREYS, MISSISSIPPI USA","placename":"Humphreys, MS, USA","title":"48741000 Pounds"}},{"local_stop_id":4,"id":4,"geometry":"POINT(-10078536.378098 3967587.953666)","attributes":{"size":"85.50676477569399","color":"#8BE01B","unit":"kg","weight":"24510317.30532","address":"SUNFLOWER, MISSISSIPPI USA","placename":"Sunflower, MS 38778, USA","title":"54036000 Pounds"}},{"local_stop_id":3,"id":3,"geometry":"POINT(-10161954.339837 3922619.976271)","attributes":{"size":"86.790094153018","color":"#8BE01B","unit":"kg","weight":"24878180.71739","address":"CHICOT, ARKANSAS USA","placename":"Chicot, Planters, AR 71640, USA","title":"54847000 Pounds"}},{"local_stop_id":2,"id":2,"geometry":"POINT(-9753662.155028 3866921.47914)","attributes":{"size":"92.398132763668","color":"#8BE01B","unit":"kg","weight":"26485712.07667","address":"HALE, ALABAMA USA","placename":"Hale, AL, USA","title":"58391000 Pounds"}},{"local_stop_id":1,"id":1,"geometry":"POINT(-10060480.657254 3965524.258448)","attributes":{"size":"100","color":"#8BE01B","unit":"kg","weight":"28664769.82215","address":"LEFLORE, MISSISSIPPI USA","placename":"Leflore, MS, USA","title":"63195000 Pounds"}}],"hops":[]},"editable":false}