{"supplychain":{"category":null,"created":1323450766,"enable_comments":true,"flags":0,"id":1536,"modified":1323450773,"other_perms":1,"passcode":null,"user_featured":false,"usergroup_id":null,"usergroup_perms":0,"user_id":1,"owner":{"id":1,"name":"administrator","avatar":"http:\/\/free.sourcemap.com\/assets\/images\/default-user.png","banner_url":null,"display_name":null},"taxonomy":null,"attributes":{"title":"US Barley Production 2007","name":"US Barley Production 2007"},"stops":[{"local_stop_id":676,"id":676,"geometry":"POINT(-11181563.998263 6245596.640314)","attributes":{"size":"100","color":"#8BE01B","unit":"kg","weight":"177591893.1","address":"BOTTINEAU, NORTH DAKOTA USA","placename":"Bottineau, ND 58318, USA","title":"8156744 Bushels"}},{"local_stop_id":675,"id":675,"geometry":"POINT(-13089917.490968 5915401.437478)","attributes":{"size":"94.01508739000001","color":"#8BE01B","unit":"kg","weight":"166963173.5","address":"WHITMAN, WASHINGTON USA","placename":"Whitman, WA, USA","title":"7668570 Bushels"}},{"local_stop_id":674,"id":674,"geometry":"POINT(-12417191.477414 5380852.347609)","attributes":{"size":"77.12685356","color":"#8BE01B","unit":"kg","weight":"136971039.3","address":"BONNEVILLE, IDAHO USA","placename":"Bonneville, ID, USA","title":"6291040 Bushels"}},{"local_stop_id":673,"id":673,"geometry":"POINT(-11313781.65291 6250839.51174)","attributes":{"size":"67.07561252000001","color":"#8BE01B","unit":"kg","weight":"119120850.1","address":"RENVILLE, NORTH DAKOTA USA","placename":"Renville, ND, USA","title":"5471186 Bushels"}},{"local_stop_id":672,"id":672,"geometry":"POINT(-12498034.719519 6090565.687989)","attributes":{"size":"51.40472718","color":"#8BE01B","unit":"kg","weight":"91290628.12","address":"TETON, MONTANA USA","placename":"Teton, Mt, USA","title":"4192952 Bushels"}},{"local_stop_id":671,"id":671,"geometry":"POINT(-10990430.736884 6158182.216771)","attributes":{"size":"50.93789875","color":"#8BE01B","unit":"kg","weight":"90461578.68000001","address":"RAMSEY, NORTH DAKOTA USA","placename":"Ramsey, ND, USA","title":"4154874 Bushels"}},{"local_stop_id":670,"id":670,"geometry":"POINT(-12495542.387439 5429006.898854)","attributes":{"size":"49.76500427","color":"#8BE01B","unit":"kg","weight":"88378613.17","address":"JEFFERSON, IDAHO USA","placename":"Jefferson, ID, USA","title":"4059204 Bushels"}},{"local_stop_id":669,"id":669,"geometry":"POINT(-12418621.409669 5426963.666178)","attributes":{"size":"46.46472906","color":"#8BE01B","unit":"kg","weight":"82517591.95","address":"MADISON, IDAHO USA","placename":"Madison, ID, USA","title":"3790009 Bushels"}},{"local_stop_id":668,"id":668,"geometry":"POINT(-10867265.816999 6239959.457194)","attributes":{"size":"46.41951494","color":"#8BE01B","unit":"kg","weight":"82437295.34","address":"CAVALIER, NORTH DAKOTA USA","placename":"Cavalier, ND 58220, USA","title":"3786321 Bushels"}},{"local_stop_id":667,"id":667,"geometry":"POINT(-11307892.384305 6142655.415042)","attributes":{"size":"45.29633393","color":"#8BE01B","unit":"kg","weight":"80442616.91","address":"WARD, NORTH DAKOTA USA","placename":"Ward, ND, USA","title":"3694706 Bushels"}},{"local_stop_id":666,"id":666,"geometry":"POINT(-12633680.502413 5274571.961305)","attributes":{"size":"42.91657308","color":"#8BE01B","unit":"kg","weight":"76216354.58","address":"MINIDOKA, IDAHO USA","placename":"Minidoka, ID, USA","title":"3500595 Bushels"}},{"local_stop_id":665,"id":665,"geometry":"POINT(-12409785.859234 5500214.999096)","attributes":{"size":"41.50981078","color":"#8BE01B","unit":"kg","weight":"73718058.77","address":"FREMONT, IDAHO USA","placename":"Fremont, ID, USA","title":"3385849 Bushels"}},{"local_stop_id":664,"id":664,"geometry":"POINT(-11072375.808176 6121613.061664)","attributes":{"size":"41.44487065","color":"#8BE01B","unit":"kg","weight":"73602730.36","address":"BENSON, NORTH DAKOTA USA","placename":"Benson, ND, USA","title":"3380552 Bushels"}},{"local_stop_id":663,"id":663,"geometry":"POINT(-12642871.841073 5214763.301832)","attributes":{"size":"40.46000463","color":"#8BE01B","unit":"kg","weight":"71853688.16","address":"CASSIA, IDAHO USA","placename":"Cassia, ID, USA","title":"3300219 Bushels"}},{"local_stop_id":662,"id":662,"geometry":"POINT(-12499913.302717 6145563.872555)","attributes":{"size":"38.25530138","color":"#8BE01B","unit":"kg","weight":"67938313.92","address":"PONDERA, MONTANA USA","placename":"Pondera, Mt, USA","title":"3120387 Bushels"}},{"local_stop_id":661,"id":661,"geometry":"POINT(-10975154.507878 6036621.817359)","attributes":{"size":"35.67946965","color":"#8BE01B","unit":"kg","weight":"63363845.59","address":"MCHENRY, NORTH DAKOTA USA","placename":"McHenry, ND 58464, USA","title":"2910283 Bushels"}},{"local_stop_id":660,"id":660,"geometry":"POINT(-12741725.886607 5245685.761155)","attributes":{"size":"32.97733753","color":"#8BE01B","unit":"kg","weight":"58565077.99","address":"TWIN FALLS, IDAHO USA","placename":"Twin Falls, ID, USA","title":"2689877 Bushels"}},{"local_stop_id":659,"id":659,"geometry":"POINT(-12570159.597215 6194098.150944)","attributes":{"size":"30.64923945","color":"#8BE01B","unit":"kg","weight":"54430564.55","address":"GLACIER, MONTANA USA","placename":"Glacier, Mt, USA","title":"2499980 Bushels"}},{"local_stop_id":658,"id":658,"geometry":"POINT(-11177079.370125 6164583.100948)","attributes":{"size":"28.18442016","color":"#8BE01B","unit":"kg","weight":"50053245.3","address":"TOWNER, NORTH DAKOTA USA","placename":"Towner, ND 58788, USA","title":"2298931 Bushels"}},{"local_stop_id":657,"id":657,"geometry":"POINT(-11498456.858745 6179034.913555)","attributes":{"size":"27.99096061","color":"#8BE01B","unit":"kg","weight":"49709676.83","address":"WILLIAMS, NORTH DAKOTA USA","placename":"Williams, ND, USA","title":"2283151 Bushels"}},{"local_stop_id":656,"id":656,"geometry":"POINT(-11006672.128139 6023939.840068)","attributes":{"size":"27.05959633","color":"#8BE01B","unit":"kg","weight":"48055649.38","address":"FOSTER, NORTH DAKOTA USA","placename":"Foster, ND, USA","title":"2207182 Bushels"}},{"local_stop_id":655,"id":655,"geometry":"POINT(-11257865.004392 6043621.188684)","attributes":{"size":"26.85247937","color":"#8BE01B","unit":"kg","weight":"47687826.45","address":"MCLEAN, NORTH DAKOTA USA","placename":"McLean, ND, USA","title":"2190288 Bushels"}},{"local_stop_id":654,"id":654,"geometry":"POINT(-11390926.416252 6143029.773401)","attributes":{"size":"25.54649257","color":"#8BE01B","unit":"kg","weight":"45368499.77","address":"MOUNTRAIL, NORTH DAKOTA USA","placename":"Mountrail, ND, USA","title":"2083762 Bushels"}},{"local_stop_id":653,"id":653,"geometry":"POINT(-12430610.329585 5274582.831326)","attributes":{"size":"24.78550265","color":"#8BE01B","unit":"kg","weight":"44017043.36","address":"CARIBOU, IDAHO USA","placename":"Caribou, ID, USA","title":"2021690 Bushels"}},{"local_stop_id":652,"id":652,"geometry":"POINT(-11114308.61358 6217506.545856)","attributes":{"size":"24.68673775","color":"#8BE01B","unit":"kg","weight":"43841644.9","address":"ROLETTE, NORTH DAKOTA USA","placename":"Rolette, ND 58366, USA","title":"2013634 Bushels"}},{"local_stop_id":651,"id":651,"geometry":"POINT(-11848911.966841 4519553.410345)","attributes":{"size":"23.98453353","color":"#8BE01B","unit":"kg","weight":"42594587.15","address":"RIO GRANDE, COLORADO USA","placename":"Rio Grande, CO, USA","title":"1956357 Bushels"}},{"local_stop_id":650,"id":650,"geometry":"POINT(-11163608.52062 6030533.182809)","attributes":{"size":"23.74479327","color":"#8BE01B","unit":"kg","weight":"42168827.86","address":"SHERIDAN, NORTH DAKOTA USA","placename":"Sheridan, ND, USA","title":"1936802 Bushels"}},{"local_stop_id":649,"id":649,"geometry":"POINT(-10511181.304518 4293678.448218)","attributes":{"size":"23.72997117","color":"#8BE01B","unit":"kg","weight":"42142505.03","address":"LINCOLN, WASHINGTON USA","placename":"Lincoln, AR 72744, USA","title":"1935593 Bushels"}},{"local_stop_id":648,"id":648,"geometry":"POINT(-10675395.999078 5527261.737287)","attributes":{"size":"22.78080567","color":"#8BE01B","unit":"kg","weight":"40456864.05","address":"MARSHALL, MINNESOTA USA","placename":"Marshall, MN, USA","title":"1858172 Bushels"}},{"local_stop_id":647,"id":647,"geometry":"POINT(-11084658.834186 6027650.524651)","attributes":{"size":"22.32309853","color":"#8BE01B","unit":"kg","weight":"39644013.27","address":"WELLS, NORTH DAKOTA USA","placename":"Wells, ND, USA","title":"1820838 Bushels"}},{"local_stop_id":646,"id":646,"geometry":"POINT(-12748158.182819 5270066.836619)","attributes":{"size":"21.29770163","color":"#8BE01B","unit":"kg","weight":"37822991.51","address":"JEROME, IDAHO USA","placename":"Jerome, ID 83338, USA","title":"1737199 Bushels"}},{"local_stop_id":645,"id":645,"geometry":"POINT(-11138353.679251 6113169.654223)","attributes":{"size":"20.94705927","color":"#8BE01B","unit":"kg","weight":"37200279.1","address":"PIERCE, NORTH DAKOTA USA","placename":"Pierce, ND, USA","title":"1708598 Bushels"}},{"local_stop_id":644,"id":644,"geometry":"POINT(-13071807.713379 6050274.593982)","attributes":{"size":"19.2337163","color":"#8BE01B","unit":"kg","weight":"34157520.88","address":"SPOKANE, WASHINGTON USA","placename":"Spokane, WA, USA","title":"1568845 Bushels"}},{"local_stop_id":643,"id":643,"geometry":"POINT(-11815669.729368 4591794.013092)","attributes":{"size":"19.20853468","color":"#8BE01B","unit":"kg","weight":"34112800.37","address":"SAGUACHE, COLORADO USA","placename":"Saguache, CO 81149, USA","title":"1566791 Bushels"}},{"local_stop_id":642,"id":642,"geometry":"POINT(-12473086.485423 3903019.145057)","attributes":{"size":"19.06144167","color":"#8BE01B","unit":"kg","weight":"33851575.11","address":"MARICOPA, ARIZONA USA","placename":"Maricopa, AZ, USA","title":"1554793 Bushels"}},{"local_stop_id":641,"id":641,"geometry":"POINT(-12431909.105216 5447906.76635)","attributes":{"size":"18.45932642","color":"#8BE01B","unit":"kg","weight":"32782267.23","address":"TETON, IDAHO USA","placename":"Teton, ID, USA","title":"1505680 Bushels"}},{"local_stop_id":640,"id":640,"geometry":"POINT(-10923335.218122 6098864.979116)","attributes":{"size":"18.29609952","color":"#8BE01B","unit":"kg","weight":"32492389.5","address":"NELSON, NORTH DAKOTA USA","placename":"Nelson, ND, USA","title":"1492366 Bushels"}},{"local_stop_id":639,"id":639,"geometry":"POINT(-11805755.047789 6243701.468637)","attributes":{"size":"18.03110408","color":"#8BE01B","unit":"kg","weight":"32021779.07","address":"RICHLAND, MONTANA USA","placename":"Richland, Mt 59260, USA","title":"1470751 Bushels"}},{"local_stop_id":638,"id":638,"geometry":"POINT(-12508126.777575 5344178.718775)","attributes":{"size":"17.94687929","color":"#8BE01B","unit":"kg","weight":"31872202.68","address":"BINGHAM, IDAHO USA","placename":"Bingham, ID, USA","title":"1463881 Bushels"}},{"local_stop_id":637,"id":637,"geometry":"POINT(-12427799.367727 6223675.778589)","attributes":{"size":"17.92043492","color":"#8BE01B","unit":"kg","weight":"31825239.62","address":"TOOLE, MONTANA USA","placename":"Toole, Mt, USA","title":"1461724 Bushels"}},{"local_stop_id":636,"id":636,"geometry":"POINT(-10881801.626676 6169936.91216)","attributes":{"size":"17.7869135","color":"#8BE01B","unit":"kg","weight":"31588116.41","address":"WALSH, NORTH DAKOTA USA","placename":"Walsh, ND, USA","title":"1450833 Bushels"}},{"local_stop_id":635,"id":635,"geometry":"POINT(-11019618.128509 5932152.996745)","attributes":{"size":"17.64693118","color":"#8BE01B","unit":"kg","weight":"31339519.15","address":"STUTSMAN, NORTH DAKOTA USA","placename":"Stutsman, ND, USA","title":"1439415 Bushels"}},{"local_stop_id":634,"id":634,"geometry":"POINT(-11406170.073175 6235998.862616)","attributes":{"size":"16.74823925","color":"#8BE01B","unit":"kg","weight":"29743515.14","address":"BURKE, NORTH DAKOTA USA","placename":"Burke, ND, USA","title":"1366111 Bushels"}},{"local_stop_id":633,"id":633,"geometry":"POINT(-12316660.203377 5537231.631267)","attributes":{"size":"16.38840204","color":"#8BE01B","unit":"kg","weight":"29104473.42","address":"YELLOWSTONE, MONTANA USA","placename":"Yellowstone National Park, 200 Old Yellowstone Trl, Gardiner, Mt 59030, USA","title":"1336760 Bushels"}},{"local_stop_id":632,"id":632,"geometry":"POINT(-12369757.596734 5706760.880514)","attributes":{"size":"16.15104017","color":"#8BE01B","unit":"kg","weight":"28682937.99","address":"GALLATIN, MONTANA USA","placename":"Gallatin, Mt, USA","title":"1317399 Bushels"}},{"local_stop_id":631,"id":631,"geometry":"POINT(-11261321.652693 5888113.405441)","attributes":{"size":"16.00551642","color":"#8BE01B","unit":"kg","weight":"28424499.6","address":"MORTON, NORTH DAKOTA USA","placename":"Morton, ND, USA","title":"1305529 Bushels"}},{"local_stop_id":630,"id":630,"geometry":"POINT(-12388134.151483 3870933.730352)","attributes":{"size":"15.88543174","color":"#8BE01B","unit":"kg","weight":"28211238.94","address":"PINAL, ARIZONA USA","placename":"Pinal, AZ, USA","title":"1295734 Bushels"}},{"local_stop_id":629,"id":629,"geometry":"POINT(-12297886.694456 6107405.485336)","attributes":{"size":"15.83167254","color":"#8BE01B","unit":"kg","weight":"28115766.97","address":"CHOUTEAU, MONTANA USA","placename":"Chouteau, Mt, USA","title":"1291349 Bushels"}},{"local_stop_id":628,"id":628,"geometry":"POINT(-11008070.701694 6056493.820849)","attributes":{"size":"15.56565953","color":"#8BE01B","unit":"kg","weight":"27643349.43","address":"EDDY, NORTH DAKOTA USA","placename":"Eddy, ND, USA","title":"1269651 Bushels"}},{"local_stop_id":627,"id":627,"geometry":"POINT(-11943499.770814 5323542.078373)","attributes":{"size":"14.99564042","color":"#8BE01B","unit":"kg","weight":"26631041.69","address":"PARK, WYOMING USA","placename":"Wyoming, USA","title":"1223156 Bushels"}},{"local_stop_id":626,"id":626,"geometry":"POINT(-11989528.009152 5439909.95383)","attributes":{"size":"14.83039066","color":"#8BE01B","unit":"kg","weight":"26337571.51","address":"WASHAKIE, WYOMING USA","placename":"Washakie, WY, USA","title":"1209677 Bushels"}},{"local_stop_id":625,"id":625,"geometry":"POINT(-12434662.080751 5986372.007853)","attributes":{"size":"14.75776364","color":"#8BE01B","unit":"kg","weight":"26208591.82","address":"CASCADE, MONTANA USA","placename":"Cascade, Mt 59421, USA","title":"1203753 Bushels"}},{"local_stop_id":624,"id":624,"geometry":"POINT(-11941417.317099 5676736.883504)","attributes":{"size":"14.10421855","color":"#8BE01B","unit":"kg","weight":"25047948.72","address":"BIG HORN, MONTANA USA","placename":"Big Horn, Mt, USA","title":"1150445 Bushels"}},{"local_stop_id":623,"id":623,"geometry":"POINT(-10937744.379614 6005582.259355)","attributes":{"size":"13.76940358","color":"#8BE01B","unit":"kg","weight":"24453344.47","address":"GRIGGS, NORTH DAKOTA USA","placename":"Griggs, ND, USA","title":"1123135 Bushels"}},{"local_stop_id":622,"id":622,"geometry":"POINT(-10801647.975422 6094429.225098)","attributes":{"size":"13.40276218","color":"#8BE01B","unit":"kg","weight":"23802219.08","address":"GRAND FORKS, NORTH DAKOTA USA","placename":"Grand Forks, ND, USA","title":"1093229 Bushels"}},{"local_stop_id":621,"id":621,"geometry":"POINT(-11177961.098415 5913556.25164)","attributes":{"size":"13.21505248","color":"#8BE01B","unit":"kg","weight":"23468861.86","address":"MCKENZIE, NORTH DAKOTA USA","placename":"McKenzie, ND 58572, USA","title":"1077918 Bushels"}},{"local_stop_id":620,"id":620,"geometry":"POINT(-7622780.955699 5912733.224798)","attributes":{"size":"12.85946942","color":"#8BE01B","unit":"kg","weight":"22837375.17","address":"AROOSTOOK, MAINE USA","placename":"Aroostook, ME, USA","title":"1048914 Bushels"}},{"local_stop_id":619,"id":619,"geometry":"POINT(-11785396.872521 4504745.515563)","attributes":{"size":"12.38989479","color":"#8BE01B","unit":"kg","weight":"22003448.71","address":"ALAMOSA, COLORADO USA","placename":"Alamosa, CO 81101, USA","title":"1010612 Bushels"}},{"local_stop_id":618,"id":618,"geometry":"POINT(-12179921.897604 5976857.317099)","attributes":{"size":"12.35533443","color":"#8BE01B","unit":"kg","weight":"21942072.31","address":"FERGUS, MONTANA USA","placename":"Fergus, Mt, USA","title":"1007793 Bushels"}},{"local_stop_id":617,"id":617,"geometry":"POINT(-11164822.159105 5813443.742412)","attributes":{"size":"12.27901722","color":"#8BE01B","unit":"kg","weight":"21806539.12","address":"EMMONS, NORTH DAKOTA USA","placename":"Emmons, ND, USA","title":"1001568 Bushels"}},{"local_stop_id":616,"id":616,"geometry":"POINT(-11509868.29767 5809733.688925)","attributes":{"size":"12.20621856","color":"#8BE01B","unit":"kg","weight":"21677254.61","address":"BOWMAN, NORTH DAKOTA USA","placename":"Bowman, ND 58623, USA","title":"995630 Bushels"}},{"local_stop_id":615,"id":615,"geometry":"POINT(-11188161.815426 5949398.658509)","attributes":{"size":"11.95920823","color":"#8BE01B","unit":"kg","weight":"21238584.3","address":"BURLEIGH, NORTH DAKOTA USA","placename":"Burleigh, ND, USA","title":"975482 Bushels"}},{"local_stop_id":614,"id":614,"geometry":"POINT(-8397327.089223 4742328.161478)","attributes":{"size":"11.72185862","color":"#8BE01B","unit":"kg","weight":"20817070.63","address":"KENT, DELAWARE USA","placename":"Kent, DE, USA","title":"956122 Bushels"}},{"local_stop_id":613,"id":613,"geometry":"POINT(-13538032.297781 5265704.273338)","attributes":{"size":"11.43941749","color":"#8BE01B","unit":"kg","weight":"20315478.08","address":"KLAMATH, OREGON USA","placename":"Klamath, OR, USA","title":"933084 Bushels"}},{"local_stop_id":612,"id":612,"geometry":"POINT(-12958190.877727 5823156.003015)","attributes":{"size":"11.28999513","color":"#8BE01B","unit":"kg","weight":"20050116.07","address":"LEWIS, IDAHO USA","placename":"Lewis, ID, USA","title":"920896 Bushels"}},{"local_stop_id":611,"id":611,"geometry":"POINT(-11908835.437978 5570979.528617)","attributes":{"size":"11.08251037","color":"#8BE01B","unit":"kg","weight":"19681639.97","address":"BIG HORN, WYOMING USA","placename":"Big Horn, WY 82801, USA","title":"903972 Bushels"}},{"local_stop_id":610,"id":610,"geometry":"POINT(-10825116.506318 6269158.114096)","attributes":{"size":"10.97968748","color":"#8BE01B","unit":"kg","weight":"19499034.85","address":"PEMBINA, NORTH DAKOTA USA","placename":"Pembina, ND, USA","title":"895585 Bushels"}},{"local_stop_id":609,"id":609,"geometry":"POINT(-12599600.585772 5410640.746472)","attributes":{"size":"10.89824567","color":"#8BE01B","unit":"kg","weight":"19354400.8","address":"BUTTE, IDAHO USA","placename":"Butte, ID, USA","title":"888942 Bushels"}},{"local_stop_id":608,"id":608,"geometry":"POINT(-12882308.165716 5764651.192934)","attributes":{"size":"10.74367419","color":"#8BE01B","unit":"kg","weight":"19079894.38","address":"IDAHO, IDAHO USA","placename":"Idaho, ID, USA","title":"876334 Bushels"}},{"local_stop_id":607,"id":607,"geometry":"POINT(-11211093.764113 6022515.774151)","attributes":{"size":"10.27873377","color":"#8BE01B","unit":"kg","weight":"18254197.88","address":"MERCER, NORTH DAKOTA USA","placename":"Mercer, ND 58559, USA","title":"838410 Bushels"}},{"local_stop_id":606,"id":606,"geometry":"POINT(-7544616.539217 5567860.962751)","attributes":{"size":"10.20408388","color":"#8BE01B","unit":"kg","weight":"18121625.74","address":"COLUMBIA, WASHINGTON USA","placename":"Columbia, ME, USA","title":"832321 Bushels"}},{"local_stop_id":605,"id":605,"geometry":"POINT(-10733097.288276 6051056.09517)","attributes":{"size":"10.029296","color":"#8BE01B","unit":"kg","weight":"17811216.63","address":"POLK, MINNESOTA USA","placename":"Polk, MN, USA","title":"818064 Bushels"}},{"local_stop_id":604,"id":604,"geometry":"POINT(-12686686.580392 5384452.629946)","attributes":{"size":"9.987477846999999","color":"#8BE01B","unit":"kg","weight":"17736950.98","address":"BLAINE, IDAHO USA","placename":"Blaine, ID, USA","title":"814653 Bushels"}},{"local_stop_id":603,"id":603,"geometry":"POINT(-12939855.244023 5818070.964167)","attributes":{"size":"9.948381363999999","color":"#8BE01B","unit":"kg","weight":"17667518.79","address":"NEZ PERCE, IDAHO USA","placename":"Nezperce, ID 83543, USA","title":"811464 Bushels"}},{"local_stop_id":602,"id":602,"geometry":"POINT(-11079297.208836 5861757.289218)","attributes":{"size":"9.944482749000001","color":"#8BE01B","unit":"kg","weight":"17660595.17","address":"LOGAN, NORTH DAKOTA USA","placename":"Logan, ND, USA","title":"811146 Bushels"}},{"local_stop_id":601,"id":601,"geometry":"POINT(-12512642.352531 5990588.580234)","attributes":{"size":"9.342244896","color":"#8BE01B","unit":"kg","weight":"16591069.57","address":"LEWIS AND CLARK, MONTANA USA","placename":"Lewis and Clark, Mt, USA","title":"762023 Bushels"}},{"local_stop_id":600,"id":600,"geometry":"POINT(-12249049.898761 6232346.620768)","attributes":{"size":"9.256058545","color":"#8BE01B","unit":"kg","weight":"16438009.59","address":"HILL, MONTANA USA","placename":"Hill, Mt, USA","title":"754993 Bushels"}},{"local_stop_id":599,"id":599,"geometry":"POINT(-11802063.971773 4451428.14723)","attributes":{"size":"9.231244722","color":"#8BE01B","unit":"kg","weight":"16393942.26","address":"CONEJOS, COLORADO USA","placename":"Conejos, CO 81120, USA","title":"752969 Bushels"}},{"local_stop_id":598,"id":598,"geometry":"POINT(-11304890.186694 5843893.663922)","attributes":{"size":"8.755037549000001","color":"#8BE01B","unit":"kg","weight":"15548236.92","address":"GRANT, NORTH DAKOTA USA","placename":"Grant, ND, USA","title":"714126 Bushels"}},{"local_stop_id":597,"id":597,"geometry":"POINT(-10922917.102115 5930032.430465)","attributes":{"size":"8.583608851999999","color":"#8BE01B","unit":"kg","weight":"15243793.45","address":"BARNES, NORTH DAKOTA USA","placename":"Barnes, ND, USA","title":"700143 Bushels"}},{"local_stop_id":596,"id":596,"geometry":"POINT(-12988359.606322 5899094.424536)","attributes":{"size":"8.486658402","color":"#8BE01B","unit":"kg","weight":"15071617.31","address":"LATAH, IDAHO USA","placename":"Latah, ID, USA","title":"692235 Bushels"}},{"local_stop_id":595,"id":595,"geometry":"POINT(-11744267.315167 4467714.148113)","attributes":{"size":"8.404395185","color":"#8BE01B","unit":"kg","weight":"14925524.51","address":"COSTILLA, COLORADO USA","placename":"Costilla, CO, USA","title":"685525 Bushels"}},{"local_stop_id":594,"id":594,"geometry":"POINT(-10660262.348075 6248786.763039)","attributes":{"size":"8.368952121","color":"#8BE01B","unit":"kg","weight":"14862580.5","address":"ROSEAU, MINNESOTA USA","placename":"Roseau, MN 56751, USA","title":"682634 Bushels"}},{"local_stop_id":593,"id":593,"geometry":"POINT(-11629806.588719 4942760.623249)","attributes":{"size":"8.027921435","color":"#8BE01B","unit":"kg","weight":"14256937.65","address":"WELD, COLORADO USA","placename":"Weld, CO, USA","title":"654817 Bushels"}},{"local_stop_id":592,"id":592,"geometry":"POINT(-12468319.751431 5136300.129672)","attributes":{"size":"7.970214586","color":"#8BE01B","unit":"kg","weight":"14154454.96","address":"CACHE, UTAH USA","placename":"Cache, UT, USA","title":"650110 Bushels"}},{"local_stop_id":591,"id":591,"geometry":"POINT(-12144984.832016 5666029.492541)","attributes":{"size":"7.719820556","color":"#8BE01B","unit":"kg","weight":"13709775.47","address":"CARBON, MONTANA USA","placename":"Carbon, Mt, USA","title":"629686 Bushels"}},{"local_stop_id":590,"id":590,"geometry":"POINT(-12707470.530448 6177710.942544)","attributes":{"size":"7.681422881","color":"#8BE01B","unit":"kg","weight":"13641584.31","address":"FLATHEAD, MONTANA USA","placename":"Flathead, Mt, USA","title":"626554 Bushels"}},{"local_stop_id":589,"id":589,"geometry":"POINT(-11427554.948107 5913556.316717)","attributes":{"size":"7.657430465","color":"#8BE01B","unit":"kg","weight":"13598975.72","address":"STARK, NORTH DAKOTA USA","placename":"Stark, ND, USA","title":"624597 Bushels"}},{"local_stop_id":588,"id":588,"geometry":"POINT(-12353170.068654 6189052.70642)","attributes":{"size":"7.328095622","color":"#8BE01B","unit":"kg","weight":"13014103.74","address":"LIBERTY, MONTANA USA","placename":"Liberty, Mt, USA","title":"597734 Bushels"}},{"local_stop_id":587,"id":587,"geometry":"POINT(-8494291.007727 4871447.771401)","attributes":{"size":"7.317417342","color":"#8BE01B","unit":"kg","weight":"12995139.98","address":"LANCASTER, PENNSYLVANIA USA","placename":"Lancaster, PA, USA","title":"596863 Bushels"}},{"local_stop_id":586,"id":586,"geometry":"POINT(-13040077.283647 5943371.599107)","attributes":{"size":"7.271639272","color":"#8BE01B","unit":"kg","weight":"12913841.84","address":"GARFIELD, WASHINGTON USA","placename":"Garfield, WA 99130, USA","title":"593129 Bushels"}},{"local_stop_id":585,"id":585,"geometry":"POINT(-11676738.897169 5985420.389501)","attributes":{"size":"7.098580022","color":"#8BE01B","unit":"kg","weight":"12606502.64","address":"DAWSON, MONTANA USA","placename":"Dawson, Mt, USA","title":"579013 Bushels"}},{"local_stop_id":584,"id":584,"geometry":"POINT(-11062551.618211 5789058.79663)","attributes":{"size":"7.074121733","color":"#8BE01B","unit":"kg","weight":"12563066.7","address":"MCINTOSH, NORTH DAKOTA USA","placename":"McIntosh, ND, USA","title":"577018 Bushels"}},{"local_stop_id":583,"id":583,"geometry":"POINT(-11425478.973187 5780572.7087)","attributes":{"size":"6.987653407","color":"#8BE01B","unit":"kg","weight":"12409505.97","address":"HETTINGER, NORTH DAKOTA USA","placename":"Hettinger, ND 58639, USA","title":"569965 Bushels"}},{"local_stop_id":582,"id":582,"geometry":"POINT(-11104195.527272 5921960.357535)","attributes":{"size":"6.903833196","color":"#8BE01B","unit":"kg","weight":"12260648.07","address":"KIDDER, NORTH DAKOTA USA","placename":"Kidder, ND, USA","title":"563128 Bushels"}},{"local_stop_id":581,"id":581,"geometry":"POINT(-8443961.350869 4708859.819321)","attributes":{"size":"6.850282417","color":"#8BE01B","unit":"kg","weight":"12165546.22","address":"CAROLINE, MARYLAND USA","placename":"Caroline, MD, USA","title":"558760 Bushels"}},{"local_stop_id":580,"id":580,"geometry":"POINT(-11435408.23762 5976773.411508)","attributes":{"size":"6.839285382","color":"#8BE01B","unit":"kg","weight":"12146016.38","address":"DUNN, NORTH DAKOTA USA","placename":"Dunn, ND, USA","title":"557863 Bushels"}},{"local_stop_id":579,"id":579,"geometry":"POINT(-12127838.246322 6208361.182023)","attributes":{"size":"6.786801204","color":"#8BE01B","unit":"kg","weight":"12052808.74","address":"BLAINE, MONTANA USA","placename":"Blaine, Mt, USA","title":"553582 Bushels"}},{"local_stop_id":578,"id":578,"geometry":"POINT(-11122591.351424 5918390.637202)","attributes":{"size":"6.559038754","color":"#8BE01B","unit":"kg","weight":"11648321.09","address":"STEELE, NORTH DAKOTA USA","placename":"Steele, ND 58482, USA","title":"535004 Bushels"}},{"local_stop_id":577,"id":577,"geometry":"POINT(-11281449.48567 5961976.30126)","attributes":{"size":"6.314186151","color":"#8BE01B","unit":"kg","weight":"11213482.72","address":"OLIVER, NORTH DAKOTA USA","placename":"Oliver, ND, USA","title":"515032 Bushels"}},{"local_stop_id":576,"id":576,"geometry":"POINT(-8397327.089223 4672099.972242)","attributes":{"size":"6.296495268","color":"#8BE01B","unit":"kg","weight":"11182065.14","address":"SUSSEX, DELAWARE USA","placename":"Sussex, DE, USA","title":"513589 Bushels"}},{"local_stop_id":575,"id":575,"geometry":"POINT(-11786627.164401 6015852.383972)","attributes":{"size":"6.026436529","color":"#8BE01B","unit":"kg","weight":"10702462.72","address":"MCCONE, MONTANA USA","placename":"McCone, Mt, USA","title":"491561 Bushels"}},{"local_stop_id":574,"id":574,"geometry":"POINT(-10918103.146395 6177246.82966)","attributes":{"size":"5.906425407","color":"#8BE01B","unit":"kg","weight":"10489332.69","address":"ADAMS, NORTH DAKOTA USA","placename":"Adams, ND 58210, USA","title":"481772 Bushels"}},{"local_stop_id":573,"id":573,"geometry":"POINT(-13442167.147179 5686649.262763)","attributes":{"size":"5.690849192","color":"#8BE01B","unit":"kg","weight":"10106486.81","address":"SHERMAN, OREGON USA","placename":"Sherman, OR, USA","title":"464188 Bushels"}},{"local_stop_id":572,"id":572,"geometry":"POINT(-10811976.431548 6018089.196003)","attributes":{"size":"5.661977377","color":"#8BE01B","unit":"kg","weight":"10055212.81","address":"TRAILL, NORTH DAKOTA USA","placename":"Traill, ND, USA","title":"461833 Bushels"}},{"local_stop_id":571,"id":571,"geometry":"POINT(-12008899.303738 6182371.739356)","attributes":{"size":"5.513903587","color":"#8BE01B","unit":"kg","weight":"9792245.762","address":"PHILLIPS, MONTANA USA","placename":"Phillips, Mt, USA","title":"449755 Bushels"}},{"local_stop_id":570,"id":570,"geometry":"POINT(-12273832.23342 5952026.171058)","attributes":{"size":"5.265458864","color":"#8BE01B","unit":"kg","weight":"9351028.075999999","address":"JUDITH BASIN, MONTANA USA","placename":"Judith Basin, Mt, USA","title":"429490 Bushels"}},{"local_stop_id":569,"id":569,"geometry":"POINT(-11521801.201618 5846771.862028)","attributes":{"size":"5.254388271","color":"#8BE01B","unit":"kg","weight":"9331367.598999999","address":"SLOPE, NORTH DAKOTA USA","placename":"Slope, ND, USA","title":"428587 Bushels"}},{"local_stop_id":568,"id":568,"geometry":"POINT(-10517434.54333 6021372.06475)","attributes":{"size":"4.923288018","color":"#8BE01B","unit":"kg","weight":"8743360.392000001","address":"PENNINGTON, MINNESOTA USA","placename":"Pennington, Brook Lake, MN 56663, USA","title":"401580 Bushels"}},{"local_stop_id":567,"id":567,"geometry":"POINT(-12303202.211273 5171520.27582)","attributes":{"size":"4.799880933","color":"#8BE01B","unit":"kg","weight":"8524199.414000001","address":"LINCOLN, WYOMING USA","placename":"Lincoln, WY, USA","title":"391514 Bushels"}},{"local_stop_id":566,"id":566,"geometry":"POINT(-8541293.503116 4860508.668525)","attributes":{"size":"4.680470541","color":"#8BE01B","unit":"kg","weight":"8312136.238","address":"YORK, PENNSYLVANIA USA","placename":"York, PA, USA","title":"381774 Bushels"}},{"local_stop_id":565,"id":565,"geometry":"POINT(-8886795.661976 5071200.640814)","attributes":{"size":"4.498952033","color":"#8BE01B","unit":"kg","weight":"7989774.083","address":"FRANKLIN, PENNSYLVANIA USA","placename":"Franklin, PA 16323, USA","title":"366968 Bushels"}},{"local_stop_id":564,"id":564,"geometry":"POINT(-11939973.814998 5814173.215687)","attributes":{"size":"4.481003695","color":"#8BE01B","unit":"kg","weight":"7957899.29","address":"TREASURE, MONTANA USA","placename":"Treasure, Mt, USA","title":"365504 Bushels"}},{"local_stop_id":563,"id":563,"geometry":"POINT(-13332998.805358 4404001.304882)","attributes":{"size":"4.311463005","color":"#8BE01B","unit":"kg","weight":"7656808.77","address":"FRESNO, CALIFORNIA USA","placename":"Fresno, CA, USA","title":"351675 Bushels"}},{"local_stop_id":562,"id":562,"geometry":"POINT(-12463732.163896 5390393.126975)","attributes":{"size":"4.259407921","color":"#8BE01B","unit":"kg","weight":"7564363.16","address":"LINCOLN, IDAHO USA","placename":"Lincoln, ID 83401, USA","title":"347429 Bushels"}},{"local_stop_id":561,"id":561,"geometry":"POINT(-13645210.625593 5127234.303852)","attributes":{"size":"4.2523095","color":"#8BE01B","unit":"kg","weight":"7551756.94","address":"SISKIYOU, CALIFORNIA USA","placename":"Siskiyou, CA, USA","title":"346850 Bushels"}},{"local_stop_id":560,"id":560,"geometry":"POINT(-12446317.164645 5163007.51165)","attributes":{"size":"4.21841117","color":"#8BE01B","unit":"kg","weight":"7491556.254","address":"FRANKLIN, IDAHO USA","placename":"Franklin, ID, USA","title":"344085 Bushels"}},{"local_stop_id":559,"id":559,"geometry":"POINT(-10783012.012864 6233612.715075)","attributes":{"size":"4.119499153","color":"#8BE01B","unit":"kg","weight":"7315896.531","address":"KITTSON, MINNESOTA USA","placename":"Kittson, MN, USA","title":"336017 Bushels"}},{"local_stop_id":558,"id":558,"geometry":"POINT(-12782190.00944 5389827.166156)","attributes":{"size":"3.980656988","color":"#8BE01B","unit":"kg","weight":"7069324.101","address":"CAMAS, IDAHO USA","placename":"Camas, ID, USA","title":"324692 Bushels"}},{"local_stop_id":557,"id":557,"geometry":"POINT(-13431766.967904 4202372.764364)","attributes":{"size":"3.958846814","color":"#8BE01B","unit":"kg","weight":"7030591.001","address":"SAN LUIS OBISPO, CALIFORNIA USA","placename":"San Luis Obispo, CA, USA","title":"322913 Bushels"}},{"local_stop_id":556,"id":556,"geometry":"POINT(-13173884.825526 5790704.401389)","attributes":{"size":"3.87468333","color":"#8BE01B","unit":"kg","weight":"6881123.475","address":"WALLA WALLA, WASHINGTON USA","placename":"Walla Walla, WA, USA","title":"316048 Bushels"}},{"local_stop_id":555,"id":555,"geometry":"POINT(-11530801.360185 6241942.527473)","attributes":{"size":"3.821022212","color":"#8BE01B","unit":"kg","weight":"6785825.68","address":"DIVIDE, NORTH DAKOTA USA","placename":"Divide, ND, USA","title":"311671 Bushels"}},{"local_stop_id":554,"id":554,"geometry":"POINT(-12489583.032083 5693614.944227)","attributes":{"size":"3.570934677","color":"#8BE01B","unit":"kg","weight":"6341690.493","address":"SHERIDAN, MONTANA USA","placename":"Sheridan, Mt 59749, USA","title":"291272 Bushels"}},{"local_stop_id":553,"id":553,"geometry":"POINT(-8617301.99502 4781186.945471)","attributes":{"size":"3.569769996","color":"#8BE01B","unit":"kg","weight":"6339622.115","address":"FREDERICK, MARYLAND USA","placename":"Frederick, MD, USA","title":"291177 Bushels"}},{"local_stop_id":552,"id":552,"geometry":"POINT(-12989486.604847 5415739.962388)","attributes":{"size":"3.494568421","color":"#8BE01B","unit":"kg","weight":"6206070.213","address":"CANYON, IDAHO USA","placename":"Canyon, ID, USA","title":"285043 Bushels"}},{"local_stop_id":551,"id":551,"geometry":"POINT(-8474974.949872 4760619.372619)","attributes":{"size":"3.445406648","color":"#8BE01B","unit":"kg","weight":"6118762.889","address":"KENT, MARYLAND USA","placename":"Kent, MD, USA","title":"281033 Bushels"}},{"local_stop_id":550,"id":550,"geometry":"POINT(-12483704.049399 5248810.242856)","attributes":{"size":"3.430560037","color":"#8BE01B","unit":"kg","weight":"6092396.513","address":"BANNOCK, IDAHO USA","placename":"Bannock, ID, USA","title":"279822 Bushels"}},{"local_stop_id":549,"id":549,"geometry":"POINT(-12227539.83393 5859592.957518)","attributes":{"size":"3.40540294","color":"#8BE01B","unit":"kg","weight":"6047719.548","address":"WHEATLAND, MONTANA USA","placename":"Wheatland, Mt, USA","title":"277770 Bushels"}},{"local_stop_id":548,"id":548,"geometry":"POINT(-8459475.926037 4916226.998343)","attributes":{"size":"3.375538082","color":"#8BE01B","unit":"kg","weight":"5994681.982","address":"BERKS, PENNSYLVANIA USA","placename":"Berks, PA, USA","title":"275334 Bushels"}},{"local_stop_id":547,"id":547,"geometry":"POINT(-8474974.949872 4725447.718842)","attributes":{"size":"3.363964837","color":"#8BE01B","unit":"kg","weight":"5974128.836","address":"QUEEN ANNES, MARYLAND USA","placename":"Queen Anne's, MD, USA","title":"274390 Bushels"}},{"local_stop_id":546,"id":546,"geometry":"POINT(-13428399.597835 5079912.737046)","attributes":{"size":"3.356915455","color":"#8BE01B","unit":"kg","weight":"5961609.706","address":"MODOC, CALIFORNIA USA","placename":"Modoc, CA, USA","title":"273815 Bushels"}},{"local_stop_id":545,"id":545,"geometry":"POINT(-10811522.370477 5953698.247868)","attributes":{"size":"3.356768338","color":"#8BE01B","unit":"kg","weight":"5961348.437","address":"CASS, NORTH DAKOTA USA","placename":"Cass, ND, USA","title":"273803 Bushels"}},{"local_stop_id":544,"id":544,"geometry":"POINT(-12985412.200165 5981956.938261)","attributes":{"size":"3.351582445","color":"#8BE01B","unit":"kg","weight":"5952138.712","address":"BENEWAH, IDAHO USA","placename":"Benewah, ID, USA","title":"273380 Bushels"}},{"local_stop_id":543,"id":543,"geometry":"POINT(-12600453.771745 5092024.653)","attributes":{"size":"3.215780709","color":"#8BE01B","unit":"kg","weight":"5710965.837","address":"BOX ELDER, UTAH USA","placename":"Box Elder, UT, USA","title":"262303 Bushels"}},{"local_stop_id":542,"id":542,"geometry":"POINT(-13378398.934601 5693686.310951)","attributes":{"size":"3.207591166","color":"#8BE01B","unit":"kg","weight":"5696421.874","address":"GILLIAM, OREGON USA","placename":"Gilliam, OR, USA","title":"261635 Bushels"}},{"local_stop_id":541,"id":541,"geometry":"POINT(-13083184.008741 5711730.138114)","attributes":{"size":"3.177677269","color":"#8BE01B","unit":"kg","weight":"5643297.218","address":"WALLOWA, OREGON USA","placename":"Wallowa, OR 97885, USA","title":"259195 Bushels"}},{"local_stop_id":540,"id":540,"geometry":"POINT(-10942098.519045 5837775.343215)","attributes":{"size":"3.11102077","color":"#8BE01B","unit":"kg","weight":"5524920.679","address":"LA MOURE, NORTH DAKOTA USA","placename":"LaMoure, ND 58458, USA","title":"253758 Bushels"}},{"local_stop_id":539,"id":539,"geometry":"POINT(-10529327.728483 5714009.929771)","attributes":{"size":"3.109034683","color":"#8BE01B","unit":"kg","weight":"5521393.55","address":"STEARNS, MINNESOTA USA","placename":"Stearns, MN, USA","title":"253596 Bushels"}},{"local_stop_id":538,"id":538,"geometry":"POINT(-12600453.771745 4730438.072462)","attributes":{"size":"3.018165091","color":"#8BE01B","unit":"kg","weight":"5360016.522","address":"MILLARD, UTAH USA","placename":"Millard, UT, USA","title":"246184 Bushels"}},{"local_stop_id":537,"id":537,"geometry":"POINT(-12406776.726418 5823621.949775)","attributes":{"size":"2.939775969","color":"#8BE01B","unit":"kg","weight":"5220803.796","address":"BROADWATER, MONTANA USA","placename":"Broadwater, Mt, USA","title":"239790 Bushels"}},{"local_stop_id":536,"id":536,"geometry":"POINT(-11361781.214714 5989676.741959)","attributes":{"size":"2.930409487","color":"#8BE01B","unit":"kg","weight":"5204169.682","address":"GOLDEN VALLEY, NORTH DAKOTA USA","placename":"Golden Valley, ND, USA","title":"239026 Bushels"}},{"local_stop_id":535,"id":535,"geometry":"POINT(-12975701.133066 6240784.191515)","attributes":{"size":"2.837002118","color":"#8BE01B","unit":"kg","weight":"5038285.767","address":"BOUNDARY, IDAHO USA","placename":"Boundary, ID, USA","title":"231407 Bushels"}},{"local_stop_id":534,"id":534,"geometry":"POINT(-12860345.119613 5329557.762386)","attributes":{"size":"2.793626967","color":"#8BE01B","unit":"kg","weight":"4961255.016","address":"ELMORE, IDAHO USA","placename":"Elmore, ID, USA","title":"227869 Bushels"}},{"local_stop_id":533,"id":533,"geometry":"POINT(-13231399.097979 4231180.801095)","attributes":{"size":"2.769279016","color":"#8BE01B","unit":"kg","weight":"4918015.029","address":"KERN, CALIFORNIA USA","placename":"Kern, CA, USA","title":"225883 Bushels"}},{"local_stop_id":532,"id":532,"geometry":"POINT(-11700783.116812 6154404.191986)","attributes":{"size":"2.754027833","color":"#8BE01B","unit":"kg","weight":"4890930.164","address":"ROOSEVELT, MONTANA USA","placename":"Roosevelt, Mt, USA","title":"224639 Bushels"}},{"local_stop_id":531,"id":531,"geometry":"POINT(-13285148.322615 5767115.161722)","attributes":{"size":"2.699802764","color":"#8BE01B","unit":"kg","weight":"4794630.838","address":"UMATILLA, OREGON USA","placename":"Umatilla, OR, USA","title":"220216 Bushels"}},{"local_stop_id":530,"id":530,"geometry":"POINT(-11754708.025868 4967539.600227)","attributes":{"size":"2.678863037","color":"#8BE01B","unit":"kg","weight":"4757443.579","address":"LARIMER, COLORADO USA","placename":"Larimer, CO, USA","title":"218508 Bushels"}},{"local_stop_id":529,"id":529,"geometry":"POINT(-13120695.448873 5654400.682212)","attributes":{"size":"2.674020418","color":"#8BE01B","unit":"kg","weight":"4748843.481","address":"UNION, OREGON USA","placename":"Union, OR 97883, USA","title":"218113 Bushels"}},{"local_stop_id":528,"id":528,"geometry":"POINT(-12509588.959086 5496065.392881)","attributes":{"size":"2.671703317","color":"#8BE01B","unit":"kg","weight":"4744728.498","address":"CLARK, IDAHO USA","placename":"Clark, ID, USA","title":"217924 Bushels"}},{"local_stop_id":527,"id":527,"geometry":"POINT(-8577884.375587 4799657.819535)","attributes":{"size":"2.669631412","color":"#8BE01B","unit":"kg","weight":"4741048.962","address":"CARROLL, MARYLAND USA","placename":"Carroll, MD, USA","title":"217755 Bushels"}},{"local_stop_id":526,"id":526,"geometry":"POINT(-12343642.489472 5880299.084566)","attributes":{"size":"2.621916294","color":"#8BE01B","unit":"kg","weight":"4656310.781","address":"MEAGHER, MONTANA USA","placename":"Meagher, Mt, USA","title":"213863 Bushels"}},{"local_stop_id":525,"id":525,"geometry":"POINT(-12769804.781006 5302659.955243)","attributes":{"size":"2.575660092","color":"#8BE01B","unit":"kg","weight":"4574163.516","address":"GOODING, IDAHO USA","placename":"Gooding, ID 83330, USA","title":"210090 Bushels"}},{"local_stop_id":524,"id":524,"geometry":"POINT(-12225950.447637 3881531.092208)","attributes":{"size":"2.56564384","color":"#8BE01B","unit":"kg","weight":"4556375.465","address":"PIMA, ARIZONA USA","placename":"Pima, AZ 85543, USA","title":"209273 Bushels"}},{"local_stop_id":523,"id":523,"geometry":"POINT(-10745816.185752 5998024.451849)","attributes":{"size":"2.551679935","color":"#8BE01B","unit":"kg","weight":"4531576.702","address":"NORMAN, MINNESOTA USA","placename":"Norman, MN, USA","title":"208134 Bushels"}},{"local_stop_id":522,"id":522,"geometry":"POINT(-11925246.791832 5985639.369943)","attributes":{"size":"2.508464162","color":"#8BE01B","unit":"kg","weight":"4454828.992","address":"GARFIELD, MONTANA USA","placename":"Garfield, Mt, USA","title":"204609 Bushels"}},{"local_stop_id":521,"id":521,"geometry":"POINT(-12315436.579534 5442819.267)","attributes":{"size":"2.480156298","color":"#8BE01B","unit":"kg","weight":"4404556.52","address":"TETON, WYOMING USA","placename":"Teton, WY, USA","title":"202300 Bushels"}},{"local_stop_id":520,"id":520,"geometry":"POINT(-12091251.759839 5313798.06054)","attributes":{"size":"2.456580714","color":"#8BE01B","unit":"kg","weight":"4362688.195","address":"FREMONT, WYOMING USA","placename":"Fremont, WY, USA","title":"200377 Bushels"}},{"local_stop_id":519,"id":519,"geometry":"POINT(-8522546.076352 4588495.558939)","attributes":{"size":"2.388514339","color":"#8BE01B","unit":"kg","weight":"4241807.83","address":"WESTMORELAND, VIRGINIA USA","placename":"Westmoreland, VA 22488, USA","title":"194825 Bushels"}},{"local_stop_id":518,"id":518,"geometry":"POINT(-11390480.893386 5682945.570756)","attributes":{"size":"2.368089522","color":"#8BE01B","unit":"kg","weight":"4205535.012","address":"PERKINS, SOUTH DAKOTA USA","placename":"Perkins, SD, USA","title":"193159 Bushels"}},{"local_stop_id":517,"id":517,"geometry":"POINT(-13569253.273863 4383530.614586)","attributes":{"size":"2.350545757","color":"#8BE01B","unit":"kg","weight":"4174378.707","address":"MONTEREY, CALIFORNIA USA","placename":"Monterey, CA, USA","title":"191728 Bushels"}},{"local_stop_id":516,"id":516,"geometry":"POINT(-12177488.486931 5732421.124065)","attributes":{"size":"2.332364483","color":"#8BE01B","unit":"kg","weight":"4142090.238","address":"STILLWATER, MONTANA USA","placename":"Stillwater, Mt, USA","title":"190245 Bushels"}},{"local_stop_id":515,"id":515,"geometry":"POINT(-12455148.373621 5695300.141175)","attributes":{"size":"2.306815072","color":"#8BE01B","unit":"kg","weight":"4096716.556","address":"MADISON, MONTANA USA","placename":"Madison, Mt, USA","title":"188161 Bushels"}},{"local_stop_id":514,"id":514,"geometry":"POINT(-8649459.835937 4809869.730308)","attributes":{"size":"2.294064887","color":"#8BE01B","unit":"kg","weight":"4074073.26","address":"WASHINGTON, MARYLAND USA","placename":"Washington, MD, USA","title":"187121 Bushels"}},{"local_stop_id":513,"id":513,"geometry":"POINT(-8506072.539431 4915608.972366)","attributes":{"size":"2.2801868","color":"#8BE01B","unit":"kg","weight":"4049426.904","address":"LEBANON, PENNSYLVANIA USA","placename":"Lebanon, PA, USA","title":"185989 Bushels"}},{"local_stop_id":512,"id":512,"geometry":"POINT(-11892314.367634 6154496.21909)","attributes":{"size":"2.253558528","color":"#8BE01B","unit":"kg","weight":"4002137.251","address":"VALLEY, MONTANA USA","placename":"Valley, Mt, USA","title":"183817 Bushels"}},{"local_stop_id":511,"id":511,"geometry":"POINT(-12919994.934046 5263805.020858)","attributes":{"size":"2.192909328","color":"#8BE01B","unit":"kg","weight":"3894429.188","address":"OWYHEE, IDAHO USA","placename":"Owyhee, ID, USA","title":"178870 Bushels"}},{"local_stop_id":510,"id":510,"geometry":"POINT(-8966099.811932 4249875.971232)","attributes":{"size":"2.125909554","color":"#8BE01B","unit":"kg","weight":"3775443.022","address":"ROWAN, NORTH CAROLINA USA","placename":"Rowan, NC, USA","title":"173405 Bushels"}},{"local_stop_id":509,"id":509,"geometry":"POINT(-8781277.152299 4662056.590969)","attributes":{"size":"2.122317435","color":"#8BE01B","unit":"kg","weight":"3769063.709","address":"ROCKINGHAM, VIRGINIA USA","placename":"Rockingham, VA, USA","title":"173112 Bushels"}},{"local_stop_id":508,"id":508,"geometry":"POINT(-11972976.22576 5801070.273881)","attributes":{"size":"2.067503896","color":"#8BE01B","unit":"kg","weight":"3671719.308","address":"CUSTER, MONTANA USA","placename":"Custer, Mt 59024, USA","title":"168641 Bushels"}},{"local_stop_id":507,"id":507,"geometry":"POINT(-12419991.129212 4879994.050415)","attributes":{"size":"2.037479661","color":"#8BE01B","unit":"kg","weight":"3618398.701","address":"UTAH, UTAH USA","placename":"Utah, UT, USA","title":"166192 Bushels"}},{"local_stop_id":506,"id":506,"geometry":"POINT(-16305457.347702 9595899.886228)","attributes":{"size":"2.026286469","color":"#8BE01B","unit":"kg","weight":"3598520.5","address":"FAIRBANKS NORTH STAR, ALASKA USA","placename":"Fairbanks North Star, AK, USA","title":"165279 Bushels"}},{"local_stop_id":505,"id":505,"geometry":"POINT(-12236369.29519 3778280.118097)","attributes":{"size":"1.971730387","color":"#8BE01B","unit":"kg","weight":"3501633.32","address":"COCHISE, ARIZONA USA","placename":"Cochise, AZ 85606, USA","title":"160829 Bushels"}},{"local_stop_id":504,"id":504,"geometry":"POINT(-10750313.782611 5406264.118574)","attributes":{"size":"1.963687962","color":"#8BE01B","unit":"kg","weight":"3487350.625","address":"CORSON, SOUTH DAKOTA USA","placename":"Corson, Brandon, SD 57005, USA","title":"160173 Bushels"}},{"local_stop_id":503,"id":503,"geometry":"POINT(-12388134.151483 5195227.535853)","attributes":{"size":"1.961750914","color":"#8BE01B","unit":"kg","weight":"3483910.586","address":"BEAR LAKE, IDAHO USA","placename":"Bear Lake, ID, USA","title":"160015 Bushels"}},{"local_stop_id":502,"id":502,"geometry":"POINT(-10674826.533091 5863903.873291)","attributes":{"size":"1.957889079","color":"#8BE01B","unit":"kg","weight":"3477052.28","address":"OTTER TAIL, MINNESOTA USA","placename":"Otter Tail, MN, USA","title":"159700 Bushels"}},{"local_stop_id":501,"id":501,"geometry":"POINT(-8474974.949872 4690264.008397)","attributes":{"size":"1.957178011","color":"#8BE01B","unit":"kg","weight":"3475789.481","address":"TALBOT, MARYLAND USA","placename":"Talbot, MD, USA","title":"159642 Bushels"}},{"local_stop_id":500,"id":500,"geometry":"POINT(-13316526.415027 5692869.301536)","attributes":{"size":"1.904693834","color":"#8BE01B","unit":"kg","weight":"3382581.836","address":"MORROW, OREGON USA","placename":"Morrow, OR, USA","title":"155361 Bushels"}},{"local_stop_id":499,"id":499,"geometry":"POINT(-13345149.795319 4314231.366568)","attributes":{"size":"1.888118592","color":"#8BE01B","unit":"kg","weight":"3353145.552","address":"KINGS, CALIFORNIA USA","placename":"Kings, CA, USA","title":"154009 Bushels"}},{"local_stop_id":498,"id":498,"geometry":"POINT(-8480137.792008 4638258.469323)","attributes":{"size":"1.870918102","color":"#8BE01B","unit":"kg","weight":"3322598.874","address":"DORCHESTER, MARYLAND USA","placename":"Dorchester, MD, USA","title":"152606 Bushels"}},{"local_stop_id":497,"id":497,"geometry":"POINT(-11532651.289747 5708251.796793)","attributes":{"size":"1.864592048","color":"#8BE01B","unit":"kg","weight":"3311364.316","address":"HARDING, SOUTH DAKOTA USA","placename":"Harding, SD, USA","title":"152090 Bushels"}},{"local_stop_id":496,"id":496,"geometry":"POINT(-10002112.041104 5598008.859497)","attributes":{"size":"1.856476064","color":"#8BE01B","unit":"kg","weight":"3296950.987","address":"MARATHON, WISCONSIN USA","placename":"Marathon, WI, USA","title":"151428 Bushels"}},{"local_stop_id":495,"id":495,"geometry":"POINT(-10102609.017607 5597635.394592)","attributes":{"size":"1.815479314","color":"#8BE01B","unit":"kg","weight":"3224144.082","address":"CLARK, WISCONSIN USA","placename":"Clark, WI, USA","title":"148084 Bushels"}},{"local_stop_id":494,"id":494,"geometry":"POINT(-11051622.370792 5741269.789047)","attributes":{"size":"1.809055182","color":"#8BE01B","unit":"kg","weight":"3212735.344","address":"MCPHERSON, SOUTH DAKOTA USA","placename":"McPherson, SD, USA","title":"147560 Bushels"}},{"local_stop_id":493,"id":493,"geometry":"POINT(-12705330.324182 6052356.274757)","attributes":{"size":"1.778552815","color":"#8BE01B","unit":"kg","weight":"3158565.613","address":"LAKE, MONTANA USA","placename":"Lake, Mt, USA","title":"145072 Bushels"}},{"local_stop_id":492,"id":492,"geometry":"POINT(-8598374.831806 4884849.232477)","attributes":{"size":"1.774850357","color":"#8BE01B","unit":"kg","weight":"3151990.348","address":"CUMBERLAND, PENNSYLVANIA USA","placename":"Cumberland, PA, USA","title":"144770 Bushels"}},{"local_stop_id":491,"id":491,"geometry":"POINT(-8567627.353178 4574788.846547)","attributes":{"size":"1.763019656","color":"#8BE01B","unit":"kg","weight":"3130979.982","address":"ESSEX, VIRGINIA USA","placename":"Essex, VA, USA","title":"143805 Bushels"}},{"local_stop_id":490,"id":490,"geometry":"POINT(-11509390.291777 5951224.476391)","attributes":{"size":"1.749411285","color":"#8BE01B","unit":"kg","weight":"3106812.618","address":"BILLINGS, NORTH DAKOTA USA","placename":"Billings, ND, USA","title":"142695 Bushels"}},{"local_stop_id":489,"id":489,"geometry":"POINT(-11849636.745782 5823661.629253)","attributes":{"size":"1.746898027","color":"#8BE01B","unit":"kg","weight":"3102349.276","address":"ROSEBUD, MONTANA USA","placename":"Rosebud, Mt 59347, USA","title":"142490 Bushels"}},{"local_stop_id":488,"id":488,"geometry":"POINT(-8821525.838522 4607782.381736)","attributes":{"size":"1.677777309","color":"#8BE01B","unit":"kg","weight":"2979596.485","address":"AUGUSTA, VIRGINIA USA","placename":"Augusta, VA, USA","title":"136852 Bushels"}},{"local_stop_id":487,"id":487,"geometry":"POINT(-11040875.598283 5694014.06244)","attributes":{"size":"1.671389957","color":"#8BE01B","unit":"kg","weight":"2968253.064","address":"EDMUNDS, SOUTH DAKOTA USA","placename":"Edmunds, SD, USA","title":"136331 Bushels"}},{"local_stop_id":486,"id":486,"geometry":"POINT(-8454306.115301 4804220.239904)","attributes":{"size":"1.648476402","color":"#8BE01B","unit":"kg","weight":"2927560.449","address":"CECIL, MARYLAND USA","placename":"Cecil, MD, USA","title":"134462 Bushels"}},{"local_stop_id":485,"id":485,"geometry":"POINT(-10895190.244473 3556595.211095)","attributes":{"size":"1.644075136","color":"#8BE01B","unit":"kg","weight":"2919744.157","address":"PARK, MONTANA USA","placename":"Montana, Austin, TX 78732, USA","title":"134103 Bushels"}},{"local_stop_id":484,"id":484,"geometry":"POINT(-11718663.531722 4868120.185076)","attributes":{"size":"1.611010472","color":"#8BE01B","unit":"kg","weight":"2861023.994","address":"BOULDER, COLORADO USA","placename":"Boulder, CO, USA","title":"131406 Bushels"}},{"local_stop_id":483,"id":483,"geometry":"POINT(-13125234.868464 6183025.668585)","attributes":{"size":"1.584737734","color":"#8BE01B","unit":"kg","weight":"2814365.741","address":"STEVENS, WASHINGTON USA","placename":"Stevens, WA, USA","title":"129263 Bushels"}},{"local_stop_id":482,"id":482,"geometry":"POINT(-12553326.665318 5274428.31751)","attributes":{"size":"1.547615078","color":"#8BE01B","unit":"kg","weight":"2748438.914","address":"POWER, IDAHO USA","placename":"Power, ID, USA","title":"126235 Bushels"}},{"local_stop_id":481,"id":481,"geometry":"POINT(-13437598.628672 4944644.524539)","attributes":{"size":"1.546756892","color":"#8BE01B","unit":"kg","weight":"2746914.846","address":"LASSEN, CALIFORNIA USA","placename":"Lassen, CA, USA","title":"126165 Bushels"}},{"local_stop_id":480,"id":480,"geometry":"POINT(-11051638.556646 4655409.130562)","attributes":{"size":"1.535906975","color":"#8BE01B","unit":"kg","weight":"2727646.272","address":"RUSH, KANSAS USA","placename":"Rush, KS, USA","title":"125280 Bushels"}},{"local_stop_id":479,"id":479,"geometry":"POINT(-8412003.506549 4816954.195014)","attributes":{"size":"1.459381341","color":"#8BE01B","unit":"kg","weight":"2591742.951","address":"NEW CASTLE, DELAWARE USA","placename":"New Castle, DE 19720, USA","title":"119038 Bushels"}},{"local_stop_id":478,"id":478,"geometry":"POINT(-8388563.239671 4844104.336013)","attributes":{"size":"1.452160323","color":"#8BE01B","unit":"kg","weight":"2578919.008","address":"CHESTER, PENNSYLVANIA USA","placename":"Chester, PA, USA","title":"118449 Bushels"}},{"local_stop_id":477,"id":477,"geometry":"POINT(-8528429.901434 4763352.472613)","attributes":{"size":"1.412217914","color":"#8BE01B","unit":"kg","weight":"2507984.528","address":"BALTIMORE, MARYLAND USA","placename":"Baltimore, MD, USA","title":"115191 Bushels"}},{"local_stop_id":476,"id":476,"geometry":"POINT(-13570045.790714 4688008.715273)","attributes":{"size":"1.404347127","color":"#8BE01B","unit":"kg","weight":"2494006.648","address":"YOLO, CALIFORNIA USA","placename":"Yolo, CA, USA","title":"114549 Bushels"}},{"local_stop_id":475,"id":475,"geometry":"POINT(-13192581.947012 5930203.22392)","attributes":{"size":"1.384988912","color":"#8BE01B","unit":"kg","weight":"2459628.028","address":"ADAMS, WASHINGTON USA","placename":"Adams, WA, USA","title":"112970 Bushels"}},{"local_stop_id":474,"id":474,"geometry":"POINT(-12940003.632904 5385131.32578)","attributes":{"size":"1.380575386","color":"#8BE01B","unit":"kg","weight":"2451789.964","address":"ADA, IDAHO USA","placename":"Ada, ID, USA","title":"112610 Bushels"}},{"local_stop_id":473,"id":473,"geometry":"POINT(-8598374.831806 4920057.301872)","attributes":{"size":"1.292783003","color":"#8BE01B","unit":"kg","weight":"2295877.808","address":"PERRY, PENNSYLVANIA USA","placename":"Perry, PA, USA","title":"105449 Bushels"}},{"local_stop_id":472,"id":472,"geometry":"POINT(-13330226.33778 6070176.966321)","attributes":{"size":"1.281172978","color":"#8BE01B","unit":"kg","weight":"2275259.345","address":"DOUGLAS, WASHINGTON USA","placename":"Douglas, WA, USA","title":"104502 Bushels"}},{"local_stop_id":471,"id":471,"geometry":"POINT(-12591270.192053 5655197.412748)","attributes":{"size":"1.251872071","color":"#8BE01B","unit":"kg","weight":"2223223.309","address":"BEAVERHEAD, MONTANA USA","placename":"Beaverhead, Mt, USA","title":"102112 Bushels"}},{"local_stop_id":470,"id":470,"geometry":"POINT(-12419991.129212 4766031.542286)","attributes":{"size":"1.243731567","color":"#8BE01B","unit":"kg","weight":"2208766.435","address":"SANPETE, UTAH USA","placename":"Sanpete, UT, USA","title":"101448 Bushels"}},{"local_stop_id":469,"id":469,"geometry":"POINT(-11271363.294151 4512483.503983)","attributes":{"size":"1.235787221","color":"#8BE01B","unit":"kg","weight":"2194657.92","address":"GRANT, KANSAS USA","placename":"Grant, KS, USA","title":"100800 Bushels"}},{"local_stop_id":468,"id":468,"geometry":"POINT(-10734066.380103 5922213.543798)","attributes":{"size":"1.229191452","color":"#8BE01B","unit":"kg","weight":"2182944.369","address":"CLAY, MINNESOTA USA","placename":"Clay, MN, USA","title":"100262 Bushels"}},{"local_stop_id":467,"id":467,"geometry":"POINT(-11671343.430694 5168555.423634)","attributes":{"size":"1.173041596","color":"#8BE01B","unit":"kg","weight":"2083226.777","address":"PLATTE, WYOMING USA","placename":"Platte, WY, USA","title":"95682 Bushels"}},{"local_stop_id":466,"id":466,"geometry":"POINT(-8505925.263744 4565812.881317)","attributes":{"size":"1.167353052","color":"#8BE01B","unit":"kg","weight":"2073124.383","address":"NORTHUMBERLAND, VIRGINIA USA","placename":"Northumberland, VA, USA","title":"95218 Bushels"}},{"local_stop_id":465,"id":465,"geometry":"POINT(-12526171.077039 5191883.896159)","attributes":{"size":"1.147308289","color":"#8BE01B","unit":"kg","weight":"2037526.509","address":"ONEIDA, IDAHO USA","placename":"Oneida, ID, USA","title":"93583 Bushels"}},{"local_stop_id":464,"id":464,"geometry":"POINT(-10342748.525209 5634820.073847)","attributes":{"size":"1.129838082","color":"#8BE01B","unit":"kg","weight":"2006500.839","address":"GRANT, WASHINGTON USA","placename":"Grant, MN, USA","title":"92158 Bushels"}},{"local_stop_id":463,"id":463,"geometry":"POINT(-8549054.73141 4996388.181189)","attributes":{"size":"1.107696895","color":"#8BE01B","unit":"kg","weight":"1967179.885","address":"NORTHUMBERLAND, PENNSYLVANIA USA","placename":"Northumberland, PA, USA","title":"90352 Bushels"}},{"local_stop_id":462,"id":462,"geometry":"POINT(-13548855.101502 6177718.34024)","attributes":{"size":"1.095400322","color":"#8BE01B","unit":"kg","weight":"1945342.168","address":"SKAGIT, WASHINGTON USA","placename":"Skagit, WA, USA","title":"89349 Bushels"}},{"local_stop_id":461,"id":461,"geometry":"POINT(-8603492.478228 4585721.952425)","attributes":{"size":"1.094627954","color":"#8BE01B","unit":"kg","weight":"1943970.506","address":"CAROLINE, VIRGINIA USA","placename":"Caroline, VA, USA","title":"89286 Bushels"}},{"local_stop_id":460,"id":460,"geometry":"POINT(-8400963.85246 4803908.196166)","attributes":{"size":"1.057946651","color":"#8BE01B","unit":"kg","weight":"1878827.486","address":"SALEM, NEW JERSEY USA","placename":"Salem, NJ, USA","title":"86294 Bushels"}},{"local_stop_id":459,"id":459,"geometry":"POINT(-12997091.640764 5522237.323083)","attributes":{"size":"1.05029654","color":"#8BE01B","unit":"kg","weight":"1865241.508","address":"WASHINGTON, IDAHO USA","placename":"Washington, ID, USA","title":"85670 Bushels"}},{"local_stop_id":458,"id":458,"geometry":"POINT(-8612850.896312 4546476.774422)","attributes":{"size":"1.03006788","color":"#8BE01B","unit":"kg","weight":"1829317.048","address":"HANOVER, VIRGINIA USA","placename":"Hanover, Beaverdam, VA 23069, USA","title":"84020 Bushels"}},{"local_stop_id":457,"id":457,"geometry":"POINT(-13196936.253422 5100228.170239)","attributes":{"size":"1.01398303","color":"#8BE01B","unit":"kg","weight":"1800751.659","address":"HUMBOLDT, NEVADA USA","placename":"Humboldt, NV, USA","title":"82708 Bushels"}},{"local_stop_id":456,"id":456,"geometry":"POINT(-12710533.809064 5987430.13476)","attributes":{"size":"1.006467777","color":"#8BE01B","unit":"kg","weight":"1787405.178","address":"RAVALLI, MONTANA USA","placename":"Ravalli, Mt, USA","title":"82095 Bushels"}},{"local_stop_id":455,"id":455,"geometry":"POINT(-8603492.478228 4844493.620583)","attributes":{"size":"0.992982004","color":"#8BE01B","unit":"kg","weight":"1763455.538","address":"ADAMS, PENNSYLVANIA USA","placename":"Adams, PA, USA","title":"80995 Bushels"}},{"local_stop_id":454,"id":454,"geometry":"POINT(-13311961.737043 6167167.782186)","attributes":{"size":"0.969639356","color":"#8BE01B","unit":"kg","weight":"1722000.888","address":"OKANOGAN, WASHINGTON USA","placename":"Okanogan, WA 98840, USA","title":"79091 Bushels"}},{"local_stop_id":453,"id":453,"geometry":"POINT(-8680010.946983 4483982.988652)","attributes":{"size":"0.9693206009999999","color":"#8BE01B","unit":"kg","weight":"1721434.806","address":"AMELIA, VIRGINIA USA","placename":"Amelia, VA, USA","title":"79065 Bushels"}},{"local_stop_id":452,"id":452,"geometry":"POINT(-13029747.313575 5834894.277208)","attributes":{"size":"0.9621608820000001","color":"#8BE01B","unit":"kg","weight":"1708719.724","address":"ASOTIN, WASHINGTON USA","placename":"Asotin, WA, USA","title":"78481 Bushels"}},{"local_stop_id":451,"id":451,"geometry":"POINT(-10556599.723553 5785281.95511)","attributes":{"size":"0.962013764","color":"#8BE01B","unit":"kg","weight":"1708458.456","address":"TODD, MINNESOTA USA","placename":"Todd, MN, USA","title":"78469 Bushels"}},{"local_stop_id":450,"id":450,"geometry":"POINT(-10867653.442598 5859831.671545)","attributes":{"size":"0.957477641","color":"#8BE01B","unit":"kg","weight":"1700402.668","address":"RANSOM, NORTH DAKOTA USA","placename":"Ransom, ND, USA","title":"78099 Bushels"}},{"local_stop_id":449,"id":449,"geometry":"POINT(-13645482.734956 6139799.968082)","attributes":{"size":"0.955932907","color":"#8BE01B","unit":"kg","weight":"1697659.345","address":"ISLAND, WASHINGTON USA","placename":"Island, WA, USA","title":"77973 Bushels"}},{"local_stop_id":448,"id":448,"geometry":"POINT(-10742536.446386 5846093.756573)","attributes":{"size":"0.944751975","color":"#8BE01B","unit":"kg","weight":"1677802.916","address":"WILKIN, MINNESOTA USA","placename":"Wilkin, MN, USA","title":"77061 Bushels"}},{"local_stop_id":447,"id":447,"geometry":"POINT(-9424534.314028 5270446.324498)","attributes":{"size":"0.922010057","color":"#8BE01B","unit":"kg","weight":"1637415.114","address":"DELTA, MICHIGAN USA","placename":"Delta Township, MI, USA","title":"75206 Bushels"}},{"local_stop_id":446,"id":446,"geometry":"POINT(-8740878.774757 4668828.942976)","attributes":{"size":"0.9140166709999999","color":"#8BE01B","unit":"kg","weight":"1623219.51","address":"PAGE, VIRGINIA USA","placename":"Page, VA, USA","title":"74554 Bushels"}},{"local_stop_id":445,"id":445,"geometry":"POINT(-12576269.078037 5930842.367955)","attributes":{"size":"0.911393075","color":"#8BE01B","unit":"kg","weight":"1618560.216","address":"POWELL, MONTANA USA","placename":"Powell, Mt, USA","title":"74340 Bushels"}},{"local_stop_id":444,"id":444,"geometry":"POINT(-13088855.46963 5345084.44337)","attributes":{"size":"0.904919904","color":"#8BE01B","unit":"kg","weight":"1607064.389","address":"MALHEUR, OREGON USA","placename":"Malheur, OR, USA","title":"73812 Bushels"}},{"local_stop_id":443,"id":443,"geometry":"POINT(-13594706.108079 4869881.377542)","attributes":{"size":"0.899121022","color":"#8BE01B","unit":"kg","weight":"1596766.044","address":"TEHAMA, CALIFORNIA USA","placename":"Tehama, CA, USA","title":"73339 Bushels"}},{"local_stop_id":442,"id":442,"geometry":"POINT(-9753176.334507 5638502.501889)","attributes":{"size":"0.873473533","color":"#8BE01B","unit":"kg","weight":"1551218.183","address":"MENOMINEE, MICHIGAN USA","placename":"Menominee, MI, USA","title":"71247 Bushels"}},{"local_stop_id":441,"id":441,"geometry":"POINT(-8500771.371696 4594414.562903)","attributes":{"size":"0.8661789560000001","color":"#8BE01B","unit":"kg","weight":"1538263.605","address":"ST MARYS, MARYLAND USA","placename":"St Mary's, MD, USA","title":"70652 Bushels"}},{"local_stop_id":440,"id":440,"geometry":"POINT(-8752496.744733 4648186.139216)","attributes":{"size":"0.862550057","color":"#8BE01B","unit":"kg","weight":"1531818.974","address":"SHENANDOAH, VIRGINIA USA","placename":"Shenandoah, VA, USA","title":"70356 Bushels"}},{"local_stop_id":439,"id":439,"geometry":"POINT(-12218334.635994 3905502.985531)","attributes":{"size":"0.856910552","color":"#8BE01B","unit":"kg","weight":"1521803.67","address":"GRAHAM, ARIZONA USA","placename":"Graham, AZ, USA","title":"69896 Bushels"}},{"local_stop_id":438,"id":438,"geometry":"POINT(-8563929.308562 4919463.113799)","attributes":{"size":"0.853269393","color":"#8BE01B","unit":"kg","weight":"1515337.268","address":"DAUPHIN, PENNSYLVANIA USA","placename":"Dauphin, PA, USA","title":"69599 Bushels"}},{"local_stop_id":437,"id":437,"geometry":"POINT(-8620141.443535 4514747.230654)","attributes":{"size":"0.852546065","color":"#8BE01B","unit":"kg","weight":"1514052.696","address":"RICHMOND, VIRGINIA USA","placename":"Richmond, VA, USA","title":"69540 Bushels"}},{"local_stop_id":436,"id":436,"geometry":"POINT(-12058882.434153 5412781.47642)","attributes":{"size":"0.844822395","color":"#8BE01B","unit":"kg","weight":"1500336.084","address":"HOT SPRINGS, WYOMING USA","placename":"Hot Springs, WY, USA","title":"68910 Bushels"}},{"local_stop_id":435,"id":435,"geometry":"POINT(-8573124.075862 4535326.282651)","attributes":{"size":"0.836338617","color":"#8BE01B","unit":"kg","weight":"1485269.583","address":"KING WILLIAM, VIRGINIA USA","placename":"King William, Acquinton, VA 23086, USA","title":"68218 Bushels"}},{"local_stop_id":434,"id":434,"geometry":"POINT(-10577237.388667 6086307.813967)","attributes":{"size":"0.835517211","color":"#8BE01B","unit":"kg","weight":"1483810.832","address":"RED LAKE, MINNESOTA USA","placename":"Red Lake, MN, USA","title":"68151 Bushels"}},{"local_stop_id":433,"id":433,"geometry":"POINT(-10876178.255807 5687370.313979)","attributes":{"size":"0.833065253","color":"#8BE01B","unit":"kg","weight":"1479456.352","address":"DAY, SOUTH DAKOTA USA","placename":"Day, SD, USA","title":"67951 Bushels"}},{"local_stop_id":432,"id":432,"geometry":"POINT(-11733579.20803 5909179.155513)","attributes":{"size":"0.826837277","color":"#8BE01B","unit":"kg","weight":"1468395.973","address":"PRAIRIE, MONTANA USA","placename":"Prairie, Mt, USA","title":"67443 Bushels"}},{"local_stop_id":431,"id":431,"geometry":"POINT(-11256352.974013 5788557.91995)","attributes":{"size":"0.819003269","color":"#8BE01B","unit":"kg","weight":"1454483.41","address":"SIOUX, NORTH DAKOTA USA","placename":"Sioux, ND, USA","title":"66804 Bushels"}},{"local_stop_id":430,"id":430,"geometry":"POINT(-8500771.371696 4805658.204554)","attributes":{"size":"0.81302049","color":"#8BE01B","unit":"kg","weight":"1443858.478","address":"HARFORD, MARYLAND USA","placename":"Harford, MD, USA","title":"66316 Bushels"}},{"local_stop_id":429,"id":429,"geometry":"POINT(-8980931.319573 4352253.719986)","attributes":{"size":"0.812517838","color":"#8BE01B","unit":"kg","weight":"1442965.81","address":"SURRY, NORTH CAROLINA USA","placename":"Surry, NC, USA","title":"66275 Bushels"}},{"local_stop_id":428,"id":428,"geometry":"POINT(-12431813.069891 5017661.371143)","attributes":{"size":"0.812297162","color":"#8BE01B","unit":"kg","weight":"1442573.907","address":"MORGAN, UTAH USA","placename":"Morgan, UT 84050, USA","title":"66257 Bushels"}},{"local_stop_id":427,"id":427,"geometry":"POINT(-12496447.737726 4662597.331677)","attributes":{"size":"0.791896865","color":"#8BE01B","unit":"kg","weight":"1406344.633","address":"SEVIER, UTAH USA","placename":"Sevier, UT 84766, USA","title":"64593 Bushels"}},{"local_stop_id":426,"id":426,"geometry":"POINT(-8405970.936364 5296604.878771)","attributes":{"size":"0.7852030169999999","color":"#8BE01B","unit":"kg","weight":"1394456.903","address":"MADISON, NEW YORK USA","placename":"Madison, NY 13402, USA","title":"64047 Bushels"}},{"local_stop_id":425,"id":425,"geometry":"POINT(-11769239.393898 6236670.443366)","attributes":{"size":"0.782101289","color":"#8BE01B","unit":"kg","weight":"1388948.486","address":"DANIELS, MONTANA USA","placename":"Daniels, Mt, USA","title":"63794 Bushels"}},{"local_stop_id":424,"id":424,"geometry":"POINT(-13486642.578808 5751082.351889)","attributes":{"size":"0.779526733","color":"#8BE01B","unit":"kg","weight":"1384376.282","address":"KLICKITAT, WASHINGTON USA","placename":"Klickitat, WA, USA","title":"63584 Bushels"}},{"local_stop_id":423,"id":423,"geometry":"POINT(-12153236.945869 5839991.961738)","attributes":{"size":"0.772722547","color":"#8BE01B","unit":"kg","weight":"1372292.6","address":"GOLDEN VALLEY, MONTANA USA","placename":"Golden Valley, Mt, USA","title":"63029 Bushels"}},{"local_stop_id":422,"id":422,"geometry":"POINT(-9209986.255671 5374113.318683)","attributes":{"size":"0.758390848","color":"#8BE01B","unit":"kg","weight":"1346840.664","address":"SANILAC, MICHIGAN USA","placename":"Sanilac, MI, USA","title":"61860 Bushels"}},{"local_stop_id":421,"id":421,"geometry":"POINT(-10801728.392622 5718331.023128)","attributes":{"size":"0.752824902","color":"#8BE01B","unit":"kg","weight":"1336955.994","address":"ROBERTS, SOUTH DAKOTA USA","placename":"Roberts, SD, USA","title":"61406 Bushels"}},{"local_stop_id":420,"id":420,"geometry":"POINT(-10961393.326009 5866812.544387)","attributes":{"size":"0.752616485","color":"#8BE01B","unit":"kg","weight":"1336585.864","address":"DICKEY, NORTH DAKOTA USA","placename":"Dickey, ND, USA","title":"61389 Bushels"}},{"local_stop_id":419,"id":419,"geometry":"POINT(-11702060.22967 5915174.565513)","attributes":{"size":"0.74696472","color":"#8BE01B","unit":"kg","weight":"1326548.787","address":"FALLON, MONTANA USA","placename":"Fallon, Mt, USA","title":"60928 Bushels"}},{"local_stop_id":418,"id":418,"geometry":"POINT(-12351546.863499 6070562.489959)","attributes":{"size":"0.745272869","color":"#8BE01B","unit":"kg","weight":"1323544.196","address":"CARTER, MONTANA USA","placename":"Carter, Mt, USA","title":"60790 Bushels"}},{"local_stop_id":417,"id":417,"geometry":"POINT(-12719524.583398 5517149.688054)","attributes":{"size":"0.737426601","color":"#8BE01B","unit":"kg","weight":"1309609.86","address":"CUSTER, IDAHO USA","placename":"Custer, ID, USA","title":"60150 Bushels"}},{"local_stop_id":416,"id":416,"geometry":"POINT(-12970226.351453 6158617.710792)","attributes":{"size":"0.721452089","color":"#8BE01B","unit":"kg","weight":"1281240.423","address":"KOOTENAI, IDAHO USA","placename":"Kootenai, ID, USA","title":"58847 Bushels"}},{"local_stop_id":415,"id":415,"geometry":"POINT(-11084124.600818 4816898.869631)","attributes":{"size":"0.71249018","color":"#8BE01B","unit":"kg","weight":"1265324.798","address":"LOGAN, KANSAS USA","placename":"Logan, KS 67646, USA","title":"58116 Bushels"}},{"local_stop_id":414,"id":414,"geometry":"POINT(-8980931.319573 4328501.598819)","attributes":{"size":"0.706286724","color":"#8BE01B","unit":"kg","weight":"1254307.964","address":"YADKIN, NORTH CAROLINA USA","placename":"Yadkin, NC, USA","title":"57610 Bushels"}},{"local_stop_id":413,"id":413,"geometry":"POINT(-8664744.948238 5275162.568838)","attributes":{"size":"0.704447755","color":"#8BE01B","unit":"kg","weight":"1251042.104","address":"LIVINGSTON, NEW YORK USA","placename":"Livingston, NY, USA","title":"57460 Bushels"}},{"local_stop_id":412,"id":412,"geometry":"POINT(-12547400.060156 4824006.597462)","attributes":{"size":"0.698281079","color":"#8BE01B","unit":"kg","weight":"1240090.587","address":"JUAB, UTAH USA","placename":"Juab, UT, USA","title":"56957 Bushels"}},{"local_stop_id":411,"id":411,"geometry":"POINT(-8541137.065836 5299644.172088)","attributes":{"size":"0.696478889","color":"#8BE01B","unit":"kg","weight":"1236890.044","address":"CAYUGA, NEW YORK USA","placename":"Cayuga, NY 13034, USA","title":"56810 Bushels"}},{"local_stop_id":410,"id":410,"geometry":"POINT(-13582400.317233 4796713.74063)","attributes":{"size":"0.691979545","color":"#8BE01B","unit":"kg","weight":"1228899.573","address":"GLENN, CALIFORNIA USA","placename":"Glenn, CA 95970, USA","title":"56443 Bushels"}},{"local_stop_id":409,"id":409,"geometry":"POINT(-9757997.615049 5479164.404845)","attributes":{"size":"0.689368209","color":"#8BE01B","unit":"kg","weight":"1224262.052","address":"MANITOWOC, WISCONSIN USA","placename":"Manitowoc, WI, USA","title":"56230 Bushels"}},{"local_stop_id":408,"id":408,"geometry":"POINT(-12154753.083938 5138826.437091)","attributes":{"size":"0.675514642","color":"#8BE01B","unit":"kg","weight":"1199659.24","address":"SWEETWATER, WYOMING USA","placename":"Sweetwater, WY, USA","title":"55100 Bushels"}},{"local_stop_id":407,"id":407,"geometry":"POINT(-8637075.242023 4607398.051828)","attributes":{"size":"0.6713708309999999","color":"#8BE01B","unit":"kg","weight":"1192300.169","address":"SPOTSYLVANIA, VIRGINIA USA","placename":"Spotsylvania, Berkeley, VA 22551, USA","title":"54762 Bushels"}},{"local_stop_id":406,"id":406,"geometry":"POINT(-11748064.133567 5668373.93573)","attributes":{"size":"0.655555697","color":"#8BE01B","unit":"kg","weight":"1164213.773","address":"POWDER RIVER, MONTANA USA","placename":"Powder River, Mt, USA","title":"53472 Bushels"}},{"local_stop_id":405,"id":405,"geometry":"POINT(-11139482.169457 5754987.36098)","attributes":{"size":"0.64648345","color":"#8BE01B","unit":"kg","weight":"1148102.197","address":"CAMPBELL, SOUTH DAKOTA USA","placename":"Campbell, SD, USA","title":"52732 Bushels"}},{"local_stop_id":404,"id":404,"geometry":"POINT(-8700335.459237 4852128.717772)","attributes":{"size":"0.629135841","color":"#8BE01B","unit":"kg","weight":"1117294.251","address":"FULTON, PENNSYLVANIA USA","placename":"Fulton, PA, USA","title":"51317 Bushels"}},{"local_stop_id":403,"id":403,"geometry":"POINT(-13099734.812521 5584637.229612)","attributes":{"size":"0.6289887240000001","color":"#8BE01B","unit":"kg","weight":"1117032.982","address":"BAKER, OREGON USA","placename":"Baker, OR, USA","title":"51305 Bushels"}},{"local_stop_id":402,"id":402,"geometry":"POINT(-9335036.538112 5466302.646447)","attributes":{"size":"0.62090952","color":"#8BE01B","unit":"kg","weight":"1102684.97","address":"ARENAC, MICHIGAN USA","placename":"Arenac, MI 48658, USA","title":"50646 Bushels"}},{"local_stop_id":401,"id":401,"geometry":"POINT(-12008720.736143 4647218.472823)","attributes":{"size":"0.610991347","color":"#8BE01B","unit":"kg","weight":"1085071.099","address":"MONTROSE, COLORADO USA","placename":"Montrose, CO, USA","title":"49837 Bushels"}},{"local_stop_id":400,"id":400,"geometry":"POINT(-10721493.155312 5465222.669805)","attributes":{"size":"0.608637466","color":"#8BE01B","unit":"kg","weight":"1080890.798","address":"PIPESTONE, MINNESOTA USA","placename":"Pipestone, MN 56164, USA","title":"49645 Bushels"}},{"local_stop_id":399,"id":399,"geometry":"POINT(-10342748.525209 5634820.073847)","attributes":{"size":"0.595188472","color":"#8BE01B","unit":"kg","weight":"1057006.475","address":"GRANT, MINNESOTA USA","placename":"Grant, MN, USA","title":"48548 Bushels"}},{"local_stop_id":398,"id":398,"geometry":"POINT(-11012228.785238 4089094.987839)","attributes":{"size":"0.593337243","color":"#8BE01B","unit":"kg","weight":"1053718.843","address":"TILLMAN, OKLAHOMA USA","placename":"Tillman, OK, USA","title":"48397 Bushels"}},{"local_stop_id":397,"id":397,"geometry":"POINT(-10162630.895174 5632134.576245)","attributes":{"size":"0.588862419","color":"#8BE01B","unit":"kg","weight":"1045771.917","address":"CHIPPEWA, WISCONSIN USA","placename":"Chippewa, WI, USA","title":"48032 Bushels"}},{"local_stop_id":396,"id":396,"geometry":"POINT(-12459241.847332 5033621.209011)","attributes":{"size":"0.585172221","color":"#8BE01B","unit":"kg","weight":"1039218.424","address":"UINTAH, UTAH USA","placename":"Uintah, UT, USA","title":"47731 Bushels"}},{"local_stop_id":395,"id":395,"geometry":"POINT(-8739014.941391 4868658.936437)","attributes":{"size":"0.58464505","color":"#8BE01B","unit":"kg","weight":"1038282.211","address":"BEDFORD, PENNSYLVANIA USA","placename":"Bedford, PA 15522, USA","title":"47688 Bushels"}},{"local_stop_id":394,"id":394,"geometry":"POINT(-13436052.478869 5715173.150399)","attributes":{"size":"0.577706006","color":"#8BE01B","unit":"kg","weight":"1025959.033","address":"WASCO, OREGON USA","placename":"Wasco, OR 97065, USA","title":"47122 Bushels"}},{"local_stop_id":393,"id":393,"geometry":"POINT(-10622315.259116 5768808.856796)","attributes":{"size":"0.576639404","color":"#8BE01B","unit":"kg","weight":"1024064.834","address":"DOUGLAS, MINNESOTA USA","placename":"Douglas, MN, USA","title":"47035 Bushels"}},{"local_stop_id":392,"id":392,"geometry":"POINT(-11186186.406535 4715863.994636)","attributes":{"size":"0.576381948","color":"#8BE01B","unit":"kg","weight":"1023607.614","address":"GOVE, KANSAS USA","placename":"Gove City, KS 67736, USA","title":"47014 Bushels"}},{"local_stop_id":391,"id":391,"geometry":"POINT(-10224590.878472 5684928.22928)","attributes":{"size":"0.573390559","color":"#8BE01B","unit":"kg","weight":"1018295.148","address":"BARRON, WISCONSIN USA","placename":"Barron, WI 54812, USA","title":"46770 Bushels"}},{"local_stop_id":390,"id":390,"geometry":"POINT(-8711585.440373 4633304.709044)","attributes":{"size":"0.571281874","color":"#8BE01B","unit":"kg","weight":"1014550.295","address":"MADISON, VIRGINIA USA","placename":"Madison, VA 22727, USA","title":"46598 Bushels"}},{"local_stop_id":389,"id":389,"geometry":"POINT(-10992590.067839 4827273.803631)","attributes":{"size":"0.566402476","color":"#8BE01B","unit":"kg","weight":"1005884.88","address":"SMITH, KANSAS USA","placename":"Smith, KS, USA","title":"46200 Bushels"}},{"local_stop_id":388,"id":388,"geometry":"POINT(-11889968.242574 5317200.206613)","attributes":{"size":"0.563950518","color":"#8BE01B","unit":"kg","weight":"1001530.4","address":"NATRONA, WYOMING USA","placename":"Natrona, WY 82648, USA","title":"46000 Bushels"}},{"local_stop_id":387,"id":387,"geometry":"POINT(-9279321.912206 5182385.228254)","attributes":{"size":"0.562258666","color":"#8BE01B","unit":"kg","weight":"998525.8088","address":"HURON, MICHIGAN USA","placename":"Huron Charter Township, MI, USA","title":"45862 Bushels"}},{"local_stop_id":386,"id":386,"geometry":"POINT(-9416872.994977 5830442.160691)","attributes":{"size":"0.554682113","color":"#8BE01B","unit":"kg","weight":"985070.4656","address":"CHIPPEWA, MICHIGAN USA","placename":"Chippewa, MI, USA","title":"45244 Bushels"}},{"local_stop_id":385,"id":385,"geometry":"POINT(-8512193.931438 4546965.582902)","attributes":{"size":"0.553603251","color":"#8BE01B","unit":"kg","weight":"983154.4944","address":"LANCASTER, VIRGINIA USA","placename":"Lancaster, 2, VA 22503, USA","title":"45156 Bushels"}},{"local_stop_id":384,"id":384,"geometry":"POINT(-10590506.50499 5851539.707276)","attributes":{"size":"0.532737082","color":"#8BE01B","unit":"kg","weight":"946097.8696","address":"WADENA, MINNESOTA USA","placename":"Wadena, MN 56482, USA","title":"43454 Bushels"}},{"local_stop_id":383,"id":383,"geometry":"POINT(-11598346.821197 5939943.326514)","attributes":{"size":"0.531045231","color":"#8BE01B","unit":"kg","weight":"943093.2784","address":"WIBAUX, MONTANA USA","placename":"Wibaux, Mt 59353, USA","title":"43316 Bushels"}},{"local_stop_id":382,"id":382,"geometry":"POINT(-8567627.353178 4762915.443776)","attributes":{"size":"0.52753893","color":"#8BE01B","unit":"kg","weight":"936866.372","address":"HOWARD, MARYLAND USA","placename":"Howard, MD, USA","title":"43030 Bushels"}},{"local_stop_id":381,"id":381,"geometry":"POINT(-10310834.563033 5527634.562375)","attributes":{"size":"0.525601882","color":"#8BE01B","unit":"kg","weight":"933426.3328","address":"GOODHUE, MINNESOTA USA","placename":"Goodhue, MN 55027, USA","title":"42872 Bushels"}},{"local_stop_id":380,"id":380,"geometry":"POINT(-8659652.014743 4681768.339764)","attributes":{"size":"0.5241552269999999","color":"#8BE01B","unit":"kg","weight":"930857.1896","address":"FAUQUIER, VIRGINIA USA","placename":"Fauquier, VA, USA","title":"42754 Bushels"}},{"local_stop_id":379,"id":379,"geometry":"POINT(-8725691.757191 4932010.309211)","attributes":{"size":"0.522242699","color":"#8BE01B","unit":"kg","weight":"927460.6952","address":"BLAIR, PENNSYLVANIA USA","placename":"Blair, PA, USA","title":"42598 Bushels"}},{"local_stop_id":378,"id":378,"geometry":"POINT(-9845880.657223 5430387.255321)","attributes":{"size":"0.519717181","color":"#8BE01B","unit":"kg","weight":"922975.5808","address":"FOND DU LAC, WISCONSIN USA","placename":"Fond du Lac, WI, USA","title":"42392 Bushels"}},{"local_stop_id":377,"id":377,"geometry":"POINT(-8886598.693269 4313010.560775)","attributes":{"size":"0.511809614","color":"#8BE01B","unit":"kg","weight":"908932.3828","address":"GUILFORD, NORTH CAROLINA USA","placename":"Guilford, NC, USA","title":"41747 Bushels"}},{"local_stop_id":376,"id":376,"geometry":"POINT(-11332097.215709 4764479.342263)","attributes":{"size":"0.509271837","color":"#8BE01B","unit":"kg","weight":"904425.496","address":"SHERMAN, KANSAS USA","placename":"Sherman, KS, USA","title":"41540 Bushels"}},{"local_stop_id":375,"id":375,"geometry":"POINT(-12032659.992638 5863846.152298)","attributes":{"size":"0.507199932","color":"#8BE01B","unit":"kg","weight":"900745.9604","address":"MUSSELSHELL, MONTANA USA","placename":"Musselshell, Mt 59059, USA","title":"41371 Bushels"}},{"local_stop_id":374,"id":374,"geometry":"POINT(-9764336.814771 5426962.926467)","attributes":{"size":"0.487866237","color":"#8BE01B","unit":"kg","weight":"866410.8856","address":"SHEBOYGAN, WISCONSIN USA","placename":"Sheboygan, WI, USA","title":"39794 Bushels"}},{"local_stop_id":373,"id":373,"geometry":"POINT(-13591907.758719 6092372.658869)","attributes":{"size":"0.486578958","color":"#8BE01B","unit":"kg","weight":"864124.7836","address":"SNOHOMISH, WASHINGTON USA","placename":"Snohomish, WA, USA","title":"39689 Bushels"}},{"local_stop_id":372,"id":372,"geometry":"POINT(-10283846.187761 5582389.429269)","attributes":{"size":"0.467747915","color":"#8BE01B","unit":"kg","weight":"830682.3772","address":"PIERCE, WISCONSIN USA","placename":"Pierce, WI, USA","title":"38153 Bushels"}},{"local_stop_id":371,"id":371,"geometry":"POINT(-8806450.418746 4469958.226056)","attributes":{"size":"0.465994765","color":"#8BE01B","unit":"kg","weight":"827568.924","address":"CAMPBELL, VIRGINIA USA","placename":"Campbell, VA, USA","title":"38010 Bushels"}},{"local_stop_id":370,"id":370,"geometry":"POINT(-10143418.16407 5515263.831816)","attributes":{"size":"0.455181626","color":"#8BE01B","unit":"kg","weight":"808365.6672","address":"TAYLOR, WISCONSIN USA","placename":"Taylor, WI 54659, USA","title":"37128 Bushels"}},{"local_stop_id":369,"id":369,"geometry":"POINT(-8695258.288582 4614152.34347)","attributes":{"size":"0.452374134","color":"#8BE01B","unit":"kg","weight":"803379.7876","address":"ORANGE, VIRGINIA USA","placename":"Orange, VA 22960, USA","title":"36899 Bushels"}},{"local_stop_id":368,"id":368,"geometry":"POINT(-8971046.326902 4220669.530627)","attributes":{"size":"0.449162068","color":"#8BE01B","unit":"kg","weight":"797675.4188","address":"CABARRUS, NORTH CAROLINA USA","placename":"Cabarrus, NC, USA","title":"36637 Bushels"}},{"local_stop_id":367,"id":367,"geometry":"POINT(-9040012.770082 4227076.422793)","attributes":{"size":"0.445398311","color":"#8BE01B","unit":"kg","weight":"790991.292","address":"LINCOLN, NORTH CAROLINA USA","placename":"Lincoln, NC, USA","title":"36330 Bushels"}},{"local_stop_id":366,"id":366,"geometry":"POINT(-12864307.191797 5889603.778386)","attributes":{"size":"0.441953309","color":"#8BE01B","unit":"kg","weight":"784873.2476","address":"CLEARWATER, IDAHO USA","placename":"Clearwater, ID, USA","title":"36049 Bushels"}},{"local_stop_id":365,"id":365,"geometry":"POINT(-9740804.954217 5536646.271182)","attributes":{"size":"0.425267729","color":"#8BE01B","unit":"kg","weight":"755241.0111999999","address":"KEWAUNEE, WISCONSIN USA","placename":"Kewaunee, WI, USA","title":"34688 Bushels"}},{"local_stop_id":364,"id":364,"geometry":"POINT(-8811219.880065 4956665.700966)","attributes":{"size":"0.424385024","color":"#8BE01B","unit":"kg","weight":"753673.3983999999","address":"INDIANA, PENNSYLVANIA USA","placename":"Indiana, PA, USA","title":"34616 Bushels"}},{"local_stop_id":363,"id":363,"geometry":"POINT(-12953016.224593 5470472.020478)","attributes":{"size":"0.422766731","color":"#8BE01B","unit":"kg","weight":"750799.4416","address":"GEM, IDAHO USA","placename":"Gem, ID, USA","title":"34484 Bushels"}},{"local_stop_id":362,"id":362,"geometry":"POINT(-10682834.86839 5994016.052215)","attributes":{"size":"0.421736909","color":"#8BE01B","unit":"kg","weight":"748970.5600000001","address":"MAHNOMEN, MINNESOTA USA","placename":"Mahnomen, MN 56557, USA","title":"34400 Bushels"}},{"local_stop_id":361,"id":361,"geometry":"POINT(-8802931.9436 4867164.61839)","attributes":{"size":"0.419505626","color":"#8BE01B","unit":"kg","weight":"745007.9832","address":"SOMERSET, PENNSYLVANIA USA","placename":"Somerset, PA 15501, USA","title":"34218 Bushels"}},{"local_stop_id":360,"id":360,"geometry":"POINT(-9863907.835749 5587299.260875)","attributes":{"size":"0.414785606","color":"#8BE01B","unit":"kg","weight":"736625.6091999999","address":"SHAWANO, WISCONSIN USA","placename":"Shawano, WI 54166, USA","title":"33833 Bushels"}},{"local_stop_id":359,"id":359,"geometry":"POINT(-13524694.697707 4661911.338796)","attributes":{"size":"0.413375729","color":"#8BE01B","unit":"kg","weight":"734121.7831999999","address":"SACRAMENTO, CALIFORNIA USA","placename":"Sacramento, CA, USA","title":"33718 Bushels"}},{"local_stop_id":358,"id":358,"geometry":"POINT(-8305576.050966 5233355.317629)","attributes":{"size":"0.406105672","color":"#8BE01B","unit":"kg","weight":"721210.75","address":"JEFFERSON, NEW YORK USA","placename":"Jefferson, NY 12093, USA","title":"33125 Bushels"}},{"local_stop_id":357,"id":357,"geometry":"POINT(-9669453.947356 4420978.8225)","attributes":{"size":"0.404450599","color":"#8BE01B","unit":"kg","weight":"718271.476","address":"LOGAN, KENTUCKY USA","placename":"Logan, KY, USA","title":"32990 Bushels"}},{"local_stop_id":356,"id":356,"geometry":"POINT(-10835565.922203 4536039.862047)","attributes":{"size":"0.403531115","color":"#8BE01B","unit":"kg","weight":"716638.546","address":"WICHITA, KANSAS USA","placename":"Wichita, KS, USA","title":"32915 Bushels"}},{"local_stop_id":355,"id":355,"geometry":"POINT(-10027067.143613 5539211.475624)","attributes":{"size":"0.402341915","color":"#8BE01B","unit":"kg","weight":"714526.6232","address":"WOOD, WISCONSIN USA","placename":"Wood, WI, USA","title":"32818 Bushels"}},{"local_stop_id":354,"id":354,"geometry":"POINT(-8618833.339331 4946508.715847)","attributes":{"size":"0.400122892","color":"#8BE01B","unit":"kg","weight":"710585.8188","address":"JUNIATA, PENNSYLVANIA USA","placename":"Juniata, PA, USA","title":"32637 Bushels"}},{"local_stop_id":353,"id":353,"geometry":"POINT(-10245649.409184 5523036.740241)","attributes":{"size":"0.394998298","color":"#8BE01B","unit":"kg","weight":"701484.9556","address":"WABASHA, MINNESOTA USA","placename":"Wabasha, MN, USA","title":"32219 Bushels"}},{"local_stop_id":352,"id":352,"geometry":"POINT(-11393147.741031 4095937.063439)","attributes":{"size":"0.387948917","color":"#8BE01B","unit":"kg","weight":"688965.8256","address":"CASTRO, TEXAS USA","placename":"Castro, TX, USA","title":"31644 Bushels"}},{"local_stop_id":351,"id":351,"geometry":"POINT(-10901709.236305 4281571.34207)","attributes":{"size":"0.386906834","color":"#8BE01B","unit":"kg","weight":"687115.1716","address":"KINGFISHER, OKLAHOMA USA","placename":"Kingfisher, OK 73750, USA","title":"31559 Bushels"}},{"local_stop_id":350,"id":350,"geometry":"POINT(-13285684.882561 4329242.309342)","attributes":{"size":"0.3841729","color":"#8BE01B","unit":"kg","weight":"682259.9264","address":"TULARE, CALIFORNIA USA","placename":"Tulare, CA 93274, USA","title":"31336 Bushels"}},{"local_stop_id":349,"id":349,"geometry":"POINT(-8826546.169446 4803380.327587)","attributes":{"size":"0.380850496","color":"#8BE01B","unit":"kg","weight":"676359.606","address":"GARRETT, MARYLAND USA","placename":"Garrett, MD, USA","title":"31065 Bushels"}},{"local_stop_id":348,"id":348,"geometry":"POINT(-10284537.192368 5629362.429051)","attributes":{"size":"0.376240814","color":"#8BE01B","unit":"kg","weight":"668173.1836","address":"ST CROIX, WISCONSIN USA","placename":"St Croix, WI, USA","title":"30689 Bushels"}},{"local_stop_id":347,"id":347,"geometry":"POINT(-8669835.7444 4765596.425677)","attributes":{"size":"0.374463144","color":"#8BE01B","unit":"kg","weight":"665016.1856","address":"JEFFERSON, WEST VIRGINIA USA","placename":"Jefferson, WV, USA","title":"30544 Bushels"}},{"local_stop_id":346,"id":346,"geometry":"POINT(-10191515.787214 5485926.694181)","attributes":{"size":"0.37349462","color":"#8BE01B","unit":"kg","weight":"663296.166","address":"DODGE, WISCONSIN USA","placename":"Dodge, WI, USA","title":"30465 Bushels"}},{"local_stop_id":345,"id":345,"geometry":"POINT(-10201366.99442 5472856.094191)","attributes":{"size":"0.3710917","color":"#8BE01B","unit":"kg","weight":"659028.7756000001","address":"WINONA, MINNESOTA USA","placename":"Winona, MN, USA","title":"30269 Bushels"}},{"local_stop_id":344,"id":344,"geometry":"POINT(-8846603.180964 4403486.090784)","attributes":{"size":"0.366077445","color":"#8BE01B","unit":"kg","weight":"650123.8639999999","address":"PITTSYLVANIA, VIRGINIA USA","placename":"Pittsylvania, VA, USA","title":"29860 Bushels"}},{"local_stop_id":343,"id":343,"geometry":"POINT(-11442459.960007 4687510.582596)","attributes":{"size":"0.365341857","color":"#8BE01B","unit":"kg","weight":"648817.52","address":"KIT CARSON, COLORADO USA","placename":"Kit Carson, CO 80825, USA","title":"29800 Bushels"}},{"local_stop_id":342,"id":342,"geometry":"POINT(-11083042.742347 4712803.965915)","attributes":{"size":"0.35862349","color":"#8BE01B","unit":"kg","weight":"636886.2448","address":"ELLIS, KANSAS USA","placename":"Ellis, KS 67637, USA","title":"29252 Bushels"}},{"local_stop_id":341,"id":341,"geometry":"POINT(-13693451.839748 5577480.439808)","attributes":{"size":"0.357704005","color":"#8BE01B","unit":"kg","weight":"635253.3148000001","address":"JEFFERSON, OREGON USA","placename":"Jefferson, OR, USA","title":"29177 Bushels"}},{"local_stop_id":340,"id":340,"geometry":"POINT(-8562969.166822 4394270.191811)","attributes":{"size":"0.355766958","color":"#8BE01B","unit":"kg","weight":"631813.2756000001","address":"FRANKLIN, VIRGINIA USA","placename":"Franklin, VA, USA","title":"29019 Bushels"}},{"local_stop_id":339,"id":339,"geometry":"POINT(-8353940.262027 4837283.487392)","attributes":{"size":"0.352248397","color":"#8BE01B","unit":"kg","weight":"625564.5968000001","address":"GLOUCESTER, NEW JERSEY USA","placename":"Gloucester Township, NJ, USA","title":"28732 Bushels"}},{"local_stop_id":338,"id":338,"geometry":"POINT(-10094151.374579 5302798.299364)","attributes":{"size":"0.344868001","color":"#8BE01B","unit":"kg","weight":"612457.612","address":"GRANT, WISCONSIN USA","placename":"Grant, WI, USA","title":"28130 Bushels"}},{"local_stop_id":337,"id":337,"geometry":"POINT(-8582297.403029 4716794.487506)","attributes":{"size":"0.343642022","color":"#8BE01B","unit":"kg","weight":"610280.372","address":"SOMERSET, MARYLAND USA","placename":"Somerset, MD, USA","title":"28030 Bushels"}},{"local_stop_id":336,"id":336,"geometry":"POINT(-9677065.228296 5677847.266844)","attributes":{"size":"0.341263622","color":"#8BE01B","unit":"kg","weight":"606056.5264","address":"WASHINGTON, WISCONSIN USA","placename":"Washington Island, Washington, WI 54246, USA","title":"27836 Bushels"}},{"local_stop_id":335,"id":335,"geometry":"POINT(-9877625.547357 5651482.857879)","attributes":{"size":"0.340331878","color":"#8BE01B","unit":"kg","weight":"604401.824","address":"LANGLADE, WISCONSIN USA","placename":"Langlade, WI 54491, USA","title":"27760 Bushels"}},{"local_stop_id":334,"id":334,"geometry":"POINT(-8480137.792008 5316054.863526)","attributes":{"size":"0.339277535","color":"#8BE01B","unit":"kg","weight":"602529.3976","address":"ONONDAGA, NEW YORK USA","placename":"Onondaga, NY, USA","title":"27674 Bushels"}},{"local_stop_id":333,"id":333,"geometry":"POINT(-13468281.597656 4510304.283134)","attributes":{"size":"0.33897104","color":"#8BE01B","unit":"kg","weight":"601985.0876","address":"STANISLAUS, CALIFORNIA USA","placename":"Stanislaus, CA, USA","title":"27649 Bushels"}},{"local_stop_id":332,"id":332,"geometry":"POINT(-8480137.792008 4966328.174394)","attributes":{"size":"0.338014776","color":"#8BE01B","unit":"kg","weight":"600286.8404","address":"SCHUYLKILL, PENNSYLVANIA USA","placename":"Schuylkill, PA, USA","title":"27571 Bushels"}},{"local_stop_id":331,"id":331,"geometry":"POINT(-8803825.226854 5325740.125258)","attributes":{"size":"0.328378579","color":"#8BE01B","unit":"kg","weight":"583173.7340000001","address":"NIAGARA, NEW YORK USA","placename":"Niagara Falls, ON, Canada","title":"26785 Bushels"}},{"local_stop_id":330,"id":330,"geometry":"POINT(-8557362.594064 5276299.254742)","attributes":{"size":"0.327030001","color":"#8BE01B","unit":"kg","weight":"580778.77","address":"SENECA, NEW YORK USA","placename":"Seneca, NY, USA","title":"26675 Bushels"}},{"local_stop_id":329,"id":329,"geometry":"POINT(-9292231.889588 5056906.407167)","attributes":{"size":"0.326233115","color":"#8BE01B","unit":"kg","weight":"579363.564","address":"WAYNE, OHIO USA","placename":"Wayne, OH 43466, USA","title":"26610 Bushels"}},{"local_stop_id":328,"id":328,"geometry":"POINT(-13805483.240949 6113597.269722)","attributes":{"size":"0.325264591","color":"#8BE01B","unit":"kg","weight":"577643.5444","address":"CLALLAM, WASHINGTON USA","placename":"Clallam, WA, USA","title":"26531 Bushels"}},{"local_stop_id":327,"id":327,"geometry":"POINT(-8588133.549973 5257802.515771)","attributes":{"size":"0.323891494","color":"#8BE01B","unit":"kg","weight":"575205.0355999999","address":"YATES, NEW YORK USA","placename":"Yates, NY, USA","title":"26419 Bushels"}},{"local_stop_id":326,"id":326,"geometry":"POINT(-11434015.864561 4090795.251353)","attributes":{"size":"0.321868628","color":"#8BE01B","unit":"kg","weight":"571612.5895999999","address":"PARMER, TEXAS USA","placename":"Parmer, TX, USA","title":"26254 Bushels"}},{"local_stop_id":325,"id":325,"geometry":"POINT(-8682548.908922 4646487.838357)","attributes":{"size":"0.3211453","color":"#8BE01B","unit":"kg","weight":"570328.018","address":"CULPEPER, VIRGINIA USA","placename":"Culpeper, VA 22701, USA","title":"26195 Bushels"}},{"local_stop_id":324,"id":324,"geometry":"POINT(-9690037.555725 5639074.215392)","attributes":{"size":"0.313936541","color":"#8BE01B","unit":"kg","weight":"557525.8468000001","address":"DOOR, WISCONSIN USA","placename":"Door, WI, USA","title":"25607 Bushels"}},{"local_stop_id":323,"id":323,"geometry":"POINT(-9977027.685535 5255630.971314)","attributes":{"size":"0.310368941","color":"#8BE01B","unit":"kg","weight":"551190.0784","address":"GREEN, WISCONSIN USA","placename":"Green, WI, USA","title":"25316 Bushels"}},{"local_stop_id":322,"id":322,"geometry":"POINT(-8613721.737557 5209189.695843)","attributes":{"size":"0.30866483","color":"#8BE01B","unit":"kg","weight":"548163.7148","address":"STEUBEN, NEW YORK USA","placename":"Steuben, NY, USA","title":"25177 Bushels"}},{"local_stop_id":321,"id":321,"geometry":"POINT(-9824192.191776 5297311.795449)","attributes":{"size":"0.308113139","color":"#8BE01B","unit":"kg","weight":"547183.9568","address":"VERNON, WISCONSIN USA","placename":"Vernon, WI 53149, USA","title":"25132 Bushels"}},{"local_stop_id":320,"id":320,"geometry":"POINT(-10271270.747713 5426625.994019)","attributes":{"size":"0.3080641","color":"#8BE01B","unit":"kg","weight":"547096.8672","address":"FILLMORE, MINNESOTA USA","placename":"Fillmore, MN 55990, USA","title":"25128 Bushels"}},{"local_stop_id":319,"id":319,"geometry":"POINT(-13631679.886202 5880193.913505)","attributes":{"size":"0.307941502","color":"#8BE01B","unit":"kg","weight":"546879.1432","address":"LEWIS, WASHINGTON USA","placename":"Lewis, WA, USA","title":"25118 Bushels"}},{"local_stop_id":318,"id":318,"geometry":"POINT(-13707726.482768 5708044.359187)","attributes":{"size":"0.306740042","color":"#8BE01B","unit":"kg","weight":"544745.448","address":"WASHINGTON, OREGON USA","placename":"Washington, OR, USA","title":"25020 Bushels"}},{"local_stop_id":317,"id":317,"geometry":"POINT(-8766145.048638 4937320.894508)","attributes":{"size":"0.303871251","color":"#8BE01B","unit":"kg","weight":"539650.7064","address":"CAMBRIA, PENNSYLVANIA USA","placename":"Cambria, PA, USA","title":"24786 Bushels"}},{"local_stop_id":316,"id":316,"geometry":"POINT(-8846603.180964 4994518.16693)","attributes":{"size":"0.303368599","color":"#8BE01B","unit":"kg","weight":"538758.0379999999","address":"ARMSTRONG, PENNSYLVANIA USA","placename":"Armstrong, PA, USA","title":"24745 Bushels"}},{"local_stop_id":315,"id":315,"geometry":"POINT(-10226289.869936 5501185.26187)","attributes":{"size":"0.302571712","color":"#8BE01B","unit":"kg","weight":"537342.8320000001","address":"BUFFALO, WISCONSIN USA","placename":"Buffalo City, WI, USA","title":"24680 Bushels"}},{"local_stop_id":314,"id":314,"geometry":"POINT(-13570045.790714 4623381.94619)","attributes":{"size":"0.295792046","color":"#8BE01B","unit":"kg","weight":"525302.6948000001","address":"SOLANO, CALIFORNIA USA","placename":"Solano, CA, USA","title":"24127 Bushels"}},{"local_stop_id":313,"id":313,"geometry":"POINT(-9993437.881666 5680642.716495)","attributes":{"size":"0.29376918","color":"#8BE01B","unit":"kg","weight":"521710.2488","address":"LINCOLN, WISCONSIN USA","placename":"Lincoln, WI, USA","title":"23962 Bushels"}},{"local_stop_id":312,"id":312,"geometry":"POINT(-10279113.083388 5688827.262304)","attributes":{"size":"0.293021333","color":"#8BE01B","unit":"kg","weight":"520382.1324","address":"POLK, WISCONSIN USA","placename":"Polk, WI, USA","title":"23901 Bushels"}},{"local_stop_id":311,"id":311,"geometry":"POINT(-8664744.948238 4994152.027694)","attributes":{"size":"0.292776137","color":"#8BE01B","unit":"kg","weight":"519946.6844","address":"CENTRE, PENNSYLVANIA USA","placename":"Centre, PA, USA","title":"23881 Bushels"}},{"local_stop_id":310,"id":310,"geometry":"POINT(-8851611.311271 4552087.446751)","attributes":{"size":"0.289772488","color":"#8BE01B","unit":"kg","weight":"514612.4464","address":"ROCKBRIDGE, VIRGINIA USA","placename":"Rockbridge, VA, USA","title":"23636 Bushels"}},{"local_stop_id":309,"id":309,"geometry":"POINT(-11071408.530857 5548362.848733)","attributes":{"size":"0.288718145","color":"#8BE01B","unit":"kg","weight":"512740.02","address":"HYDE, SOUTH DAKOTA USA","placename":"Hyde, SD, USA","title":"23550 Bushels"}},{"local_stop_id":308,"id":308,"geometry":"POINT(-10745708.74018 6031072.626662)","attributes":{"size":"0.287761881","color":"#8BE01B","unit":"kg","weight":"511041.7728","address":"BELTRAMI, MINNESOTA USA","placename":"Beltrami, MN 56517, USA","title":"23472 Bushels"}},{"local_stop_id":307,"id":307,"geometry":"POINT(-8397327.089223 5440732.394374)","attributes":{"size":"0.285714496","color":"#8BE01B","unit":"kg","weight":"507405.782","address":"LEWIS, NEW YORK USA","placename":"Lewis, NY, USA","title":"23305 Bushels"}},{"local_stop_id":306,"id":306,"geometry":"POINT(-12377515.674687 5095737.72479)","attributes":{"size":"0.284034904","color":"#8BE01B","unit":"kg","weight":"504422.9632","address":"RICH, UTAH USA","placename":"Rich, UT, USA","title":"23168 Bushels"}},{"local_stop_id":305,"id":305,"geometry":"POINT(-8219097.894162 4974848.085775)","attributes":{"size":"0.281962999","color":"#8BE01B","unit":"kg","weight":"500743.4276","address":"ST LAWRENCE, NEW YORK USA","placename":"Lawrence St, Flushing, NY, USA","title":"22999 Bushels"}},{"local_stop_id":304,"id":304,"geometry":"POINT(-13666099.182575 5211223.638982)","attributes":{"size":"0.281681024","color":"#8BE01B","unit":"kg","weight":"500242.6624","address":"JACKSON, OREGON USA","placename":"Jackson, OR, USA","title":"22976 Bushels"}},{"local_stop_id":303,"id":303,"geometry":"POINT(-12289998.272512 4889699.776674)","attributes":{"size":"0.281484867","color":"#8BE01B","unit":"kg","weight":"499894.304","address":"DUCHESNE, UTAH USA","placename":"Duchesne, UT 84021, USA","title":"22960 Bushels"}},{"local_stop_id":302,"id":302,"geometry":"POINT(-8397327.089223 4601829.863615)","attributes":{"size":"0.279106467","color":"#8BE01B","unit":"kg","weight":"495670.4584","address":"WORCESTER, MARYLAND USA","placename":"Worcester, MD, USA","title":"22766 Bushels"}},{"local_stop_id":301,"id":301,"geometry":"POINT(-11111075.951227 4767588.60065)","attributes":{"size":"0.275845362","color":"#8BE01B","unit":"kg","weight":"489879","address":"GRAHAM, KANSAS USA","placename":"Graham, KS, USA","title":"22500 Bushels"}},{"local_stop_id":300,"id":300,"geometry":"POINT(-10231365.916265 5607272.144444)","attributes":{"size":"0.275771803","color":"#8BE01B","unit":"kg","weight":"489748.3656","address":"DUNN, WISCONSIN USA","placename":"Dunn, WI, USA","title":"22494 Bushels"}},{"local_stop_id":299,"id":299,"geometry":"POINT(-12500987.34656 4943375.890957)","attributes":{"size":"0.275072995","color":"#8BE01B","unit":"kg","weight":"488507.3388","address":"TOOELE, UTAH USA","placename":"Tooele, UT, USA","title":"22437 Bushels"}},{"local_stop_id":298,"id":298,"geometry":"POINT(-9446215.009374 5403563.875996)","attributes":{"size":"0.274987176","color":"#8BE01B","unit":"kg","weight":"488354.932","address":"ISABELLA, MICHIGAN USA","placename":"Isabella, MI, USA","title":"22430 Bushels"}},{"local_stop_id":297,"id":297,"geometry":"POINT(-10319137.215934 5416438.890154)","attributes":{"size":"0.273283065","color":"#8BE01B","unit":"kg","weight":"485328.5684","address":"MOWER, MINNESOTA USA","placename":"Mower, MN, USA","title":"22291 Bushels"}},{"local_stop_id":296,"id":296,"geometry":"POINT(-10469881.417211 5777889.312603)","attributes":{"size":"0.268440446","color":"#8BE01B","unit":"kg","weight":"476728.4704","address":"MORRISON, MINNESOTA USA","placename":"Morrison, MN, USA","title":"21896 Bushels"}},{"local_stop_id":295,"id":295,"geometry":"POINT(-9978506.965721 5251453.892643)","attributes":{"size":"0.267263506","color":"#8BE01B","unit":"kg","weight":"474638.32","address":"MONROE, WISCONSIN USA","placename":"Monroe, WI 53566, USA","title":"21800 Bushels"}},{"local_stop_id":294,"id":294,"geometry":"POINT(-8936365.006712 5111099.156032)","attributes":{"size":"0.262384108","color":"#8BE01B","unit":"kg","weight":"465972.9048","address":"CRAWFORD, PENNSYLVANIA USA","placename":"Crawford, PA, USA","title":"21402 Bushels"}},{"local_stop_id":293,"id":293,"geometry":"POINT(-8412886.659729 4961141.751256)","attributes":{"size":"0.262335069","color":"#8BE01B","unit":"kg","weight":"465885.8152","address":"LEHIGH, PENNSYLVANIA USA","placename":"Lehigh, PA, USA","title":"21398 Bushels"}},{"local_stop_id":292,"id":292,"geometry":"POINT(-11104566.254572 4528150.155794)","attributes":{"size":"0.257455671","color":"#8BE01B","unit":"kg","weight":"457220.4","address":"FORD, KANSAS USA","placename":"Ford, KS 67842, USA","title":"21000 Bushels"}},{"local_stop_id":291,"id":291,"geometry":"POINT(-11581795.861569 5393118.364302)","attributes":{"size":"0.255923197","color":"#8BE01B","unit":"kg","weight":"454498.85","address":"DEWEY, SOUTH DAKOTA USA","placename":"Dewey, West Custer, SD 57735, USA","title":"20875 Bushels"}},{"local_stop_id":290,"id":290,"geometry":"POINT(-8893907.764055 4991886.595808)","attributes":{"size":"0.255849638","color":"#8BE01B","unit":"kg","weight":"454368.2156","address":"BUTLER, PENNSYLVANIA USA","placename":"Butler, PA, USA","title":"20869 Bushels"}},{"local_stop_id":289,"id":289,"geometry":"POINT(-8423251.539593 4635261.044988)","attributes":{"size":"0.25456236","color":"#8BE01B","unit":"kg","weight":"452082.1136","address":"WICOMICO, MARYLAND USA","placename":"Wicomico, MD, USA","title":"20764 Bushels"}},{"local_stop_id":288,"id":288,"geometry":"POINT(-10469472.551854 5687792.435539)","attributes":{"size":"0.254010669","color":"#8BE01B","unit":"kg","weight":"451102.3556","address":"CLEARWATER, MINNESOTA USA","placename":"Clearwater, MN, USA","title":"20719 Bushels"}},{"local_stop_id":287,"id":287,"geometry":"POINT(-10769975.164658 5289421.236423)","attributes":{"size":"0.253324121","color":"#8BE01B","unit":"kg","weight":"449883.1012","address":"SPINK, SOUTH DAKOTA USA","placename":"Spink, SD 57025, USA","title":"20663 Bushels"}},{"local_stop_id":286,"id":286,"geometry":"POINT(-8852469.629073 4485808.006277)","attributes":{"size":"0.253091184","color":"#8BE01B","unit":"kg","weight":"449469.4256","address":"BEDFORD, VIRGINIA USA","placename":"Bedford, VA 24523, USA","title":"20644 Bushels"}},{"local_stop_id":285,"id":285,"geometry":"POINT(-11654207.787705 5542766.657815)","attributes":{"size":"0.252122661","color":"#8BE01B","unit":"kg","weight":"447749.406","address":"CROOK, WYOMING USA","placename":"Crook, WY, USA","title":"20565 Bushels"}},{"local_stop_id":284,"id":284,"geometry":"POINT(-9364292.035001 5484903.676017)","attributes":{"size":"0.249854599","color":"#8BE01B","unit":"kg","weight":"443721.512","address":"ALGER, MICHIGAN USA","placename":"Alger, Moffatt, MI 48610, USA","title":"20380 Bushels"}},{"local_stop_id":283,"id":283,"geometry":"POINT(-8771140.978329 4210902.879139)","attributes":{"size":"0.249633923","color":"#8BE01B","unit":"kg","weight":"443329.6088","address":"HARNETT, NORTH CAROLINA USA","placename":"Harnett, NC 27546, USA","title":"20362 Bushels"}},{"local_stop_id":282,"id":282,"geometry":"POINT(-9539680.278734 5230225.310016)","attributes":{"size":"0.247108405","color":"#8BE01B","unit":"kg","weight":"438844.4944","address":"OTSEGO, MICHIGAN USA","placename":"Otsego, MI, USA","title":"20156 Bushels"}},{"local_stop_id":281,"id":281,"geometry":"POINT(-8931400.001575 4204923.566292)","attributes":{"size":"0.245441073","color":"#8BE01B","unit":"kg","weight":"435883.448","address":"STANLY, NORTH CAROLINA USA","placename":"Stanly, NC, USA","title":"20020 Bushels"}},{"local_stop_id":280,"id":280,"geometry":"POINT(-12462467.362974 5050806.596333)","attributes":{"size":"0.245318475","color":"#8BE01B","unit":"kg","weight":"435665.724","address":"WEBER, UTAH USA","placename":"Weber, UT, USA","title":"20010 Bushels"}},{"local_stop_id":279,"id":279,"geometry":"POINT(-10567174.919332 6223163.212193)","attributes":{"size":"0.244031197","color":"#8BE01B","unit":"kg","weight":"433379.622","address":"LAKE OF THE WOODS, MINNESOTA USA","placename":"Lake of the Woods, MN, USA","title":"19905 Bushels"}},{"local_stop_id":278,"id":278,"geometry":"POINT(-10179440.40545 5349043.892701)","attributes":{"size":"0.243626624","color":"#8BE01B","unit":"kg","weight":"432661.1328","address":"ALLAMAKEE, IOWA USA","placename":"Allamakee, IA, USA","title":"19872 Bushels"}},{"local_stop_id":277,"id":277,"geometry":"POINT(-8674697.333729 4794077.940642)","attributes":{"size":"0.237472207","color":"#8BE01B","unit":"kg","weight":"421731.388","address":"BERKELEY, WEST VIRGINIA USA","placename":"Berkeley, WV 25404, USA","title":"19370 Bushels"}},{"local_stop_id":276,"id":276,"geometry":"POINT(-8644360.601758 4732673.759583)","attributes":{"size":"0.233831048","color":"#8BE01B","unit":"kg","weight":"415264.9852","address":"LOUDOUN, VIRGINIA USA","placename":"Loudoun, VA, USA","title":"19073 Bushels"}},{"local_stop_id":275,"id":275,"geometry":"POINT(-7648889.038702 5537611.431258)","attributes":{"size":"0.232053378","color":"#8BE01B","unit":"kg","weight":"412107.9872","address":"PENOBSCOT, MAINE USA","placename":"Penobscot, ME, USA","title":"18928 Bushels"}},{"local_stop_id":274,"id":274,"geometry":"POINT(-8577884.375587 5010791.38785)","attributes":{"size":"0.232016599","color":"#8BE01B","unit":"kg","weight":"412042.67","address":"UNION, PENNSYLVANIA USA","placename":"Union, PA, USA","title":"18925 Bushels"}},{"local_stop_id":273,"id":273,"geometry":"POINT(-9020127.279635 4483035.02559)","attributes":{"size":"0.230361527","color":"#8BE01B","unit":"kg","weight":"409103.396","address":"HARDY, WEST VIRGINIA USA","placename":"Hardy, WV 24740, USA","title":"18790 Bushels"}},{"local_stop_id":272,"id":272,"geometry":"POINT(-13379383.254934 4384415.089334)","attributes":{"size":"0.227026863","color":"#8BE01B","unit":"kg","weight":"403181.3032","address":"SAN JOAQUIN, CALIFORNIA USA","placename":"San Joaquin, CA 93660, USA","title":"18518 Bushels"}},{"local_stop_id":271,"id":271,"geometry":"POINT(-10163376.746894 5609721.98887)","attributes":{"size":"0.226413873","color":"#8BE01B","unit":"kg","weight":"402092.6832","address":"LAFAYETTE, WISCONSIN USA","placename":"Lafayette, WI 54729, USA","title":"18468 Bushels"}},{"local_stop_id":270,"id":270,"geometry":"POINT(-8680010.946983 4743418.663386)","attributes":{"size":"0.224158071","color":"#8BE01B","unit":"kg","weight":"398086.5616","address":"CLARKE, VIRGINIA USA","placename":"Clarke, VA, USA","title":"18284 Bushels"}},{"local_stop_id":269,"id":269,"geometry":"POINT(-9788710.250676 5536308.666331)","attributes":{"size":"0.223851576","color":"#8BE01B","unit":"kg","weight":"397542.2516","address":"BROWN, WISCONSIN USA","placename":"Brown, WI, USA","title":"18259 Bushels"}},{"local_stop_id":268,"id":268,"geometry":"POINT(-8846603.180964 4900208.623518)","attributes":{"size":"0.221779671","color":"#8BE01B","unit":"kg","weight":"393862.716","address":"WESTMORELAND, PENNSYLVANIA USA","placename":"Westmoreland, PA, USA","title":"18090 Bushels"}},{"local_stop_id":267,"id":267,"geometry":"POINT(-8583009.947957 4653456.972543)","attributes":{"size":"0.221509955","color":"#8BE01B","unit":"kg","weight":"393383.7232","address":"CHARLES, MARYLAND USA","placename":"Charles, MD, USA","title":"18068 Bushels"}},{"local_stop_id":266,"id":266,"geometry":"POINT(-10521367.716975 5642849.735767)","attributes":{"size":"0.21650796","color":"#8BE01B","unit":"kg","weight":"384500.584","address":"MEEKER, MINNESOTA USA","placename":"Meeker, MN, USA","title":"17660 Bushels"}},{"local_stop_id":265,"id":265,"geometry":"POINT(-9118160.121286 4946791.276786)","attributes":{"size":"0.210586479","color":"#8BE01B","unit":"kg","weight":"373984.5148","address":"HOLMES, OHIO USA","placename":"Holmes, OH, USA","title":"17177 Bushels"}},{"local_stop_id":264,"id":264,"geometry":"POINT(-8577884.375587 4975646.275663)","attributes":{"size":"0.210365803","color":"#8BE01B","unit":"kg","weight":"373592.6116","address":"SNYDER, PENNSYLVANIA USA","placename":"Snyder, PA, USA","title":"17159 Bushels"}},{"local_stop_id":263,"id":263,"geometry":"POINT(-8684064.790956 4936643.626541)","attributes":{"size":"0.207398933","color":"#8BE01B","unit":"kg","weight":"368323.6908","address":"HUNTINGDON, PENNSYLVANIA USA","placename":"Huntingdon, PA 16652, USA","title":"16917 Bushels"}},{"local_stop_id":262,"id":262,"geometry":"POINT(-10499144.750993 5596996.072917)","attributes":{"size":"0.206320071","color":"#8BE01B","unit":"kg","weight":"366407.7196","address":"MCLEOD, MINNESOTA USA","placename":"McLeod, MN, USA","title":"16829 Bushels"}},{"local_stop_id":261,"id":261,"geometry":"POINT(-8692909.302611 5285592.934099)","attributes":{"size":"0.205658042","color":"#8BE01B","unit":"kg","weight":"365232.01","address":"WYOMING, NEW YORK USA","placename":"Wyoming, NY 14591, USA","title":"16775 Bushels"}},{"local_stop_id":260,"id":260,"geometry":"POINT(-9642582.713585 4408096.868762)","attributes":{"size":"0.204763077","color":"#8BE01B","unit":"kg","weight":"363642.6248","address":"SIMPSON, KENTUCKY USA","placename":"Simpson, KY, USA","title":"16702 Bushels"}},{"local_stop_id":259,"id":259,"geometry":"POINT(-10450285.023483 5683708.696818)","attributes":{"size":"0.203328681","color":"#8BE01B","unit":"kg","weight":"361095.254","address":"BECKER, MINNESOTA USA","placename":"Becker, MN, USA","title":"16585 Bushels"}},{"local_stop_id":258,"id":258,"geometry":"POINT(-9669453.947356 4373112.338954)","attributes":{"size":"0.202470496","color":"#8BE01B","unit":"kg","weight":"359571.186","address":"ROBERTSON, TENNESSEE USA","placename":"Robertson, TN, USA","title":"16515 Bushels"}},{"local_stop_id":257,"id":257,"geometry":"POINT(-9859502.53388 5961868.539434)","attributes":{"size":"0.202274339","color":"#8BE01B","unit":"kg","weight":"359222.8276","address":"HOUGHTON, MICHIGAN USA","placename":"Houghton, MI, USA","title":"16499 Bushels"}},{"local_stop_id":256,"id":256,"geometry":"POINT(-11251191.823933 4845631.778389)","attributes":{"size":"0.200680566","color":"#8BE01B","unit":"kg","weight":"356392.4156","address":"RAWLINS, KANSAS USA","placename":"Rawlins, KS, USA","title":"16369 Bushels"}},{"local_stop_id":255,"id":255,"geometry":"POINT(-10353453.474986 5888713.450243)","attributes":{"size":"0.199675263","color":"#8BE01B","unit":"kg","weight":"354607.0788","address":"WRIGHT, MINNESOTA USA","placename":"Wright, MN, USA","title":"16287 Bushels"}},{"local_stop_id":254,"id":254,"geometry":"POINT(-8664744.948238 5111414.597976)","attributes":{"size":"0.198951935","color":"#8BE01B","unit":"kg","weight":"353322.5072","address":"POTTER, PENNSYLVANIA USA","placename":"Potter, PA, USA","title":"16228 Bushels"}},{"local_stop_id":253,"id":253,"geometry":"POINT(-8683383.916423 4582977.77591)","attributes":{"size":"0.194648747","color":"#8BE01B","unit":"kg","weight":"345680.3948","address":"LOUISA, VIRGINIA USA","placename":"Louisa, VA 23093, USA","title":"15877 Bushels"}},{"local_stop_id":252,"id":252,"geometry":"POINT(-11738519.889858 5526869.359596)","attributes":{"size":"0.194391291","color":"#8BE01B","unit":"kg","weight":"345223.1744","address":"CAMPBELL, WYOMING USA","placename":"Campbell, WY, USA","title":"15856 Bushels"}},{"local_stop_id":251,"id":251,"geometry":"POINT(-9345361.06466 5376038.961119)","attributes":{"size":"0.194121576","color":"#8BE01B","unit":"kg","weight":"344744.1816","address":"SAGINAW, MICHIGAN USA","placename":"Saginaw, MI, USA","title":"15834 Bushels"}},{"local_stop_id":250,"id":250,"geometry":"POINT(-9842355.603095 5506066.473172)","attributes":{"size":"0.193128533","color":"#8BE01B","unit":"kg","weight":"342980.6172","address":"OUTAGAMIE, WISCONSIN USA","placename":"Appleton, WI, USA","title":"15753 Bushels"}},{"local_stop_id":249,"id":249,"geometry":"POINT(-10109840.231541 5911240.960176)","attributes":{"size":"0.190088104","color":"#8BE01B","unit":"kg","weight":"337581.062","address":"BAYFIELD, WISCONSIN USA","placename":"Bayfield, WI, USA","title":"15505 Bushels"}},{"local_stop_id":248,"id":248,"geometry":"POINT(-11619438.413798 5165990.330447)","attributes":{"size":"0.189364776","color":"#8BE01B","unit":"kg","weight":"336296.4904","address":"GOSHEN, WYOMING USA","placename":"Goshen, WY, USA","title":"15446 Bushels"}},{"local_stop_id":247,"id":247,"geometry":"POINT(-12630841.788606 5834594.016745)","attributes":{"size":"0.185171926","color":"#8BE01B","unit":"kg","weight":"328850.3296","address":"GRANITE, MONTANA USA","placename":"Granite, Mt, USA","title":"15104 Bushels"}},{"local_stop_id":246,"id":246,"geometry":"POINT(-9700635.2937 4415974.773887)","attributes":{"size":"0.180660322","color":"#8BE01B","unit":"kg","weight":"320838.0864","address":"TODD, KENTUCKY USA","placename":"Todd, KY, USA","title":"14736 Bushels"}},{"local_stop_id":245,"id":245,"geometry":"POINT(-11789849.0065 4579268.754009)","attributes":{"size":"0.180464166","color":"#8BE01B","unit":"kg","weight":"320489.728","address":"MOFFAT, COLORADO USA","placename":"Moffat, CO, USA","title":"14720 Bushels"}},{"local_stop_id":244,"id":244,"geometry":"POINT(-10283846.187761 5370290.35744)","attributes":{"size":"0.178257403","color":"#8BE01B","unit":"kg","weight":"316570.696","address":"HOWARD, IOWA USA","placename":"Howard, IA, USA","title":"14540 Bushels"}},{"local_stop_id":243,"id":243,"geometry":"POINT(-8750992.139363 4811672.898272)","attributes":{"size":"0.178196104","color":"#8BE01B","unit":"kg","weight":"316461.834","address":"ALLEGANY, MARYLAND USA","placename":"Allegany, MD, USA","title":"14535 Bushels"}},{"local_stop_id":242,"id":242,"geometry":"POINT(-10281734.457021 6063627.573412)","attributes":{"size":"0.177681192","color":"#8BE01B","unit":"kg","weight":"315547.3932","address":"ST. LOUIS, MINNESOTA USA","placename":"St Louis, MN, USA","title":"14493 Bushels"}},{"local_stop_id":241,"id":241,"geometry":"POINT(-8886598.693269 4265583.823939)","attributes":{"size":"0.17721532","color":"#8BE01B","unit":"kg","weight":"314720.042","address":"RANDOLPH, NORTH CAROLINA USA","placename":"Randolph, NC, USA","title":"14455 Bushels"}},{"local_stop_id":240,"id":240,"geometry":"POINT(-8848324.892736 4305457.122875)","attributes":{"size":"0.175315052","color":"#8BE01B","unit":"kg","weight":"311345.32","address":"ALAMANCE, NORTH CAROLINA USA","placename":"Alamance, NC, USA","title":"14300 Bushels"}},{"local_stop_id":239,"id":239,"geometry":"POINT(-9780709.663213 5773963.830447)","attributes":{"size":"0.174665283","color":"#8BE01B","unit":"kg","weight":"310191.3828","address":"DICKINSON, MICHIGAN USA","placename":"Dickinson, MI, USA","title":"14247 Bushels"}},{"local_stop_id":238,"id":238,"geometry":"POINT(-9823512.953639 5490020.065084)","attributes":{"size":"0.174469126","color":"#8BE01B","unit":"kg","weight":"309843.0244","address":"CALUMET, WISCONSIN USA","placename":"Calumet, WI, USA","title":"14231 Bushels"}},{"local_stop_id":237,"id":237,"geometry":"POINT(-8521376.019448 4714943.020455)","attributes":{"size":"0.173034731","color":"#8BE01B","unit":"kg","weight":"307295.6536","address":"ANNE ARUNDEL, MARYLAND USA","placename":"Anne Arundel, MD, USA","title":"14114 Bushels"}},{"local_stop_id":236,"id":236,"geometry":"POINT(-8866620.874437 4855373.517829)","attributes":{"size":"0.172814054","color":"#8BE01B","unit":"kg","weight":"306903.7504","address":"FAYETTE, PENNSYLVANIA USA","placename":"Fayette, PA, USA","title":"14096 Bushels"}},{"local_stop_id":235,"id":235,"geometry":"POINT(-10010441.199176 5374072.46797)","attributes":{"size":"0.170926046","color":"#8BE01B","unit":"kg","weight":"303550.8008","address":"SAUK, WISCONSIN USA","placename":"Sauk, WI, USA","title":"13942 Bushels"}},{"local_stop_id":234,"id":234,"geometry":"POINT(-8557362.594064 4690910.024176)","attributes":{"size":"0.168167592","color":"#8BE01B","unit":"kg","weight":"298652.0108","address":"PRINCE GEORGES, MARYLAND USA","placename":"Prince George's, MD, USA","title":"13717 Bushels"}},{"local_stop_id":233,"id":233,"geometry":"POINT(-10147473.221425 5703658.824773)","attributes":{"size":"0.16771398","color":"#8BE01B","unit":"kg","weight":"297846.432","address":"RUSK, WISCONSIN USA","placename":"Rusk, WI, USA","title":"13680 Bushels"}},{"local_stop_id":232,"id":232,"geometry":"POINT(-8404270.909628 4966166.939252)","attributes":{"size":"0.16591179","color":"#8BE01B","unit":"kg","weight":"294645.8892","address":"NORTHAMPTON, PENNSYLVANIA USA","placename":"Northampton, PA, USA","title":"13533 Bushels"}},{"local_stop_id":231,"id":231,"geometry":"POINT(-8766145.048638 5266040.008157)","attributes":{"size":"0.165580776","color":"#8BE01B","unit":"kg","weight":"294058.0344","address":"ERIE, NEW YORK USA","placename":"Erie, NY, USA","title":"13506 Bushels"}},{"local_stop_id":230,"id":230,"geometry":"POINT(-8421463.425745 5326072.331972)","attributes":{"size":"0.165372359","color":"#8BE01B","unit":"kg","weight":"293687.9036","address":"ONEIDA, NEW YORK USA","placename":"Oneida, NY, USA","title":"13489 Bushels"}},{"local_stop_id":229,"id":229,"geometry":"POINT(-8685095.32001 4455127.328141)","attributes":{"size":"0.164403836","color":"#8BE01B","unit":"kg","weight":"291967.884","address":"NOTTOWAY, VIRGINIA USA","placename":"Nottoway, VA, USA","title":"13410 Bushels"}},{"local_stop_id":228,"id":228,"geometry":"POINT(-12335046.543108 4626674.618989)","attributes":{"size":"0.163190116","color":"#8BE01B","unit":"kg","weight":"289812.4164","address":"WAYNE, UTAH USA","placename":"Wayne, UT, USA","title":"13311 Bushels"}},{"local_stop_id":227,"id":227,"geometry":"POINT(-10461058.290031 5735768.315821)","attributes":{"size":"0.163055258","color":"#8BE01B","unit":"kg","weight":"289572.92","address":"BENTON, MINNESOTA USA","placename":"Benton, MN, USA","title":"13300 Bushels"}},{"local_stop_id":226,"id":226,"geometry":"POINT(-9200570.74182 4096603.629682)","attributes":{"size":"0.162871361","color":"#8BE01B","unit":"kg","weight":"289246.334","address":"ANDERSON, SOUTH CAROLINA USA","placename":"Anderson, SC, USA","title":"13285 Bushels"}},{"local_stop_id":225,"id":225,"geometry":"POINT(-10992590.067839 4471211.530224)","attributes":{"size":"0.161559563","color":"#8BE01B","unit":"kg","weight":"286916.6872","address":"BARBER, KANSAS USA","placename":"Barber, KS, USA","title":"13178 Bushels"}},{"local_stop_id":224,"id":224,"geometry":"POINT(-11475012.406255 5049424.000953)","attributes":{"size":"0.161522784","color":"#8BE01B","unit":"kg","weight":"286851.37","address":"CHEYENNE, NEBRASKA USA","placename":"Cheyenne, NE, USA","title":"13175 Bushels"}},{"local_stop_id":223,"id":223,"geometry":"POINT(-8559929.510202 4541333.614536)","attributes":{"size":"0.159622516","color":"#8BE01B","unit":"kg","weight":"283476.648","address":"KING AND QUEEN, VIRGINIA USA","placename":"King and Queen, VA, USA","title":"13020 Bushels"}},{"local_stop_id":222,"id":222,"geometry":"POINT(-8837133.599236 5044074.223043)","attributes":{"size":"0.158825629","color":"#8BE01B","unit":"kg","weight":"282061.442","address":"CLARION, PENNSYLVANIA USA","placename":"Clarion, PA 16214, USA","title":"12955 Bushels"}},{"local_stop_id":221,"id":221,"geometry":"POINT(-11906307.394606 5589650.123222)","attributes":{"size":"0.158396537","color":"#8BE01B","unit":"kg","weight":"281299.408","address":"SHERIDAN, WYOMING USA","placename":"Sheridan, WY 82801, USA","title":"12920 Bushels"}},{"local_stop_id":220,"id":220,"geometry":"POINT(-8616436.652958 4949052.072023)","attributes":{"size":"0.156533048","color":"#8BE01B","unit":"kg","weight":"277990.0032","address":"MIFFLIN, PENNSYLVANIA USA","placename":"Mifflin, PA, USA","title":"12768 Bushels"}},{"local_stop_id":219,"id":219,"geometry":"POINT(-10421939.38532 5767992.934173)","attributes":{"size":"0.155000574","color":"#8BE01B","unit":"kg","weight":"275268.4532","address":"MILLE LACS, MINNESOTA USA","placename":"Mille Lacs, MN, USA","title":"12643 Bushels"}},{"local_stop_id":218,"id":218,"geometry":"POINT(-11180891.361372 4771510.896435)","attributes":{"size":"0.154571481","color":"#8BE01B","unit":"kg","weight":"274506.4192","address":"SHERIDAN, KANSAS USA","placename":"Sheridan, KS, USA","title":"12608 Bushels"}},{"local_stop_id":217,"id":217,"geometry":"POINT(-8480372.720661 5251463.253913)","attributes":{"size":"0.153026747","color":"#8BE01B","unit":"kg","weight":"271763.0968","address":"CORTLAND, NEW YORK USA","placename":"Cortland, NY 13045, USA","title":"12482 Bushels"}},{"local_stop_id":216,"id":216,"geometry":"POINT(-10331235.863471 5796117.27837)","attributes":{"size":"0.152070483","color":"#8BE01B","unit":"kg","weight":"270064.8496","address":"PINE, MINNESOTA USA","placename":"Pine, MN, USA","title":"12404 Bushels"}},{"local_stop_id":215,"id":215,"geometry":"POINT(-10866053.759251 4470320.467772)","attributes":{"size":"0.148956495","color":"#8BE01B","unit":"kg","weight":"264534.66","address":"SUMNER, KANSAS USA","placename":"Sumner, KS, USA","title":"12150 Bushels"}},{"local_stop_id":214,"id":214,"geometry":"POINT(-9814678.816961 5361402.160829)","attributes":{"size":"0.147656957","color":"#8BE01B","unit":"kg","weight":"262226.7856","address":"JACKSON, WISCONSIN USA","placename":"Jackson, WI, USA","title":"12044 Bushels"}},{"local_stop_id":213,"id":213,"geometry":"POINT(-9403656.042967 5723953.096334)","attributes":{"size":"0.147424021","color":"#8BE01B","unit":"kg","weight":"261813.11","address":"CHEBOYGAN, MICHIGAN USA","placename":"Cheboygan, MI 49721, USA","title":"12025 Bushels"}},{"local_stop_id":212,"id":212,"geometry":"POINT(-13365097.947507 4433718.837911)","attributes":{"size":"0.144873984","color":"#8BE01B","unit":"kg","weight":"257284.4508","address":"MADERA, CALIFORNIA USA","placename":"Madera, CA, USA","title":"11817 Bushels"}},{"local_stop_id":211,"id":211,"geometry":"POINT(-10288498.552108 5886794.937118)","attributes":{"size":"0.142274908","color":"#8BE01B","unit":"kg","weight":"252668.702","address":"CARLTON, MINNESOTA USA","placename":"Carlton, MN, USA","title":"11605 Bushels"}},{"local_stop_id":210,"id":210,"geometry":"POINT(-10185565.771563 5591870.980316)","attributes":{"size":"0.140914071","color":"#8BE01B","unit":"kg","weight":"250251.9656","address":"EAU CLAIRE, WISCONSIN USA","placename":"Eau Claire, WI, USA","title":"11494 Bushels"}},{"local_stop_id":209,"id":209,"geometry":"POINT(-9005596.546127 4277398.959451)","attributes":{"size":"0.140681135","color":"#8BE01B","unit":"kg","weight":"249838.29","address":"IREDELL, NORTH CAROLINA USA","placename":"Iredell, NC, USA","title":"11475 Bushels"}},{"local_stop_id":208,"id":208,"geometry":"POINT(-8516227.604319 4649583.584156)","attributes":{"size":"0.137150314","color":"#8BE01B","unit":"kg","weight":"243567.8388","address":"CALVERT, MARYLAND USA","placename":"Calvert, MD, USA","title":"11187 Bushels"}},{"local_stop_id":207,"id":207,"geometry":"POINT(-9436400.515336 5437547.167346)","attributes":{"size":"0.135715918","color":"#8BE01B","unit":"kg","weight":"241020.468","address":"CLARE, MICHIGAN USA","placename":"Clare, MI 48617, USA","title":"11070 Bushels"}},{"local_stop_id":206,"id":206,"geometry":"POINT(-10953447.58566 5373961.48549)","attributes":{"size":"0.134857732","color":"#8BE01B","unit":"kg","weight":"239496.4","address":"DOUGLAS, SOUTH DAKOTA USA","placename":"Douglas, SD, USA","title":"11000 Bushels"}},{"local_stop_id":205,"id":205,"geometry":"POINT(-8586409.233324 5147310.669298)","attributes":{"size":"0.134698355","color":"#8BE01B","unit":"kg","weight":"239213.3588","address":"TIOGA, PENNSYLVANIA USA","placename":"Tioga, PA 16946, USA","title":"10987 Bushels"}},{"local_stop_id":204,"id":204,"geometry":"POINT(-10257862.871644 5533955.761339)","attributes":{"size":"0.133509155","color":"#8BE01B","unit":"kg","weight":"237101.436","address":"PEPIN, WISCONSIN USA","placename":"Pepin, WI 54759, USA","title":"10890 Bushels"}},{"local_stop_id":203,"id":203,"geometry":"POINT(-8670180.434071 4534904.77803)","attributes":{"size":"0.132822607","color":"#8BE01B","unit":"kg","weight":"235882.1816","address":"GOOCHLAND, VIRGINIA USA","placename":"Goochland, 3, VA 23063, USA","title":"10834 Bushels"}},{"local_stop_id":202,"id":202,"geometry":"POINT(-11543930.625832 5609753.307918)","attributes":{"size":"0.13203798","color":"#8BE01B","unit":"kg","weight":"234488.748","address":"BUTTE, SOUTH DAKOTA USA","placename":"Butte, SD, USA","title":"10770 Bushels"}},{"local_stop_id":201,"id":201,"geometry":"POINT(-12233788.363928 5743133.72122)","attributes":{"size":"0.130812","color":"#8BE01B","unit":"kg","weight":"232311.508","address":"SWEET GRASS, MONTANA USA","placename":"Sweet Grass, Mt, USA","title":"10670 Bushels"}},{"local_stop_id":200,"id":200,"geometry":"POINT(-10283846.187761 5464696.152778)","attributes":{"size":"0.129745398","color":"#8BE01B","unit":"kg","weight":"230417.3092","address":"OLMSTED, MINNESOTA USA","placename":"Olmsted, MN, USA","title":"10583 Bushels"}},{"local_stop_id":199,"id":199,"geometry":"POINT(-10670695.25528 5580375.798057)","attributes":{"size":"0.128850433","color":"#8BE01B","unit":"kg","weight":"228827.924","address":"YELLOW MEDICINE, MINNESOTA USA","placename":"Yellow Medicine, MN, USA","title":"10510 Bushels"}},{"local_stop_id":198,"id":198,"geometry":"POINT(-8985869.786143 5010450.207519)","attributes":{"size":"0.128421341","color":"#8BE01B","unit":"kg","weight":"228065.89","address":"MAHONING, OHIO USA","placename":"Mahoning, OH, USA","title":"10475 Bushels"}},{"local_stop_id":197,"id":197,"geometry":"POINT(-9275010.185501 5319801.179022)","attributes":{"size":"0.127808351","color":"#8BE01B","unit":"kg","weight":"226977.27","address":"LAPEER, MICHIGAN USA","placename":"Lapeer, MI 48446, USA","title":"10425 Bushels"}},{"local_stop_id":196,"id":196,"geometry":"POINT(-10156743.663716 5434752.789568)","attributes":{"size":"0.127440557","color":"#8BE01B","unit":"kg","weight":"226324.098","address":"LA CROSSE, WISCONSIN USA","placename":"La Crosse, WI, USA","title":"10395 Bushels"}},{"local_stop_id":195,"id":195,"geometry":"POINT(-12476164.79217 5803624.982374)","attributes":{"size":"0.127097283","color":"#8BE01B","unit":"kg","weight":"225714.4708","address":"JEFFERSON, MONTANA USA","placename":"Jefferson, Mt, USA","title":"10367 Bushels"}},{"local_stop_id":194,"id":194,"geometry":"POINT(-10146774.591433 5297107.091402)","attributes":{"size":"0.125540289","color":"#8BE01B","unit":"kg","weight":"222949.376","address":"CLAYTON, IOWA USA","placename":"Clayton, IA 52049, USA","title":"10240 Bushels"}},{"local_stop_id":193,"id":193,"geometry":"POINT(-10193356.165564 5428885.005172)","attributes":{"size":"0.124154932","color":"#8BE01B","unit":"kg","weight":"220489.0948","address":"HOUSTON, MINNESOTA USA","placename":"Houston, MN 55943, USA","title":"10127 Bushels"}},{"local_stop_id":192,"id":192,"geometry":"POINT(-9000034.400978 4231943.170988)","attributes":{"size":"0.121678454","color":"#8BE01B","unit":"kg","weight":"216091.07","address":"DAVIDSON, NORTH CAROLINA USA","placename":"Davidson, NC, USA","title":"9925 Bushels"}},{"local_stop_id":191,"id":191,"geometry":"POINT(-13685875.791427 5582094.541217)","attributes":{"size":"0.121420998","color":"#8BE01B","unit":"kg","weight":"215633.8496","address":"MARION, OREGON USA","placename":"Marion, OR, USA","title":"9904 Bushels"}},{"local_stop_id":190,"id":190,"geometry":"POINT(-9781036.664218 5603782.829157)","attributes":{"size":"0.119851745","color":"#8BE01B","unit":"kg","weight":"212846.9824","address":"OCONTO, WISCONSIN USA","placename":"Oconto, WI 54153, USA","title":"9776 Bushels"}},{"local_stop_id":189,"id":189,"geometry":"POINT(-9917002.190085 5521017.107457)","attributes":{"size":"0.118993559","color":"#8BE01B","unit":"kg","weight":"211322.9144","address":"WAUPACA, WISCONSIN USA","placename":"Waupaca, WI 54981, USA","title":"9706 Bushels"}},{"local_stop_id":188,"id":188,"geometry":"POINT(-11051638.556646 4773924.914233)","attributes":{"size":"0.117706281","color":"#8BE01B","unit":"kg","weight":"209036.8124","address":"ROOKS, KANSAS USA","placename":"Rooks, KS, USA","title":"9601 Bushels"}},{"local_stop_id":187,"id":187,"geometry":"POINT(-9287691.557177 5631236.877536)","attributes":{"size":"0.117571423","color":"#8BE01B","unit":"kg","weight":"208797.316","address":"ALPENA, MICHIGAN USA","placename":"Alpena, MI 49707, USA","title":"9590 Bushels"}},{"local_stop_id":186,"id":186,"geometry":"POINT(-9459585.983032 5723147.485587)","attributes":{"size":"0.116676458","color":"#8BE01B","unit":"kg","weight":"207207.9308","address":"EMMET, MICHIGAN USA","placename":"Emmet, MI, USA","title":"9517 Bushels"}},{"local_stop_id":185,"id":185,"geometry":"POINT(-8932252.029826 5045882.359943)","attributes":{"size":"0.116492561","color":"#8BE01B","unit":"kg","weight":"206881.3448","address":"MERCER, PENNSYLVANIA USA","placename":"Mercer, PA 16137, USA","title":"9502 Bushels"}},{"local_stop_id":184,"id":184,"geometry":"POINT(-12539144.528795 4618618.796933)","attributes":{"size":"0.116247365","color":"#8BE01B","unit":"kg","weight":"206445.8968","address":"BEAVER, UTAH USA","placename":"Beaver, UT, USA","title":"9482 Bushels"}},{"local_stop_id":183,"id":183,"geometry":"POINT(-10560478.105745 5171387.561257)","attributes":{"size":"0.116222846","color":"#8BE01B","unit":"kg","weight":"206402.352","address":"CARROLL, IOWA USA","placename":"Carroll, IA 51401, USA","title":"9480 Bushels"}},{"local_stop_id":182,"id":182,"geometry":"POINT(-10077283.989299 4612114.222933)","attributes":{"size":"0.115242062","color":"#8BE01B","unit":"kg","weight":"204660.56","address":"JEFFERSON, MISSOURI USA","placename":"Jefferson, MO, USA","title":"9400 Bushels"}},{"local_stop_id":181,"id":181,"geometry":"POINT(-8355765.066779 5247954.805224)","attributes":{"size":"0.115143984","color":"#8BE01B","unit":"kg","weight":"204486.3808","address":"OTSEGO, NEW YORK USA","placename":"Otsego, NY, USA","title":"9392 Bushels"}},{"local_stop_id":180,"id":180,"geometry":"POINT(-11321437.339195 5597640.262019)","attributes":{"size":"0.113967044","color":"#8BE01B","unit":"kg","weight":"202396.2304","address":"ZIEBACH, SOUTH DAKOTA USA","placename":"Ziebach, SD, USA","title":"9296 Bushels"}},{"local_stop_id":179,"id":179,"geometry":"POINT(-8272104.461947 5261257.212972)","attributes":{"size":"0.113280495","color":"#8BE01B","unit":"kg","weight":"201176.976","address":"SCHOHARIE, NEW YORK USA","placename":"Schoharie, NY, USA","title":"9240 Bushels"}},{"local_stop_id":178,"id":178,"geometry":"POINT(-10027067.143613 5303098.198971)","attributes":{"size":"0.109394141","color":"#8BE01B","unit":"kg","weight":"194275.1252","address":"IOWA, WISCONSIN USA","placename":"Iowa, WI, USA","title":"8923 Bushels"}},{"local_stop_id":177,"id":177,"geometry":"POINT(-12058163.777784 5967662.036783)","attributes":{"size":"0.109112165","color":"#8BE01B","unit":"kg","weight":"193774.36","address":"PETROLEUM, MONTANA USA","placename":"Petroleum, Mt, USA","title":"8900 Bushels"}},{"local_stop_id":176,"id":176,"geometry":"POINT(-13302919.399521 5831236.397872)","attributes":{"size":"0.106844103","color":"#8BE01B","unit":"kg","weight":"189746.466","address":"BENTON, WASHINGTON USA","placename":"Benton, WA, USA","title":"8715 Bushels"}},{"local_stop_id":175,"id":175,"geometry":"POINT(-8939487.729936 4967508.253424)","attributes":{"size":"0.106709246","color":"#8BE01B","unit":"kg","weight":"189506.9696","address":"BEAVER, PENNSYLVANIA USA","placename":"Beaver, PA, USA","title":"8704 Bushels"}},{"local_stop_id":174,"id":174,"geometry":"POINT(-10098873.035308 5545705.608102)","attributes":{"size":"0.106660207","color":"#8BE01B","unit":"kg","weight":"189419.88","address":"COLUMBIA, WISCONSIN USA","placename":"Columbia, Hewett, WI 54456, USA","title":"8700 Bushels"}},{"local_stop_id":173,"id":173,"geometry":"POINT(-8730756.348744 4466781.846611)","attributes":{"size":"0.105752982","color":"#8BE01B","unit":"kg","weight":"187808.7224","address":"PRINCE EDWARD, VIRGINIA USA","placename":"Prince Edward, VA, USA","title":"8626 Bushels"}},{"local_stop_id":172,"id":172,"geometry":"POINT(-10169988.490126 5451799.451381)","attributes":{"size":"0.105630384","color":"#8BE01B","unit":"kg","weight":"187590.9984","address":"DAKOTA, MINNESOTA USA","placename":"Dakota, MN, USA","title":"8616 Bushels"}},{"local_stop_id":171,"id":171,"geometry":"POINT(-8897988.892435 4908346.555)","attributes":{"size":"0.104772198","color":"#8BE01B","unit":"kg","weight":"186066.9304","address":"JEFFERSON, PENNSYLVANIA USA","placename":"Jefferson Hills, PA, USA","title":"8546 Bushels"}},{"local_stop_id":170,"id":170,"geometry":"POINT(-9025298.348282 4260428.336803)","attributes":{"size":"0.10347266","color":"#8BE01B","unit":"kg","weight":"183759.056","address":"CATAWBA, NORTH CAROLINA USA","placename":"Catawba, NC, USA","title":"8440 Bushels"}},{"local_stop_id":169,"id":169,"geometry":"POINT(-8516431.942376 4870841.916625)","attributes":{"size":"0.102712553","color":"#8BE01B","unit":"kg","weight":"182409.1672","address":"COLUMBIA, PENNSYLVANIA USA","placename":"Columbia, PA, USA","title":"8378 Bushels"}},{"local_stop_id":168,"id":168,"geometry":"POINT(-10179286.70663 5466296.223627)","attributes":{"size":"0.102675774","color":"#8BE01B","unit":"kg","weight":"182343.85","address":"TREMPEALEAU, WISCONSIN USA","placename":"Trempealeau, WI, USA","title":"8375 Bushels"}},{"local_stop_id":167,"id":167,"geometry":"POINT(-8264004.555234 5090475.871081)","attributes":{"size":"0.100836804","color":"#8BE01B","unit":"kg","weight":"179077.99","address":"MONTGOMERY, NEW YORK USA","placename":"Montgomery, NY 12549, USA","title":"8225 Bushels"}},{"local_stop_id":166,"id":166,"geometry":"POINT(-10567816.965627 5642184.795694)","attributes":{"size":"0.100775506","color":"#8BE01B","unit":"kg","weight":"178969.128","address":"KANDIYOHI, MINNESOTA USA","placename":"Kandiyohi, MN, USA","title":"8220 Bushels"}},{"local_stop_id":165,"id":165,"geometry":"POINT(-9185926.718466 4976516.863499)","attributes":{"size":"0.100407712","color":"#8BE01B","unit":"kg","weight":"178315.956","address":"RICHLAND, OHIO USA","placename":"Richland, OH, USA","title":"8190 Bushels"}},{"local_stop_id":164,"id":164,"geometry":"POINT(-10675395.999078 5527261.737287)","attributes":{"size":"0.09918173199999999","color":"#8BE01B","unit":"kg","weight":"176138.716","address":"LYON, MINNESOTA USA","placename":"Lyon, MN, USA","title":"8090 Bushels"}},{"local_stop_id":163,"id":163,"geometry":"POINT(-10061811.748933 5363056.966767)","attributes":{"size":"0.09813964999999999","color":"#8BE01B","unit":"kg","weight":"174288.062","address":"RICHLAND, WISCONSIN USA","placename":"Richland Center, WI 53581, USA","title":"8005 Bushels"}},{"local_stop_id":162,"id":162,"geometry":"POINT(-10722583.585385 5535457.060011)","attributes":{"size":"0.096043225","color":"#8BE01B","unit":"kg","weight":"170564.9816","address":"LINCOLN, MINNESOTA USA","placename":"Lincoln, MN, USA","title":"7834 Bushels"}},{"local_stop_id":161,"id":161,"geometry":"POINT(-8919157.885478 4910590.675522)","attributes":{"size":"0.09518504","color":"#8BE01B","unit":"kg","weight":"169040.9136","address":"LAWRENCE, PENNSYLVANIA USA","placename":"Lawrence, Cecil, PA 15317, USA","title":"7764 Bushels"}},{"local_stop_id":160,"id":160,"geometry":"POINT(-10681352.025981 5703999.922583)","attributes":{"size":"0.095013402","color":"#8BE01B","unit":"kg","weight":"168736.1","address":"STEVENS, MINNESOTA USA","placename":"Stevens, MN, USA","title":"7750 Bushels"}},{"local_stop_id":159,"id":159,"geometry":"POINT(-10905514.659702 5346365.518081)","attributes":{"size":"0.09378742299999999","color":"#8BE01B","unit":"kg","weight":"166558.86","address":"TRIPP, SOUTH DAKOTA USA","placename":"Tripp, SD 57376, USA","title":"7650 Bushels"}},{"local_stop_id":158,"id":158,"geometry":"POINT(-10136134.340545 5555902.19736)","attributes":{"size":"0.09366482499999999","color":"#8BE01B","unit":"kg","weight":"166341.136","address":"PRICE, WISCONSIN USA","placename":"Price, WI 54741, USA","title":"7640 Bushels"}},{"local_stop_id":157,"id":157,"geometry":"POINT(-13056636.937327 4043359.393562)","attributes":{"size":"0.092978277","color":"#8BE01B","unit":"kg","weight":"165121.8816","address":"SAN BERNARDINO, CALIFORNIA USA","placename":"San Bernardino, CA, USA","title":"7584 Bushels"}},{"local_stop_id":156,"id":156,"geometry":"POINT(-12689753.833113 5921229.957817)","attributes":{"size":"0.09219365","color":"#8BE01B","unit":"kg","weight":"163728.448","address":"MISSOULA, MONTANA USA","placename":"Missoula, Mt, USA","title":"7520 Bushels"}},{"local_stop_id":155,"id":155,"geometry":"POINT(-9965114.607589 4481829.254996)","attributes":{"size":"0.088883505","color":"#8BE01B","unit":"kg","weight":"157849.9","address":"CAPE GIRARDEAU, MISSOURI USA","placename":"Cape Girardeau, MO, USA","title":"7250 Bushels"}},{"local_stop_id":154,"id":154,"geometry":"POINT(-9942392.362559 5921051.898249)","attributes":{"size":"0.08827051599999999","color":"#8BE01B","unit":"kg","weight":"156761.28","address":"ONTONAGON, MICHIGAN USA","placename":"Ontonagon, MI, USA","title":"7200 Bushels"}},{"local_stop_id":153,"id":153,"geometry":"POINT(-10535837.102312 5501017.151426)","attributes":{"size":"0.088086619","color":"#8BE01B","unit":"kg","weight":"156434.694","address":"BROWN, MINNESOTA USA","placename":"Brown, MN, USA","title":"7185 Bushels"}},{"local_stop_id":152,"id":152,"geometry":"POINT(-9977027.685535 5208205.40491)","attributes":{"size":"0.08710583500000001","color":"#8BE01B","unit":"kg","weight":"154692.902","address":"STEPHENSON, ILLINOIS USA","placename":"Stephenson, IL, USA","title":"7105 Bushels"}},{"local_stop_id":151,"id":151,"geometry":"POINT(-10384811.964035 5769603.454808)","attributes":{"size":"0.08704453600000001","color":"#8BE01B","unit":"kg","weight":"154584.04","address":"KANABEC, MINNESOTA USA","placename":"Kanabec, MN, USA","title":"7100 Bushels"}},{"local_stop_id":150,"id":150,"geometry":"POINT(-8598374.831806 4743861.42316)","attributes":{"size":"0.08682386","color":"#8BE01B","unit":"kg","weight":"154192.1368","address":"MONTGOMERY, MARYLAND USA","placename":"Montgomery, MD, USA","title":"7082 Bushels"}},{"local_stop_id":149,"id":149,"geometry":"POINT(-10599965.58929 6250011.615753)","attributes":{"size":"0.08606375300000001","color":"#8BE01B","unit":"kg","weight":"152842.248","address":"SWIFT, MINNESOTA USA","placename":"Swift, Moranville, MN 56763, USA","title":"7020 Bushels"}},{"local_stop_id":148,"id":148,"geometry":"POINT(-8418069.928992 5235755.769825)","attributes":{"size":"0.085610141","color":"#8BE01B","unit":"kg","weight":"152036.6692","address":"CHENANGO, NEW YORK USA","placename":"Chenango, NY, USA","title":"6983 Bushels"}},{"local_stop_id":147,"id":147,"geometry":"POINT(-9753662.155028 5370290.35744)","attributes":{"size":"0.085328165","color":"#8BE01B","unit":"kg","weight":"151535.904","address":"OZAUKEE, WISCONSIN USA","placename":"Ozaukee, WI, USA","title":"6960 Bushels"}},{"local_stop_id":146,"id":146,"geometry":"POINT(-10316688.432039 4510473.651432)","attributes":{"size":"0.084715176","color":"#8BE01B","unit":"kg","weight":"150447.284","address":"MORGAN, MISSOURI USA","placename":"Morgan, MO 65632, USA","title":"6910 Bushels"}},{"local_stop_id":145,"id":145,"geometry":"POINT(-11101143.336078 5063975.777721)","attributes":{"size":"0.084592578","color":"#8BE01B","unit":"kg","weight":"150229.56","address":"CUSTER, NEBRASKA USA","placename":"Custer, NE, USA","title":"6900 Bushels"}},{"local_stop_id":144,"id":144,"geometry":"POINT(-10914488.513473 4573346.823723)","attributes":{"size":"0.08404088699999999","color":"#8BE01B","unit":"kg","weight":"149249.802","address":"RENO, KANSAS USA","placename":"Reno, KS, USA","title":"6855 Bushels"}},{"local_stop_id":143,"id":143,"geometry":"POINT(-8700335.459237 4675400.225631)","attributes":{"size":"0.08326852","color":"#8BE01B","unit":"kg","weight":"147878.1408","address":"RAPPAHANNOCK, VIRGINIA USA","placename":"Rappahannock, VA, USA","title":"6792 Bushels"}},{"local_stop_id":142,"id":142,"geometry":"POINT(-8725691.757191 4389346.908374)","attributes":{"size":"0.083244","color":"#8BE01B","unit":"kg","weight":"147834.596","address":"MECKLENBURG, VIRGINIA USA","placename":"Mecklenburg, VA, USA","title":"6790 Bushels"}},{"local_stop_id":141,"id":141,"geometry":"POINT(-8536810.121756 5016211.397303)","attributes":{"size":"0.082361295","color":"#8BE01B","unit":"kg","weight":"146266.9832","address":"MONTOUR, PENNSYLVANIA USA","placename":"Montour, PA, USA","title":"6718 Bushels"}},{"local_stop_id":140,"id":140,"geometry":"POINT(-8685095.32001 4360672.457873)","attributes":{"size":"0.082140619","color":"#8BE01B","unit":"kg","weight":"145875.08","address":"WARREN, NORTH CAROLINA USA","placename":"Warren, NC, USA","title":"6700 Bushels"}},{"local_stop_id":139,"id":139,"geometry":"POINT(-11301689.651146 5506875.668226)","attributes":{"size":"0.08158892800000001","color":"#8BE01B","unit":"kg","weight":"144895.322","address":"HAAKON, SOUTH DAKOTA USA","placename":"Haakon, SD, USA","title":"6655 Bushels"}},{"local_stop_id":138,"id":138,"geometry":"POINT(-8700335.459237 5309503.977669)","attributes":{"size":"0.081343732","color":"#8BE01B","unit":"kg","weight":"144459.874","address":"GENESEE, NEW YORK USA","placename":"Genesee, NY, USA","title":"6635 Bushels"}},{"local_stop_id":137,"id":137,"geometry":"POINT(-13640423.598058 5529107.798325)","attributes":{"size":"0.079235048","color":"#8BE01B","unit":"kg","weight":"140715.0212","address":"LINN, OREGON USA","placename":"Linn, OR, USA","title":"6463 Bushels"}},{"local_stop_id":136,"id":136,"geometry":"POINT(-12455654.420894 4977120.440969)","attributes":{"size":"0.079210528","color":"#8BE01B","unit":"kg","weight":"140671.4764","address":"SALT LAKE, UTAH USA","placename":"Salt Lake City, UT, USA","title":"6461 Bushels"}},{"local_stop_id":135,"id":135,"geometry":"POINT(-9963262.384846 5350185.774332)","attributes":{"size":"0.078192965","color":"#8BE01B","unit":"kg","weight":"138864.3672","address":"DANE, WISCONSIN USA","placename":"Dane, WI 53529, USA","title":"6378 Bushels"}},{"local_stop_id":134,"id":134,"geometry":"POINT(-8342544.46349 4774713.564044)","attributes":{"size":"0.07729800000000001","color":"#8BE01B","unit":"kg","weight":"137274.982","address":"CUMBERLAND, NEW JERSEY USA","placename":"Cumberland, NJ 08332, USA","title":"6305 Bushels"}},{"local_stop_id":133,"id":133,"geometry":"POINT(-9862856.300707 5240874.870994)","attributes":{"size":"0.076501114","color":"#8BE01B","unit":"kg","weight":"135859.776","address":"WALWORTH, WISCONSIN USA","placename":"Walworth, WI, USA","title":"6240 Bushels"}},{"local_stop_id":132,"id":132,"geometry":"POINT(-10422562.618621 5583874.736951)","attributes":{"size":"0.075471291","color":"#8BE01B","unit":"kg","weight":"134030.8944","address":"CARVER, MINNESOTA USA","placename":"Carver, MN, USA","title":"6156 Bushels"}},{"local_stop_id":131,"id":131,"geometry":"POINT(-13770359.804269 5941315.531453)","attributes":{"size":"0.073865258","color":"#8BE01B","unit":"kg","weight":"131178.71","address":"GRAYS HARBOR, WASHINGTON USA","placename":"Grays Harbor, WA, USA","title":"6025 Bushels"}},{"local_stop_id":130,"id":130,"geometry":"POINT(-10779634.011784 4560364.472648)","attributes":{"size":"0.073558763","color":"#8BE01B","unit":"kg","weight":"130634.4","address":"BUTLER, KANSAS USA","placename":"Butler, KS, USA","title":"6000 Bushels"}},{"local_stop_id":129,"id":129,"geometry":"POINT(-9427619.78975 4881307.995753)","attributes":{"size":"0.073313567","color":"#8BE01B","unit":"kg","weight":"130198.952","address":"DARKE, OHIO USA","placename":"Darke, OH, USA","title":"5980 Bushels"}},{"local_stop_id":128,"id":128,"geometry":"POINT(-9161791.43948 4932951.337888)","attributes":{"size":"0.072884474","color":"#8BE01B","unit":"kg","weight":"129436.918","address":"KNOX, OHIO USA","placename":"Knox, OH, USA","title":"5945 Bushels"}},{"local_stop_id":127,"id":127,"geometry":"POINT(-8737933.116315 5174480.26145)","attributes":{"size":"0.071719794","color":"#8BE01B","unit":"kg","weight":"127368.54","address":"ALLEGANY, NEW YORK USA","placename":"Allegany, NY, USA","title":"5850 Bushels"}},{"local_stop_id":126,"id":126,"geometry":"POINT(-10219363.816122 5287942.163506)","attributes":{"size":"0.071106804","color":"#8BE01B","unit":"kg","weight":"126279.92","address":"FAYETTE, IOWA USA","placename":"Fayette, IA 52142, USA","title":"5800 Bushels"}},{"local_stop_id":125,"id":125,"geometry":"POINT(-10412913.211388 5571817.372833)","attributes":{"size":"0.070677712","color":"#8BE01B","unit":"kg","weight":"125517.886","address":"SCOTT, MINNESOTA USA","placename":"Scott, MN, USA","title":"5765 Bushels"}},{"local_stop_id":124,"id":124,"geometry":"POINT(-12478395.022508 5006868.676499)","attributes":{"size":"0.0701628","color":"#8BE01B","unit":"kg","weight":"124603.4452","address":"DAVIS, UTAH USA","placename":"Davis, UT, USA","title":"5723 Bushels"}},{"local_stop_id":123,"id":123,"geometry":"POINT(-9490921.718377 5671733.78551)","attributes":{"size":"0.068213493","color":"#8BE01B","unit":"kg","weight":"121141.6336","address":"CHARLEVOIX, MICHIGAN USA","placename":"Charlevoix, MI 49720, USA","title":"5564 Bushels"}},{"local_stop_id":122,"id":122,"geometry":"POINT(-9828989.327121 4406370.295979)","attributes":{"size":"0.067490165","color":"#8BE01B","unit":"kg","weight":"119857.062","address":"HARDIN, KENTUCKY USA","placename":"Hardin, KY, USA","title":"5505 Bushels"}},{"local_stop_id":121,"id":121,"geometry":"POINT(-10684807.371844 4828970.865924)","attributes":{"size":"0.067428866","color":"#8BE01B","unit":"kg","weight":"119748.2","address":"NEMAHA, KANSAS USA","placename":"Nemaha, KS, USA","title":"5500 Bushels"}},{"local_stop_id":120,"id":120,"geometry":"POINT(-9163622.088506 4992989.407065)","attributes":{"size":"0.06650938200000001","color":"#8BE01B","unit":"kg","weight":"118115.27","address":"ASHLAND, OHIO USA","placename":"Ashland, OH 44805, USA","title":"5425 Bushels"}},{"local_stop_id":119,"id":119,"geometry":"POINT(-9044918.27495 4992959.980462)","attributes":{"size":"0.06644808300000001","color":"#8BE01B","unit":"kg","weight":"118006.408","address":"STARK, OHIO USA","placename":"Stark, OH, USA","title":"5420 Bushels"}},{"local_stop_id":118,"id":118,"geometry":"POINT(-9874606.974649 5373905.89515)","attributes":{"size":"0.066202887","color":"#8BE01B","unit":"kg","weight":"117570.96","address":"JUNEAU, WISCONSIN USA","placename":"Juneau, WI 53039, USA","title":"5400 Bushels"}},{"local_stop_id":117,"id":117,"geometry":"POINT(-10415508.836823 5429268.895572)","attributes":{"size":"0.065786054","color":"#8BE01B","unit":"kg","weight":"116830.6984","address":"FREEBORN, MINNESOTA USA","placename":"Freeborn, MN, USA","title":"5366 Bushels"}},{"local_stop_id":116,"id":116,"geometry":"POINT(-12030181.397384 4684811.807056)","attributes":{"size":"0.06546729900000001","color":"#8BE01B","unit":"kg","weight":"116264.616","address":"DELTA, COLORADO USA","placename":"Delta, CO, USA","title":"5340 Bushels"}},{"local_stop_id":115,"id":115,"geometry":"POINT(-9902994.513468 5441355.334984)","attributes":{"size":"0.063137938","color":"#8BE01B","unit":"kg","weight":"112127.86","address":"GREEN LAKE, WISCONSIN USA","placename":"Green Lake, WI, USA","title":"5150 Bushels"}},{"local_stop_id":114,"id":114,"geometry":"POINT(-8644360.601758 5061612.578625)","attributes":{"size":"0.06246365","color":"#8BE01B","unit":"kg","weight":"110930.378","address":"CLINTON, PENNSYLVANIA USA","placename":"Clinton, PA, USA","title":"5095 Bushels"}},{"local_stop_id":113,"id":113,"geometry":"POINT(-10117138.136983 5875802.246572)","attributes":{"size":"0.061544165","color":"#8BE01B","unit":"kg","weight":"109297.448","address":"ASHLAND, WISCONSIN USA","placename":"Ashland, WI, USA","title":"5020 Bushels"}},{"local_stop_id":112,"id":112,"geometry":"POINT(-10111082.579322 5349972.954192)","attributes":{"size":"0.061323489","color":"#8BE01B","unit":"kg","weight":"108905.5448","address":"CRAWFORD, WISCONSIN USA","placename":"Crawford, WI, USA","title":"5002 Bushels"}},{"local_stop_id":111,"id":111,"geometry":"POINT(-11382951.36548 5448452.341288)","attributes":{"size":"0.061298969","color":"#8BE01B","unit":"kg","weight":"108862","address":"PENNINGTON, SOUTH DAKOTA USA","placename":"Pennington, SD, USA","title":"5000 Bushels"}},{"local_stop_id":110,"id":110,"geometry":"POINT(-8725691.757191 4152981.48197)","attributes":{"size":"0.059987171","color":"#8BE01B","unit":"kg","weight":"106532.3532","address":"SAMPSON, NORTH CAROLINA USA","placename":"Sampson, NC, USA","title":"4893 Bushels"}},{"local_stop_id":109,"id":109,"geometry":"POINT(-10214419.204716 5836454.386976)","attributes":{"size":"0.05946","color":"#8BE01B","unit":"kg","weight":"105596.14","address":"DOUGLAS, WISCONSIN USA","placename":"Douglas, WI, USA","title":"4850 Bushels"}},{"local_stop_id":108,"id":108,"geometry":"POINT(-9958933.325696 5394399.157105)","attributes":{"size":"0.058724413","color":"#8BE01B","unit":"kg","weight":"104289.796","address":"PORTAGE, WISCONSIN USA","placename":"Portage, WI, USA","title":"4790 Bushels"}},{"local_stop_id":107,"id":107,"geometry":"POINT(-10986654.312215 4784736.552376)","attributes":{"size":"0.058246281","color":"#8BE01B","unit":"kg","weight":"103440.6724","address":"OSBORNE, KANSAS USA","placename":"Osborne, KS 67473, USA","title":"4751 Bushels"}},{"local_stop_id":106,"id":106,"geometry":"POINT(-9371510.536249 5304327.017877)","attributes":{"size":"0.057988825","color":"#8BE01B","unit":"kg","weight":"102983.452","address":"SHIAWASSEE, MICHIGAN USA","placename":"Shiawassee, MI, USA","title":"4730 Bushels"}},{"local_stop_id":105,"id":105,"geometry":"POINT(-9292608.783988 5669536.463383)","attributes":{"size":"0.057645551","color":"#8BE01B","unit":"kg","weight":"102373.8248","address":"PRESQUE ISLE, MICHIGAN USA","placename":"Presque Isle, MI 49777, USA","title":"4702 Bushels"}},{"local_stop_id":104,"id":104,"geometry":"POINT(-8710484.61306 4558720.769243)","attributes":{"size":"0.055046474","color":"#8BE01B","unit":"kg","weight":"97758.076","address":"FLUVANNA, VIRGINIA USA","placename":"Fluvanna, VA, USA","title":"4490 Bushels"}},{"local_stop_id":103,"id":103,"geometry":"POINT(-9755000.705113 5637275.820545)","attributes":{"size":"0.054433485","color":"#8BE01B","unit":"kg","weight":"96669.45600000001","address":"MARINETTE, WISCONSIN USA","placename":"Marinette, WI, USA","title":"4440 Bushels"}},{"local_stop_id":102,"id":102,"geometry":"POINT(-9288396.376533 4798807.50736)","attributes":{"size":"0.054249588","color":"#8BE01B","unit":"kg","weight":"96342.87","address":"WASHINGTON, OHIO USA","placename":"Washington Court House, OH 43160, USA","title":"4425 Bushels"}},{"local_stop_id":101,"id":101,"geometry":"POINT(-8951244.30381 4468003.576931)","attributes":{"size":"0.053808235","color":"#8BE01B","unit":"kg","weight":"95559.06359999999","address":"MONTGOMERY, VIRGINIA USA","placename":"Montgomery, VA, USA","title":"4389 Bushels"}},{"local_stop_id":100,"id":100,"geometry":"POINT(-8293355.452927 4958542.227969)","attributes":{"size":"0.053697897","color":"#8BE01B","unit":"kg","weight":"95363.11199999999","address":"WARREN, NEW JERSEY USA","placename":"Warren, NJ, USA","title":"4380 Bushels"}},{"local_stop_id":99,"id":99,"geometry":"POINT(-10499144.750993 4433790.418863)","attributes":{"size":"0.053636598","color":"#8BE01B","unit":"kg","weight":"95254.25","address":"NEWTON, MISSOURI USA","placename":"Newton, MO, USA","title":"4375 Bushels"}},{"local_stop_id":98,"id":98,"geometry":"POINT(-10415982.757291 6032445.422578)","attributes":{"size":"0.052226722","color":"#8BE01B","unit":"kg","weight":"92750.424","address":"ITASCA, MINNESOTA USA","placename":"Itasca, MN, USA","title":"4260 Bushels"}},{"local_stop_id":97,"id":97,"geometry":"POINT(-9885986.453748 5312818.082599)","attributes":{"size":"0.051049782","color":"#8BE01B","unit":"kg","weight":"90660.2736","address":"JEFFERSON, WISCONSIN USA","placename":"Jefferson, WI 53549, USA","title":"4164 Bushels"}},{"local_stop_id":96,"id":96,"geometry":"POINT(-10261912.50774 4937719.531394)","attributes":{"size":"0.050878145","color":"#8BE01B","unit":"kg","weight":"90355.46000000001","address":"SCOTLAND, MISSOURI USA","placename":"Scotland, MO, USA","title":"4150 Bushels"}},{"local_stop_id":95,"id":95,"geometry":"POINT(-8517109.599776 5381538.999581)","attributes":{"size":"0.050265155","color":"#8BE01B","unit":"kg","weight":"89266.84","address":"OSWEGO, NEW YORK USA","placename":"Oswego, NY, USA","title":"4100 Bushels"}},{"local_stop_id":94,"id":94,"geometry":"POINT(-8744765.027236 4516069.973008)","attributes":{"size":"0.049652165","color":"#8BE01B","unit":"kg","weight":"88178.22","address":"BUCKINGHAM, VIRGINIA USA","placename":"Buckingham, 4, VA 23921, USA","title":"4050 Bushels"}},{"local_stop_id":93,"id":93,"geometry":"POINT(-11430898.339957 5534024.411418)","attributes":{"size":"0.049590866","color":"#8BE01B","unit":"kg","weight":"88069.35799999999","address":"MEADE, SOUTH DAKOTA USA","placename":"Meade, SD, USA","title":"4045 Bushels"}},{"local_stop_id":92,"id":92,"geometry":"POINT(-8500771.371696 5179817.080266)","attributes":{"size":"0.048916577","color":"#8BE01B","unit":"kg","weight":"86871.876","address":"TIOGA, NEW YORK USA","placename":"Tioga, NY, USA","title":"3990 Bushels"}},{"local_stop_id":91,"id":91,"geometry":"POINT(-9333838.90737 5207175.802704)","attributes":{"size":"0.048303588","color":"#8BE01B","unit":"kg","weight":"85783.25599999999","address":"WASHTENAW, MICHIGAN USA","placename":"Washtenaw, MI, USA","title":"3940 Bushels"}},{"local_stop_id":90,"id":90,"geometry":"POINT(-10283846.187761 5323008.530322)","attributes":{"size":"0.047813196","color":"#8BE01B","unit":"kg","weight":"84912.36","address":"CHICKASAW, IOWA USA","placename":"Chickasaw, IA, USA","title":"3900 Bushels"}},{"local_stop_id":89,"id":89,"geometry":"POINT(-8340153.899689 4948675.424687)","attributes":{"size":"0.047200206","color":"#8BE01B","unit":"kg","weight":"83823.74000000001","address":"HUNTERDON, NEW JERSEY USA","placename":"Hunterdon, NJ, USA","title":"3850 Bushels"}},{"local_stop_id":88,"id":88,"geometry":"POINT(-9308288.468225 5329111.200872)","attributes":{"size":"0.046587217","color":"#8BE01B","unit":"kg","weight":"82735.12","address":"GENESEE, MICHIGAN USA","placename":"Genesee, MI, USA","title":"3800 Bushels"}},{"local_stop_id":87,"id":87,"geometry":"POINT(-10817919.690106 4414526.175769)","attributes":{"size":"0.045729031","color":"#8BE01B","unit":"kg","weight":"81211.052","address":"KAY, OKLAHOMA USA","placename":"Kay, OK, USA","title":"3730 Bushels"}},{"local_stop_id":86,"id":86,"geometry":"POINT(-9501671.240478 5453955.589626)","attributes":{"size":"0.044748248","color":"#8BE01B","unit":"kg","weight":"79469.25999999999","address":"OSCEOLA, MICHIGAN USA","placename":"Osceola, MI, USA","title":"3650 Bushels"}},{"local_stop_id":85,"id":85,"geometry":"POINT(-10609888.553039 4762256.577922)","attributes":{"size":"0.044049439","color":"#8BE01B","unit":"kg","weight":"78228.2332","address":"JEFFERSON, KANSAS USA","placename":"Jefferson, KS, USA","title":"3593 Bushels"}},{"local_stop_id":84,"id":84,"geometry":"POINT(-9464755.58226 5192096.337983)","attributes":{"size":"0.04401266","color":"#8BE01B","unit":"kg","weight":"78162.916","address":"CALHOUN, MICHIGAN USA","placename":"Calhoun, MI, USA","title":"3590 Bushels"}},{"local_stop_id":83,"id":83,"geometry":"POINT(-9998514.261954 5458648.285169)","attributes":{"size":"0.042480186","color":"#8BE01B","unit":"kg","weight":"75441.36599999999","address":"ADAMS, WISCONSIN USA","placename":"Adams, WI, USA","title":"3465 Bushels"}},{"local_stop_id":82,"id":82,"geometry":"POINT(-10305874.767648 4662073.665355)","attributes":{"size":"0.042418887","color":"#8BE01B","unit":"kg","weight":"75332.504","address":"MONITEAU, MISSOURI USA","placename":"Moniteau, MO, USA","title":"3460 Bushels"}},{"local_stop_id":81,"id":81,"geometry":"POINT(-10488894.5636 5740545.760449)","attributes":{"size":"0.042394367","color":"#8BE01B","unit":"kg","weight":"75288.9592","address":"RICE, MINNESOTA USA","placename":"Rice, MN 56367, USA","title":"3458 Bushels"}},{"local_stop_id":80,"id":80,"geometry":"POINT(-9390267.135739 5258379.070735)","attributes":{"size":"0.041928495","color":"#8BE01B","unit":"kg","weight":"74461.60799999999","address":"INGHAM, MICHIGAN USA","placename":"Ingham, MI, USA","title":"3420 Bushels"}},{"local_stop_id":79,"id":79,"geometry":"POINT(-8603397.032897 4470101.418529)","attributes":{"size":"0.041622","color":"#8BE01B","unit":"kg","weight":"73917.298","address":"PRINCE GEORGE, VIRGINIA USA","placename":"Prince George, Bland, VA 23875, USA","title":"3395 Bushels"}},{"local_stop_id":78,"id":78,"geometry":"POINT(-10705563.959569 4672532.605858)","attributes":{"size":"0.04045732","color":"#8BE01B","unit":"kg","weight":"71848.92","address":"ALLEN, KANSAS USA","placename":"Allen, KS, USA","title":"3300 Bushels"}},{"local_stop_id":77,"id":77,"geometry":"POINT(-11022064.786201 5542313.965617)","attributes":{"size":"0.040114046","color":"#8BE01B","unit":"kg","weight":"71239.2928","address":"HAND, SOUTH DAKOTA USA","placename":"Hand, SD, USA","title":"3272 Bushels"}},{"local_stop_id":76,"id":76,"geometry":"POINT(-9909430.995294 5255088.882062)","attributes":{"size":"0.03923134","color":"#8BE01B","unit":"kg","weight":"69671.67999999999","address":"ROCK, WISCONSIN USA","placename":"Rock, WI, USA","title":"3200 Bushels"}},{"local_stop_id":75,"id":75,"geometry":"POINT(-9421025.289907 5149010.416203)","attributes":{"size":"0.038986144","color":"#8BE01B","unit":"kg","weight":"69236.232","address":"HILLSDALE, MICHIGAN USA","placename":"Hillsdale, MI, USA","title":"3180 Bushels"}},{"local_stop_id":74,"id":74,"geometry":"POINT(-10992590.067839 3924542.981516)","attributes":{"size":"0.038973885","color":"#8BE01B","unit":"kg","weight":"69214.4596","address":"YOUNG, TEXAS USA","placename":"Young, TX, USA","title":"3179 Bushels"}},{"local_stop_id":73,"id":73,"geometry":"POINT(-10703669.435419 5372355.827948)","attributes":{"size":"0.038557052","color":"#8BE01B","unit":"kg","weight":"68474.198","address":"LYON, IOWA USA","placename":"Lyon, IA, USA","title":"3145 Bushels"}},{"local_stop_id":72,"id":72,"geometry":"POINT(-8866620.874437 4784493.564511)","attributes":{"size":"0.037220734","color":"#8BE01B","unit":"kg","weight":"66101.0064","address":"PRESTON, WEST VIRGINIA USA","placename":"Preston, WV, USA","title":"3036 Bushels"}},{"local_stop_id":71,"id":71,"geometry":"POINT(-8518802.034522 4523635.837751)","attributes":{"size":"0.036779382","color":"#8BE01B","unit":"kg","weight":"65317.2","address":"MIDDLESEX, VIRGINIA USA","placename":"Middlesex, VA, USA","title":"3000 Bushels"}},{"local_stop_id":70,"id":70,"geometry":"POINT(-10799910.311566 4628753.438493)","attributes":{"size":"0.036595485","color":"#8BE01B","unit":"kg","weight":"64990.614","address":"MARION, KANSAS USA","placename":"Marion, KS 66861, USA","title":"2985 Bushels"}},{"local_stop_id":69,"id":69,"geometry":"POINT(-10817919.690106 5245393.401321)","attributes":{"size":"0.036534186","color":"#8BE01B","unit":"kg","weight":"64881.752","address":"CEDAR, NEBRASKA USA","placename":"Cedar, NE, USA","title":"2980 Bushels"}},{"local_stop_id":68,"id":68,"geometry":"POINT(-10168525.796545 5232440.335199)","attributes":{"size":"0.034437761","color":"#8BE01B","unit":"kg","weight":"61158.6716","address":"DELAWARE, IOWA USA","placename":"Delaware, IA, USA","title":"2809 Bushels"}},{"local_stop_id":67,"id":67,"geometry":"POINT(-9079177.894645 4420833.843888)","attributes":{"size":"0.033837031","color":"#8BE01B","unit":"kg","weight":"60091.824","address":"SMYTH, VIRGINIA USA","placename":"Smyth, VA, USA","title":"2760 Bushels"}},{"local_stop_id":66,"id":66,"geometry":"POINT(-8557362.594064 5218018.787942)","attributes":{"size":"0.033469237","color":"#8BE01B","unit":"kg","weight":"59438.652","address":"SCHUYLER, NEW YORK USA","placename":"Schuyler, NY, USA","title":"2730 Bushels"}},{"local_stop_id":65,"id":65,"geometry":"POINT(-9113030.674997 5032775.296692)","attributes":{"size":"0.032856248","color":"#8BE01B","unit":"kg","weight":"58350.032","address":"MEDINA, OHIO USA","placename":"Medina, OH 44256, USA","title":"2680 Bushels"}},{"local_stop_id":64,"id":64,"geometry":"POINT(-9030193.40025 4428242.418396)","attributes":{"size":"0.032647831","color":"#8BE01B","unit":"kg","weight":"57979.9012","address":"WYTHE, VIRGINIA USA","placename":"Wythe, VA, USA","title":"2663 Bushels"}},{"local_stop_id":63,"id":63,"geometry":"POINT(-8745936.598085 4769757.563061)","attributes":{"size":"0.032083881","color":"#8BE01B","unit":"kg","weight":"56978.3708","address":"HAMPSHIRE, WEST VIRGINIA USA","placename":"Hampshire, WV, USA","title":"2617 Bushels"}},{"local_stop_id":62,"id":62,"geometry":"POINT(-10479635.77646 5876345.898644)","attributes":{"size":"0.030894681","color":"#8BE01B","unit":"kg","weight":"54866.448","address":"CROW WING, MINNESOTA USA","placename":"Crow Wing, MN, USA","title":"2520 Bushels"}},{"local_stop_id":61,"id":61,"geometry":"POINT(-8376558.590312 4925818.900634)","attributes":{"size":"0.030649485","color":"#8BE01B","unit":"kg","weight":"54431","address":"BUCKS, PENNSYLVANIA USA","placename":"Bucks, PA, USA","title":"2500 Bushels"}},{"local_stop_id":60,"id":60,"geometry":"POINT(-9064512.186254 4876572.541916)","attributes":{"size":"0.030036495","color":"#8BE01B","unit":"kg","weight":"53342.38","address":"GUERNSEY, OHIO USA","placename":"Guernsey, OH, USA","title":"2450 Bushels"}},{"local_stop_id":59,"id":59,"geometry":"POINT(-9189999.854106 5070787.076317)","attributes":{"size":"0.029423505","color":"#8BE01B","unit":"kg","weight":"52253.76","address":"HURON, OHIO USA","placename":"Huron, OH 44839, USA","title":"2400 Bushels"}},{"local_stop_id":58,"id":58,"geometry":"POINT(-8188596.375948 5216245.756535)","attributes":{"size":"0.028884074","color":"#8BE01B","unit":"kg","weight":"51295.7744","address":"COLUMBIA, NEW YORK USA","placename":"Columbia, NY, USA","title":"2356 Bushels"}},{"local_stop_id":57,"id":57,"geometry":"POINT(-9281990.897185 4188684.99439)","attributes":{"size":"0.02856532","color":"#8BE01B","unit":"kg","weight":"50729.692","address":"FRANKLIN, NORTH CAROLINA USA","placename":"Franklin, NC 28734, USA","title":"2330 Bushels"}},{"local_stop_id":56,"id":56,"geometry":"POINT(-8572756.843994 5342769.389887)","attributes":{"size":"0.028283344","color":"#8BE01B","unit":"kg","weight":"50228.9268","address":"WAYNE, NEW YORK USA","placename":"Wayne, NY, USA","title":"2307 Bushels"}},{"local_stop_id":55,"id":55,"geometry":"POINT(-10118374.818602 5888905.892471)","attributes":{"size":"0.026603753","color":"#8BE01B","unit":"kg","weight":"47246.108","address":"WASHBURN, WISCONSIN USA","placename":"Washburn, WI, USA","title":"2170 Bushels"}},{"local_stop_id":54,"id":54,"geometry":"POINT(-8856616.981418 5195687.709008)","attributes":{"size":"0.025917204","color":"#8BE01B","unit":"kg","weight":"46026.8536","address":"CHAUTAUQUA, NEW YORK USA","placename":"Chautauqua, NY, USA","title":"2114 Bushels"}},{"local_stop_id":53,"id":53,"geometry":"POINT(-10231365.916265 5348002.615938)","attributes":{"size":"0.025009979","color":"#8BE01B","unit":"kg","weight":"44415.696","address":"WINNESHIEK, IOWA USA","placename":"Winneshiek, IA, USA","title":"2040 Bushels"}},{"local_stop_id":52,"id":52,"geometry":"POINT(-8583009.947957 5052544.823632)","attributes":{"size":"0.024617666","color":"#8BE01B","unit":"kg","weight":"43718.9792","address":"LYCOMING, PENNSYLVANIA USA","placename":"Lycoming, PA, USA","title":"2008 Bushels"}},{"local_stop_id":51,"id":51,"geometry":"POINT(-8705411.12708 5374413.391528)","attributes":{"size":"0.024519588","color":"#8BE01B","unit":"kg","weight":"43544.8","address":"ORLEANS, NEW YORK USA","placename":"Orleans, NY, USA","title":"2000 Bushels"}},{"local_stop_id":50,"id":50,"geometry":"POINT(-10372523.717141 5461706.031272)","attributes":{"size":"0.023293608","color":"#8BE01B","unit":"kg","weight":"41367.56","address":"STEELE, MINNESOTA USA","placename":"Steele, MN, USA","title":"1900 Bushels"}},{"local_stop_id":49,"id":49,"geometry":"POINT(-9664984.625648 4630111.741324)","attributes":{"size":"0.023048412","color":"#8BE01B","unit":"kg","weight":"40932.112","address":"DUBOIS, INDIANA USA","placename":"Dubois, IN, USA","title":"1880 Bushels"}},{"local_stop_id":48,"id":48,"geometry":"POINT(-8991253.742183 5121912.938523)","attributes":{"size":"0.022864516","color":"#8BE01B","unit":"kg","weight":"40605.526","address":"JEFFERSON, OHIO USA","placename":"Jefferson, OH 44047, USA","title":"1865 Bushels"}},{"local_stop_id":47,"id":47,"geometry":"POINT(-8932962.938358 4891253.967937)","attributes":{"size":"0.022312825","color":"#8BE01B","unit":"kg","weight":"39625.768","address":"WASHINGTON, PENNSYLVANIA USA","placename":"Washington, PA 15301, USA","title":"1820 Bushels"}},{"local_stop_id":46,"id":46,"geometry":"POINT(-8654556.977309 5401911.031742)","attributes":{"size":"0.022067629","color":"#8BE01B","unit":"kg","weight":"39190.32","address":"ONTARIO, NEW YORK USA","placename":"Lake Ontario","title":"1800 Bushels"}},{"local_stop_id":45,"id":45,"geometry":"POINT(-9206233.386206 4836769.514806)","attributes":{"size":"0.021086845","color":"#8BE01B","unit":"kg","weight":"37448.528","address":"CARROLL, OHIO USA","placename":"Carroll, OH 43112, USA","title":"1720 Bushels"}},{"local_stop_id":44,"id":44,"geometry":"POINT(-9454267.827942 4987387.661823)","attributes":{"size":"0.02084165","color":"#8BE01B","unit":"kg","weight":"37013.08","address":"DECATUR, INDIANA USA","placename":"Decatur, IN 46733, USA","title":"1700 Bushels"}},{"local_stop_id":43,"id":43,"geometry":"POINT(-9520045.524309 5313448.81345)","attributes":{"size":"0.020596454","color":"#8BE01B","unit":"kg","weight":"36577.632","address":"KENT, MICHIGAN USA","placename":"Kent, MI, USA","title":"1680 Bushels"}},{"local_stop_id":42,"id":42,"geometry":"POINT(-8731810.42187 5016366.231681)","attributes":{"size":"0.019554371","color":"#8BE01B","unit":"kg","weight":"34726.978","address":"CLEARFIELD, PENNSYLVANIA USA","placename":"Clearfield, PA 16830, USA","title":"1595 Bushels"}},{"local_stop_id":41,"id":41,"geometry":"POINT(-8636939.098286 4449953.589487)","attributes":{"size":"0.019247876","color":"#8BE01B","unit":"kg","weight":"34182.668","address":"DINWIDDIE, VIRGINIA USA","placename":"Dinwiddie, 4, VA 23841, USA","title":"1570 Bushels"}},{"local_stop_id":40,"id":40,"geometry":"POINT(-9642582.713585 5052479.832014)","attributes":{"size":"0.019125278","color":"#8BE01B","unit":"kg","weight":"33964.944","address":"STARKE, INDIANA USA","placename":"Starke, IN, USA","title":"1560 Bushels"}},{"local_stop_id":39,"id":39,"geometry":"POINT(-8710178.684836 4508525.120194)","attributes":{"size":"0.018696186","color":"#8BE01B","unit":"kg","weight":"33202.91","address":"CUMBERLAND, VIRGINIA USA","placename":"Cumberland, 3, VA 23040, USA","title":"1525 Bushels"}},{"local_stop_id":38,"id":38,"geometry":"POINT(-9291209.509121 4306372.103695)","attributes":{"size":"0.018634887","color":"#8BE01B","unit":"kg","weight":"33094.048","address":"JEFFERSON, TENNESSEE USA","placename":"Jefferson, TN, USA","title":"1520 Bushels"}},{"local_stop_id":37,"id":37,"geometry":"POINT(-10039566.953199 4618241.280215)","attributes":{"size":"0.01841421","color":"#8BE01B","unit":"kg","weight":"32702.1448","address":"MONROE, ILLINOIS USA","placename":"Monroe, IL, USA","title":"1502 Bushels"}},{"local_stop_id":36,"id":36,"geometry":"POINT(-10921964.162746 4529516.26589)","attributes":{"size":"0.018144495","color":"#8BE01B","unit":"kg","weight":"32223.152","address":"KINGMAN, KANSAS USA","placename":"Kingman, KS 67068, USA","title":"1480 Bushels"}},{"local_stop_id":35,"id":35,"geometry":"POINT(-9404983.10488 5462479.912857)","attributes":{"size":"0.017899299","color":"#8BE01B","unit":"kg","weight":"31787.704","address":"GLADWIN, MICHIGAN USA","placename":"Gladwin, MI, USA","title":"1460 Bushels"}},{"local_stop_id":34,"id":34,"geometry":"POINT(-10043741.634479 5208264.327005)","attributes":{"size":"0.017654103","color":"#8BE01B","unit":"kg","weight":"31352.256","address":"JO DAVIESS, ILLINOIS USA","placename":"Jo Daviess, IL, USA","title":"1440 Bushels"}},{"local_stop_id":33,"id":33,"geometry":"POINT(-9508537.615913 5107460.565895)","attributes":{"size":"0.017139192","color":"#8BE01B","unit":"kg","weight":"30437.8152","address":"LAGRANGE, INDIANA USA","placename":"LaGrange, IN 46761, USA","title":"1398 Bushels"}},{"local_stop_id":32,"id":32,"geometry":"POINT(-9850692.664851 5824659.520494)","attributes":{"size":"0.016918516","color":"#8BE01B","unit":"kg","weight":"30045.912","address":"IRON, MICHIGAN USA","placename":"Iron, MI, USA","title":"1380 Bushels"}},{"local_stop_id":31,"id":31,"geometry":"POINT(-10623928.300802 5708086.339083)","attributes":{"size":"0.016587501","color":"#8BE01B","unit":"kg","weight":"29458.0572","address":"POPE, MINNESOTA USA","placename":"Pope, MN, USA","title":"1353 Bushels"}},{"local_stop_id":30,"id":30,"geometry":"POINT(-9427619.78975 5355246.488959)","attributes":{"size":"0.016182928","color":"#8BE01B","unit":"kg","weight":"28739.568","address":"GRATIOT, MICHIGAN USA","placename":"Gratiot, MI, USA","title":"1320 Bushels"}},{"local_stop_id":29,"id":29,"geometry":"POINT(-8755184.776477 5154464.877027)","attributes":{"size":"0.015337002","color":"#8BE01B","unit":"kg","weight":"27237.2724","address":"BRADFORD, PENNSYLVANIA USA","placename":"Bradford, PA 16701, USA","title":"1251 Bushels"}},{"local_stop_id":28,"id":28,"geometry":"POINT(-8781277.152299 4780125.066973)","attributes":{"size":"0.014711753","color":"#8BE01B","unit":"kg","weight":"26126.88","address":"MINERAL, WEST VIRGINIA USA","placename":"Mineral, WV, USA","title":"1200 Bushels"}},{"local_stop_id":27,"id":27,"geometry":"POINT(-9182992.16971 5285077.769206)","attributes":{"size":"0.013730969","color":"#8BE01B","unit":"kg","weight":"24385.088","address":"ST CLAIR, MICHIGAN USA","placename":"St Clair, MI, USA","title":"1120 Bushels"}},{"local_stop_id":26,"id":26,"geometry":"POINT(-9243540.555072 4731896.591318)","attributes":{"size":"0.012750186","color":"#8BE01B","unit":"kg","weight":"22643.296","address":"PIKE, OHIO USA","placename":"Pike, OH, USA","title":"1040 Bushels"}},{"local_stop_id":25,"id":25,"geometry":"POINT(-9010521.420587 4034337.738672)","attributes":{"size":"0.01250499","color":"#8BE01B","unit":"kg","weight":"22207.848","address":"RICHLAND, SOUTH CAROLINA USA","placename":"Richland, SC, USA","title":"1020 Bushels"}},{"local_stop_id":24,"id":24,"geometry":"POINT(-8982811.015967 4995893.582941)","attributes":{"size":"0.012443691","color":"#8BE01B","unit":"kg","weight":"22098.986","address":"COLUMBIANA, OHIO USA","placename":"Columbiana, OH, USA","title":"1015 Bushels"}},{"local_stop_id":23,"id":23,"geometry":"POINT(-8202174.693289 5129076.524682)","attributes":{"size":"0.012406911","color":"#8BE01B","unit":"kg","weight":"22033.6688","address":"WASHINGTON, NEW YORK USA","placename":"Washington, NY 12545, USA","title":"1012 Bushels"}},{"local_stop_id":22,"id":22,"geometry":"POINT(-11113928.680158 5010052.441907)","attributes":{"size":"0.012259794","color":"#8BE01B","unit":"kg","weight":"21772.4","address":"BUFFALO, NEBRASKA USA","placename":"Buffalo, Gillan, NE 68850, USA","title":"1000 Bushels"}},{"local_stop_id":21,"id":21,"geometry":"POINT(-8710484.61306 4794605.867607)","attributes":{"size":"0.012014598","color":"#8BE01B","unit":"kg","weight":"21336.952","address":"MORGAN, WEST VIRGINIA USA","placename":"Morgan, WV, USA","title":"980 Bushels"}},{"local_stop_id":20,"id":20,"geometry":"POINT(-9395241.346998 4664931.598723)","attributes":{"size":"0.011156412","color":"#8BE01B","unit":"kg","weight":"19812.884","address":"MORGAN, KENTUCKY USA","placename":"Morgan, KY 41040, USA","title":"910 Bushels"}},{"local_stop_id":19,"id":19,"geometry":"POINT(-9470073.470183 5310032.08349)","attributes":{"size":"0.011033814","color":"#8BE01B","unit":"kg","weight":"19595.16","address":"IONIA, MICHIGAN USA","placename":"Ionia, MI 48846, USA","title":"900 Bushels"}},{"local_stop_id":18,"id":18,"geometry":"POINT(-9483241.129922 5358624.082511)","attributes":{"size":"0.010543423","color":"#8BE01B","unit":"kg","weight":"18724.264","address":"MONTCALM, MICHIGAN USA","placename":"Montcalm, MI, USA","title":"860 Bushels"}},{"local_stop_id":17,"id":17,"geometry":"POINT(-8779555.652034 5210424.600185)","attributes":{"size":"0.010053031","color":"#8BE01B","unit":"kg","weight":"17853.368","address":"CATTARAUGUS, NEW YORK USA","placename":"Cattaraugus, NY 14719, USA","title":"820 Bushels"}},{"local_stop_id":16,"id":16,"geometry":"POINT(-9487362.032756 5406870.358682)","attributes":{"size":"0.009807835000000001","color":"#8BE01B","unit":"kg","weight":"17417.92","address":"MECOSTA, MICHIGAN USA","placename":"Mecosta, MI 49332, USA","title":"800 Bushels"}},{"local_stop_id":15,"id":15,"geometry":"POINT(-7597972.282849 5547695.651161)","attributes":{"size":"0.009194845","color":"#8BE01B","unit":"kg","weight":"16329.3","address":"HANCOCK, MAINE USA","placename":"Hancock, ME, USA","title":"750 Bushels"}},{"local_stop_id":14,"id":14,"geometry":"POINT(-8796152.464159 4326816.947825)","attributes":{"size":"0.009072247","color":"#8BE01B","unit":"kg","weight":"16111.576","address":"CALDWELL, NORTH CAROLINA USA","placename":"Caldwell, NC 27572, USA","title":"740 Bushels"}},{"local_stop_id":13,"id":13,"geometry":"POINT(-10817919.690106 5363187.21027)","attributes":{"size":"0.008986429000000001","color":"#8BE01B","unit":"kg","weight":"15959.1692","address":"TURNER, SOUTH DAKOTA USA","placename":"Turner, SD, USA","title":"733 Bushels"}},{"local_stop_id":12,"id":12,"geometry":"POINT(-9040012.770082 5081046.944304)","attributes":{"size":"0.008091464","color":"#8BE01B","unit":"kg","weight":"14369.784","address":"GEAUGA, OHIO USA","placename":"Geauga, OH, USA","title":"660 Bushels"}},{"local_stop_id":11,"id":11,"geometry":"POINT(-9311960.764643 5060652.726124)","attributes":{"size":"0.007944346","color":"#8BE01B","unit":"kg","weight":"14108.5152","address":"PORTAGE, OHIO USA","placename":"Portage, OH, USA","title":"648 Bushels"}},{"local_stop_id":10,"id":10,"geometry":"POINT(-8926432.391562 4317145.815924)","attributes":{"size":"0.007355876","color":"#8BE01B","unit":"kg","weight":"13063.44","address":"FORSYTH, NORTH CAROLINA USA","placename":"Forsyth, NC, USA","title":"600 Bushels"}},{"local_stop_id":9,"id":9,"geometry":"POINT(-10703669.435419 4637196.061091)","attributes":{"size":"0.006620289","color":"#8BE01B","unit":"kg","weight":"11757.096","address":"LYON, KANSAS USA","placename":"Lyon, KS, USA","title":"540 Bushels"}},{"local_stop_id":8,"id":8,"geometry":"POINT(-8806450.418746 4114847.160897)","attributes":{"size":"0.005516907","color":"#8BE01B","unit":"kg","weight":"9797.58","address":"ROBESON, NORTH CAROLINA USA","placename":"Robeson, NC, USA","title":"450 Bushels"}},{"local_stop_id":7,"id":7,"geometry":"POINT(-7769053.553219 5576464.244716)","attributes":{"size":"0.005026515","color":"#8BE01B","unit":"kg","weight":"8926.683999999999","address":"KENNEBEC, MAINE USA","placename":"Norridgewock, ME, USA","title":"410 Bushels"}},{"local_stop_id":6,"id":6,"geometry":"POINT(-13360171.113824 6080438.536967)","attributes":{"size":"0.004928437","color":"#8BE01B","unit":"kg","weight":"8752.504800000001","address":"CHELAN, WASHINGTON USA","placename":"Chelan, WA 98816, USA","title":"402 Bushels"}},{"local_stop_id":5,"id":5,"geometry":"POINT(-8918150.889364 5126970.134868)","attributes":{"size":"0.004413526","color":"#8BE01B","unit":"kg","weight":"7838.064","address":"VENANGO, PENNSYLVANIA USA","placename":"Venango, PA, USA","title":"360 Bushels"}},{"local_stop_id":4,"id":4,"geometry":"POINT(-8669835.7444 4057774.075556)","attributes":{"size":"0.002942351","color":"#8BE01B","unit":"kg","weight":"5225.376","address":"NEW HANOVER, NORTH CAROLINA USA","placename":"New Hanover, NC, USA","title":"240 Bushels"}},{"local_stop_id":3,"id":3,"geometry":"POINT(-13696274.044874 5767492.06166)","attributes":{"size":"0.002697155","color":"#8BE01B","unit":"kg","weight":"4789.928","address":"COLUMBIA, OREGON USA","placename":"Columbia, OR, USA","title":"220 Bushels"}},{"local_stop_id":2,"id":2,"geometry":"POINT(-12175938.953015 4236322.220311)","attributes":{"size":"0.002586817","color":"#8BE01B","unit":"kg","weight":"4593.9764","address":"APACHE, ARIZONA USA","placename":"Apache, AZ, USA","title":"211 Bushels"}},{"local_stop_id":1,"id":1,"geometry":"POINT(-9172059.282144 4143870.458266)","attributes":{"size":"0.0009194850000000001","color":"#8BE01B","unit":"kg","weight":"1632.93","address":"GREENVILLE, SOUTH CAROLINA USA","placename":"Greenville, SC, USA","title":"75 Bushels"}}],"hops":[]},"editable":false}