{"type":"FeatureCollection","features":[{"type":"Feature","geometry":{"type":"Point","coordinates":[-106.346771,56.130366000001]},"properties":{"value":"925428000","size":"50","description":"925428000 Barrels","address":"Canada","placename":"Canada","title":"Canada"}},{"type":"Feature","geometry":{"type":"Point","coordinates":[-102.552784,23.634501000001]},"properties":{"value":"468786000","size":"25.32806441992246","description":"468786000 Barrels","address":"Mexico","placename":"Mexico","title":"Mexico"}},{"type":"Feature","geometry":{"type":"Point","coordinates":[45.079161999996,23.885942]},"properties":{"value":"400112000","size":"21.61767311989696","description":"400112000 Barrels","address":"Saudi Arabia","placename":"Saudi Arabia","title":"Saudi Arabia"}},{"type":"Feature","geometry":{"type":"Point","coordinates":[8.6752770000036,9.0819989999966]},"properties":{"value":"373283000","size":"20.16812761230479","description":"373283000 Barrels","address":"Nigeria","placename":"Nigeria","title":"Nigeria"}},{"type":"Feature","geometry":{"type":"Point","coordinates":[-66.589730000004,6.4237500000005]},"properties":{"value":"360582000","size":"19.48190458901179","description":"360582000 Barrels","address":"Venezuela","placename":"Venezuela","title":"Venezuela"}},{"type":"Feature","geometry":{"type":"Point","coordinates":[105.318756,61.52401]},"properties":{"value":"223374000","size":"12.0686860566138","description":"223374000 Barrels","address":"Russia","placename":"Russia","title":"Russia"}},{"type":"Feature","geometry":{"type":"Point","coordinates":[1.6596259999975,28.033885999997]},"properties":{"value":"185973000","size":"10.04794538310922","description":"185973000 Barrels","address":"Algeria","placename":"Algeria","title":"Algeria"}},{"type":"Feature","geometry":{"type":"Point","coordinates":[43.679290999998,33.223191000003]},"properties":{"value":"151622000","size":"8.191993326331168","description":"151622000 Barrels","address":"Iraq","placename":"Iraq","title":"Iraq"}},{"type":"Feature","geometry":{"type":"Point","coordinates":[17.873887000004,-11.202692000003]},"properties":{"value":"143551000","size":"7.755924826134502","description":"143551000 Barrels","address":"Angola","placename":"Angola","title":"Angola"}},{"type":"Feature","geometry":{"type":"Point","coordinates":[-74.297332999997,4.5708679999982]},"properties":{"value":"133185000","size":"7.195859645482955","description":"133185000 Barrels","address":"Colombia","placename":"Colombia","title":"Colombia"}},{"type":"Feature","geometry":{"type":"Point","coordinates":[-51.925279999999,-14.235004]},"properties":{"value":"99253000","size":"5.362545762609301","description":"99253000 Barrels","address":"Brazil","placename":"Brazil","title":"Brazil"}},{"type":"Feature","geometry":{"type":"Point","coordinates":[-3.4359729999961,55.378051000001]},"properties":{"value":"93334000","size":"5.042747788050502","description":"93334000 Barrels","address":"United Kingdom","placename":"United Kingdom","title":"United Kingdom"}},{"type":"Feature","geometry":{"type":"Point","coordinates":[-64.896335000003,18.335765]},"properties":{"value":"92477000","size":"4.99644488820308","description":"92477000 Barrels","address":"Virgin Islands","placename":"Virgin Islands","title":"Virgin Islands"}},{"type":"Feature","geometry":{"type":"Point","coordinates":[-78.183406000002,-1.8312390000011]},"properties":{"value":"77236000","size":"4.172988066062405","description":"77236000 Barrels","address":"Ecuador","placename":"Ecuador","title":"Ecuador"}},{"type":"Feature","geometry":{"type":"Point","coordinates":[47.481765999997,29.311660000002]},"properties":{"value":"71794000","size":"3.878961950578543","description":"71794000 Barrels","address":"Kuwait","placename":"Kuwait","title":"Kuwait"}},{"type":"Feature","geometry":{"type":"Point","coordinates":[5.2912660000021,52.132633000001]},"properties":{"value":"39241000","size":"2.120154134087147","description":"39241000 Barrels","address":"Netherlands","placename":"The Netherlands","title":"Netherlands"}},{"type":"Feature","geometry":{"type":"Point","coordinates":[8.4689460000024,60.472024]},"properties":{"value":"32669000","size":"1.765075186832471","description":"32669000 Barrels","address":"Norway","placename":"Norway","title":"Norway"}},{"type":"Feature","geometry":{"type":"Point","coordinates":[-61.222503000003,10.691803000003]},"properties":{"value":"26774000","size":"1.446573909585619","description":"26774000 Barrels","address":"Trinidad and Tobago","placename":"Trinidad and Tobago","title":"Trinidad and Tobago"}},{"type":"Feature","geometry":{"type":"Point","coordinates":[15.283333300001,-4.2666667000008]},"properties":{"value":"26259000","size":"1.418748946433434","description":"26259000 Barrels","address":"Congo (Brazzaville)","placename":"Brazzaville, Congo","title":"Congo (Brazzaville)"}},{"type":"Feature","geometry":{"type":"Point","coordinates":[4.4699360000043,50.503887000001]},"properties":{"value":"26056000","size":"1.407781048336553","description":"26056000 Barrels","address":"Belgium","placename":"Belgium","title":"Belgium"}},{"type":"Feature","geometry":{"type":"Point","coordinates":[17.228331,26.3351]},"properties":{"value":"25583000","size":"1.382225305480275","description":"25583000 Barrels","address":"Libya","placename":"Libya","title":"Libya"}},{"type":"Feature","geometry":{"type":"Point","coordinates":[127.766922,35.907756999999]},"properties":{"value":"25022000","size":"1.351915005813526","description":"25022000 Barrels","address":"Korea","placename":"South Korea","title":"Korea"}},{"type":"Feature","geometry":{"type":"Point","coordinates":[10.267895000002,1.6508009999994]},"properties":{"value":"21040000","size":"1.136771310139741","description":"21040000 Barrels","address":"Equatorial Guinea","placename":"Equatorial Guinea","title":"Equatorial Guinea"}},{"type":"Feature","geometry":{"type":"Point","coordinates":[47.576927000002,40.143105000001]},"properties":{"value":"20202000","size":"1.091494962330943","description":"20202000 Barrels","address":"Azerbaijan","placename":"Azerbaijan","title":"Azerbaijan"}},{"type":"Feature","geometry":{"type":"Point","coordinates":[12.354721999996,7.3697219999967]},"properties":{"value":"19720000","size":"1.065452957982685","description":"19720000 Barrels","address":"Cameroon","placename":"Cameroon","title":"Cameroon"}},{"type":"Feature","geometry":{"type":"Point","coordinates":[78.962879999997,20.593684000004]},"properties":{"value":"18387000","size":"0.9934322281149911","description":"18387000 Barrels","address":"India","placename":"India","title":"India"}},{"type":"Feature","geometry":{"type":"Point","coordinates":[11.609444,-0.80368899999725]},"properties":{"value":"17030000","size":"0.920114800935351","description":"17030000 Barrels","address":"Gabon","placename":"Gabon","title":"Gabon"}},{"type":"Feature","geometry":{"type":"Point","coordinates":[-3.7492200000004,40.463667000002]},"properties":{"value":"14621000","size":"0.7899588082487239","description":"14621000 Barrels","address":"Spain","placename":"Spain","title":"Spain"}},{"type":"Feature","geometry":{"type":"Point","coordinates":[113.921327,-0.78927499999687]},"properties":{"value":"13706000","size":"0.7405222232307646","description":"13706000 Barrels","address":"Indonesia","placename":"Indonesia","title":"Indonesia"}},{"type":"Feature","geometry":{"type":"Point","coordinates":[12.567380000004,41.871939999999]},"properties":{"value":"13505000","size":"0.7296623832432129","description":"13505000 Barrels","address":"Italy","placename":"Italy","title":"Italy"}},{"type":"Feature","geometry":{"type":"Point","coordinates":[2.2137489999989,46.227638]},"properties":{"value":"13113000","size":"0.7084829938147538","description":"13113000 Barrels","address":"France","placename":"France","title":"France"}},{"type":"Feature","geometry":{"type":"Point","coordinates":[-75.015152,-9.1899670000004]},"properties":{"value":"12780000","size":"0.6904913186114965","description":"12780000 Barrels","address":"Peru","placename":"Peru","title":"Peru"}},{"type":"Feature","geometry":{"type":"Point","coordinates":[66.923684,48.019573000002]},"properties":{"value":"12684000","size":"0.6853045293637107","description":"12684000 Barrels","address":"Kazakhstan","placename":"Kazakhstan","title":"Kazakhstan"}},{"type":"Feature","geometry":{"type":"Point","coordinates":[-63.616672000003,-38.416096999997]},"properties":{"value":"12203000","size":"0.6593165540701168","description":"12203000 Barrels","address":"Argentina","placename":"Argentina","title":"Argentina"}},{"type":"Feature","geometry":{"type":"Point","coordinates":[18.732206999998,15.454166000003]},"properties":{"value":"11282000","size":"0.6095557947241709","description":"11282000 Barrels","address":"Chad","placename":"Chad","title":"Chad"}},{"type":"Feature","geometry":{"type":"Point","coordinates":[18.643501000001,60.128160999999]},"properties":{"value":"6495000","size":"0.3509187100455141","description":"6495000 Barrels","address":"Sweden","placename":"Sweden","title":"Sweden"}},{"type":"Feature","geometry":{"type":"Point","coordinates":[-8.2244540000027,39.399871999999]},"properties":{"value":"6283000","size":"0.3394645504566536","description":"6283000 Barrels","address":"Portugal","placename":"Portugal","title":"Portugal"}},{"type":"Feature","geometry":{"type":"Point","coordinates":[-76.000000000002,24.250000000001]},"properties":{"value":"5488000","size":"0.2965114519984267","description":"5488000 Barrels","address":"Bahama Islands","placename":"Bahama Islands, The Bahamas","title":"Bahama Islands"}},{"type":"Feature","geometry":{"type":"Point","coordinates":[138.252924,36.204824000001]},"properties":{"value":"4855000","size":"0.2623110603958385","description":"4855000 Barrels","address":"Japan","placename":"Japan","title":"Japan"}},{"type":"Feature","geometry":{"type":"Point","coordinates":[100.992541,15.870032]},"properties":{"value":"4669000","size":"0.2522616562282533","description":"4669000 Barrels","address":"Thailand","placename":"Thailand","title":"Thailand"}},{"type":"Feature","geometry":{"type":"Point","coordinates":[108.277199,14.058324000001]},"properties":{"value":"4482000","size":"0.2421582230060037","description":"4482000 Barrels","address":"Vietnam","placename":"Vietnam","title":"Vietnam"}},{"type":"Feature","geometry":{"type":"Point","coordinates":[55.923254999996,21.512583000003]},"properties":{"value":"4337000","size":"0.2343240100796604","description":"4337000 Barrels","address":"Oman","placename":"Oman","title":"Oman"}},{"type":"Feature","geometry":{"type":"Point","coordinates":[-90.230759000004,15.783470999998]},"properties":{"value":"4200000","size":"0.2269220295906327","description":"4200000 Barrels","address":"Guatemala","placename":"Guatemala","title":"Guatemala"}},{"type":"Feature","geometry":{"type":"Point","coordinates":[25.013606999999,58.595272000001]},"properties":{"value":"4164000","size":"0.224976983622713","description":"4164000 Barrels","address":"Estonia","placename":"Estonia","title":"Estonia"}},{"type":"Feature","geometry":{"type":"Point","coordinates":[145.491477,-29.532803699998]},"properties":{"value":"3700000","size":"0.1999075022584145","description":"3700000 Barrels","address":"Australia","placename":"Australia","title":"Australia"}},{"type":"Feature","geometry":{"type":"Point","coordinates":[0,0]},"properties":{"value":"3592000","size":"0.1940723643546554","description":"3592000 Barrels","address":"Ivory Coast (Cote d'Ivore)","title":"Ivory Coast (Cote d'Ivore)"}},{"type":"Feature","geometry":{"type":"Point","coordinates":[30.802498000002,26.820553000001]},"properties":{"value":"3579000","size":"0.1933699866440177","description":"3579000 Barrels","address":"Egypt","placename":"Egypt","title":"Egypt"}},{"type":"Feature","geometry":{"type":"Point","coordinates":[31.16558,48.379433000003]},"properties":{"value":"3384000","size":"0.1828343209844526","description":"3384000 Barrels","address":"Ukraine","placename":"Ukraine","title":"Ukraine"}},{"type":"Feature","geometry":{"type":"Point","coordinates":[15.969987800002,-4.3870605999978]},"properties":{"value":"3251000","size":"0.1756484567140826","description":"3251000 Barrels","address":"Congo (Kinshasa)","placename":"Kinshasa, Democratic Republic of the Congo","title":"Congo (Kinshasa)"}},{"type":"Feature","geometry":{"type":"Point","coordinates":[104.195397,35.861660000001]},"properties":{"value":"3210000","size":"0.1734332654728407","description":"3210000 Barrels","address":"China","placename":"China","title":"China"}},{"type":"Feature","geometry":{"type":"Point","coordinates":[38.996814999996,34.802074999999]},"properties":{"value":"3163000","size":"0.1708938999036122","description":"3163000 Barrels","address":"Syria","placename":"Syria","title":"Syria"}},{"type":"Feature","geometry":{"type":"Point","coordinates":[23.881274999999,55.169437999999]},"properties":{"value":"3133000","size":"0.1692730282636791","description":"3133000 Barrels","address":"Lithuania","placename":"Lithuania","title":"Lithuania"}},{"type":"Feature","geometry":{"type":"Point","coordinates":[101.975766,4.2104840000023]},"properties":{"value":"2772000","size":"0.1497685395298176","description":"2772000 Barrels","address":"Malaysia","placename":"Malaysia","title":"Malaysia"}},{"type":"Feature","geometry":{"type":"Point","coordinates":[-63.588652999998,-16.290154000002]},"properties":{"value":"2619000","size":"0.1415020941661588","description":"2619000 Barrels","address":"Bolivia","placename":"Bolivia","title":"Bolivia"}},{"type":"Feature","geometry":{"type":"Point","coordinates":[26.720577099996,65.1462345]},"properties":{"value":"2601000","size":"0.1405295711821989","description":"2601000 Barrels","address":"Finland","placename":"Finland","title":"Finland"}},{"type":"Feature","geometry":{"type":"Point","coordinates":[10.451526000003,51.165690999999]},"properties":{"value":"2307000","size":"0.1246450291108546","description":"2307000 Barrels","address":"Germany","placename":"Germany","title":"Germany"}},{"type":"Feature","geometry":{"type":"Point","coordinates":[103.819836,1.3520830000039]},"properties":{"value":"2282000","size":"0.1232943027442437","description":"2282000 Barrels","address":"Singapore","placename":"Singapore","title":"Singapore"}},{"type":"Feature","geometry":{"type":"Point","coordinates":[122.1335906,37.319241399998]},"properties":{"value":"2111000","size":"0.1140553343966251","description":"2111000 Barrels","address":"China, Taiwan","placename":"Taiwan Rd, Huancui, Weihai, Shandong, China","title":"China, Taiwan"}},{"type":"Feature","geometry":{"type":"Point","coordinates":[34.851612000002,31.046051]},"properties":{"value":"1983000","size":"0.1071396153995773","description":"1983000 Barrels","address":"Israel","placename":"Israel","title":"Israel"}},{"type":"Feature","geometry":{"type":"Point","coordinates":[24.603189000003,56.879635000001]},"properties":{"value":"1954000","size":"0.1055727728143086","description":"1954000 Barrels","address":"Latvia","placename":"Latvia","title":"Latvia"}},{"type":"Feature","geometry":{"type":"Point","coordinates":[35.243321999997,38.963745000001]},"properties":{"value":"1904000","size":"0.1028713200810868","description":"1904000 Barrels","address":"Turkey","placename":"Turkey","title":"Turkey"}},{"type":"Feature","geometry":{"type":"Point","coordinates":[-8.2438900000022,53.412910000001]},"properties":{"value":"1410000","size":"0.07618096707685525","description":"1410000 Barrels","address":"Ireland","placename":"Ireland","title":"Ireland"}},{"type":"Feature","geometry":{"type":"Point","coordinates":[-69.060086999998,12.226078999997]},"properties":{"value":"901000","size":"0.04868017825265715","description":"901000 Barrels","address":"Netherlands Antilles","placename":"Netherlands Antilles","title":"Netherlands Antilles"}},{"type":"Feature","geometry":{"type":"Point","coordinates":[9.5017849999985,56.263920000001]},"properties":{"value":"873000","size":"0.04716736472205293","description":"873000 Barrels","address":"Denmark","placename":"Denmark","title":"Denmark"}},{"type":"Feature","geometry":{"type":"Point","coordinates":[53.847818000001,23.424076000003]},"properties":{"value":"827000","size":"0.04468202820748886","description":"827000 Barrels","address":"United Arab Emirates","placename":"United Arab Emirates","title":"United Arab Emirates"}},{"type":"Feature","geometry":{"type":"Point","coordinates":[-88.497649999997,17.189876999996]},"properties":{"value":"796000","size":"0.04300712751289133","description":"796000 Barrels","address":"Belize","placename":"Belize","title":"Belize"}},{"type":"Feature","geometry":{"type":"Point","coordinates":[-10.940834999998,21.007889999999]},"properties":{"value":"677000","size":"0.03657767000782341","description":"677000 Barrels","address":"Mauritania","placename":"Mauritania","title":"Mauritania"}},{"type":"Feature","geometry":{"type":"Point","coordinates":[-71.542969,-35.675146999998]},"properties":{"value":"609000","size":"0.03290369429064174","description":"609000 Barrels","address":"Chile","placename":"Chile","title":"Chile"}},{"type":"Feature","geometry":{"type":"Point","coordinates":[21.824312000004,39.074207999997]},"properties":{"value":"572000","size":"0.03090461926805759","description":"572000 Barrels","address":"Greece","placename":"Greece","title":"Greece"}},{"type":"Feature","geometry":{"type":"Point","coordinates":[27.953388999997,53.709807000002]},"properties":{"value":"399000","size":"0.0215575928111101","description":"399000 Barrels","address":"Belarus","placename":"Belarus","title":"Belarus"}},{"type":"Feature","geometry":{"type":"Point","coordinates":[-77.297508,18.109580999997]},"properties":{"value":"379000","size":"0.02047701171782138","description":"379000 Barrels","address":"Jamaica","placename":"Jamaica","title":"Jamaica"}},{"type":"Feature","geometry":{"type":"Point","coordinates":[-83.753427999999,9.7489169999974]},"properties":{"value":"369000","size":"0.01993672117117701","description":"369000 Barrels","address":"Costa Rica","placename":"Costa Rica","title":"Costa Rica"}},{"type":"Feature","geometry":{"type":"Point","coordinates":[59.556278000003,38.969718999999]},"properties":{"value":"335000","size":"0.01809973331258618","description":"335000 Barrels","address":"Turkmenistan","placename":"Turkmenistan","title":"Turkmenistan"}},{"type":"Feature","geometry":{"type":"Point","coordinates":[51.183884,25.354825999999]},"properties":{"value":"279000","size":"0.01507410625137774","description":"279000 Barrels","address":"Qatar","placename":"Qatar","title":"Qatar"}},{"type":"Feature","geometry":{"type":"Point","coordinates":[9.5374989999968,33.886917000001]},"properties":{"value":"271000","size":"0.01464187381406225","description":"271000 Barrels","address":"Tunisia","placename":"Tunisia","title":"Tunisia"}},{"type":"Feature","geometry":{"type":"Point","coordinates":[-82.907122999997,32.157435099997]},"properties":{"value":"247000","size":"0.01334517650211578","description":"247000 Barrels","address":"Georgia","placename":"Georgia, USA","title":"Georgia"}},{"type":"Feature","geometry":{"type":"Point","coordinates":[-1.0231940000024,7.9465270000027]},"properties":{"value":"186000","size":"0.01004940416758516","description":"186000 Barrels","address":"Ghana","placename":"Ghana","title":"Ghana"}},{"type":"Feature","geometry":{"type":"Point","coordinates":[-88.89653,13.794185]},"properties":{"value":"155000","size":"0.008374503472987634","description":"155000 Barrels","address":"El Salvador","placename":"El Salvador","title":"El Salvador"}},{"type":"Feature","geometry":{"type":"Point","coordinates":[19.145136,51.919437999998]},"properties":{"value":"123000","size":"0.006645573723725671","description":"123000 Barrels","address":"Poland","placename":"Poland","title":"Poland"}},{"type":"Feature","geometry":{"type":"Point","coordinates":[24.966760000001,45.943161000003]},"properties":{"value":"120000","size":"0.006483486559732361","description":"120000 Barrels","address":"Romania","placename":"Romania","title":"Romania"}},{"type":"Feature","geometry":{"type":"Point","coordinates":[-70.162650999999,18.735693]},"properties":{"value":"93000","size":"0.00502470208379258","description":"93000 Barrels","address":"Dominican Republic","placename":"Dominican Republic","title":"Dominican Republic"}},{"type":"Feature","geometry":{"type":"Point","coordinates":[22.937506000003,-30.559481999999]},"properties":{"value":"61000","size":"0.003295772334530617","description":"61000 Barrels","address":"South Africa","placename":"South Africa","title":"South Africa"}},{"type":"Feature","geometry":{"type":"Point","coordinates":[64.585261999999,41.377491000002]},"properties":{"value":"56000","size":"0.003025627061208435","description":"56000 Barrels","address":"Uzbekistan","placename":"Uzbekistan","title":"Uzbekistan"}},{"type":"Feature","geometry":{"type":"Point","coordinates":[-9.4294990000029,6.4280549999963]},"properties":{"value":"28000","size":"0.001512813530604218","description":"28000 Barrels","address":"Liberia","placename":"Liberia","title":"Liberia"}},{"type":"Feature","geometry":{"type":"Point","coordinates":[74.766098,41.204379999997]},"properties":{"value":"28000","size":"0.001512813530604218","description":"28000 Barrels","address":"Kyrgyzstan","placename":"Kyrgyzstan","title":"Kyrgyzstan"}},{"type":"Feature","geometry":{"type":"Point","coordinates":[-95.712890999999,37.090240000003]},"properties":{"size":"1","description":"","address":"USA","placename":"United States","title":"USA"}},{"type":"Feature","geometry":{"type":"LineString","coordinates":[[74.766098,41.204379999997],[-95.712890999999,37.090240000003]]},"properties":[]},{"type":"Feature","geometry":{"type":"LineString","coordinates":[[-9.4294990000029,6.4280549999963],[-95.712890999999,37.090240000003]]},"properties":[]},{"type":"Feature","geometry":{"type":"LineString","coordinates":[[64.585261999999,41.377491000002],[-95.712890999999,37.090240000003]]},"properties":[]},{"type":"Feature","geometry":{"type":"LineString","coordinates":[[22.937506000003,-30.559481999999],[-95.712890999999,37.090240000003]]},"properties":[]},{"type":"Feature","geometry":{"type":"LineString","coordinates":[[-70.162650999999,18.735693],[-95.712890999999,37.090240000003]]},"properties":[]},{"type":"Feature","geometry":{"type":"LineString","coordinates":[[24.966760000001,45.943161000003],[-95.712890999999,37.090240000003]]},"properties":[]},{"type":"Feature","geometry":{"type":"LineString","coordinates":[[19.145136,51.919437999998],[-95.712890999999,37.090240000003]]},"properties":[]},{"type":"Feature","geometry":{"type":"LineString","coordinates":[[-88.89653,13.794185],[-95.712890999999,37.090240000003]]},"properties":[]},{"type":"Feature","geometry":{"type":"LineString","coordinates":[[-1.0231940000024,7.9465270000027],[-95.712890999999,37.090240000003]]},"properties":[]},{"type":"Feature","geometry":{"type":"LineString","coordinates":[[-82.907122999997,32.157435099997],[-95.712890999999,37.090240000003]]},"properties":[]},{"type":"Feature","geometry":{"type":"LineString","coordinates":[[9.5374989999968,33.886917000001],[-95.712890999999,37.090240000003]]},"properties":[]},{"type":"Feature","geometry":{"type":"LineString","coordinates":[[51.183884,25.354825999999],[-95.712890999999,37.090240000003]]},"properties":[]},{"type":"Feature","geometry":{"type":"LineString","coordinates":[[59.556278000003,38.969718999999],[-95.712890999999,37.090240000003]]},"properties":[]},{"type":"Feature","geometry":{"type":"LineString","coordinates":[[-83.753427999999,9.7489169999974],[-95.712890999999,37.090240000003]]},"properties":[]},{"type":"Feature","geometry":{"type":"LineString","coordinates":[[-77.297508,18.109580999997],[-95.712890999999,37.090240000003]]},"properties":[]},{"type":"Feature","geometry":{"type":"LineString","coordinates":[[27.953388999997,53.709807000002],[-95.712890999999,37.090240000003]]},"properties":[]},{"type":"Feature","geometry":{"type":"LineString","coordinates":[[21.824312000004,39.074207999997],[-95.712890999999,37.090240000003]]},"properties":[]},{"type":"Feature","geometry":{"type":"LineString","coordinates":[[-71.542969,-35.675146999998],[-95.712890999999,37.090240000003]]},"properties":[]},{"type":"Feature","geometry":{"type":"LineString","coordinates":[[-10.940834999998,21.007889999999],[-95.712890999999,37.090240000003]]},"properties":[]},{"type":"Feature","geometry":{"type":"LineString","coordinates":[[-88.497649999997,17.189876999996],[-95.712890999999,37.090240000003]]},"properties":[]},{"type":"Feature","geometry":{"type":"LineString","coordinates":[[53.847818000001,23.424076000003],[-95.712890999999,37.090240000003]]},"properties":[]},{"type":"Feature","geometry":{"type":"LineString","coordinates":[[9.5017849999985,56.263920000001],[-95.712890999999,37.090240000003]]},"properties":[]},{"type":"Feature","geometry":{"type":"LineString","coordinates":[[-69.060086999998,12.226078999997],[-95.712890999999,37.090240000003]]},"properties":[]},{"type":"Feature","geometry":{"type":"LineString","coordinates":[[-8.2438900000022,53.412910000001],[-95.712890999999,37.090240000003]]},"properties":[]},{"type":"Feature","geometry":{"type":"LineString","coordinates":[[35.243321999997,38.963745000001],[-95.712890999999,37.090240000003]]},"properties":[]},{"type":"Feature","geometry":{"type":"LineString","coordinates":[[24.603189000003,56.879635000001],[-95.712890999999,37.090240000003]]},"properties":[]},{"type":"Feature","geometry":{"type":"LineString","coordinates":[[34.851612000002,31.046051],[-95.712890999999,37.090240000003]]},"properties":[]},{"type":"Feature","geometry":{"type":"LineString","coordinates":[[122.1335906,37.319241399998],[-95.712890999999,37.090240000003]]},"properties":[]},{"type":"Feature","geometry":{"type":"LineString","coordinates":[[103.819836,1.3520830000039],[-95.712890999999,37.090240000003]]},"properties":[]},{"type":"Feature","geometry":{"type":"LineString","coordinates":[[10.451526000003,51.165690999999],[-95.712890999999,37.090240000003]]},"properties":[]},{"type":"Feature","geometry":{"type":"LineString","coordinates":[[26.720577099996,65.1462345],[-95.712890999999,37.090240000003]]},"properties":[]},{"type":"Feature","geometry":{"type":"LineString","coordinates":[[-63.588652999998,-16.290154000002],[-95.712890999999,37.090240000003]]},"properties":[]},{"type":"Feature","geometry":{"type":"LineString","coordinates":[[101.975766,4.2104840000023],[-95.712890999999,37.090240000003]]},"properties":[]},{"type":"Feature","geometry":{"type":"LineString","coordinates":[[23.881274999999,55.169437999999],[-95.712890999999,37.090240000003]]},"properties":[]},{"type":"Feature","geometry":{"type":"LineString","coordinates":[[38.996814999996,34.802074999999],[-95.712890999999,37.090240000003]]},"properties":[]},{"type":"Feature","geometry":{"type":"LineString","coordinates":[[104.195397,35.861660000001],[-95.712890999999,37.090240000003]]},"properties":[]},{"type":"Feature","geometry":{"type":"LineString","coordinates":[[15.969987800002,-4.3870605999978],[-95.712890999999,37.090240000003]]},"properties":[]},{"type":"Feature","geometry":{"type":"LineString","coordinates":[[31.16558,48.379433000003],[-95.712890999999,37.090240000003]]},"properties":[]},{"type":"Feature","geometry":{"type":"LineString","coordinates":[[30.802498000002,26.820553000001],[-95.712890999999,37.090240000003]]},"properties":[]},{"type":"Feature","geometry":{"type":"LineString","coordinates":[[0,0],[-95.712890999999,37.090240000003]]},"properties":[]},{"type":"Feature","geometry":{"type":"LineString","coordinates":[[145.491477,-29.532803699998],[-95.712890999999,37.090240000003]]},"properties":[]},{"type":"Feature","geometry":{"type":"LineString","coordinates":[[25.013606999999,58.595272000001],[-95.712890999999,37.090240000003]]},"properties":[]},{"type":"Feature","geometry":{"type":"LineString","coordinates":[[-90.230759000004,15.783470999998],[-95.712890999999,37.090240000003]]},"properties":[]},{"type":"Feature","geometry":{"type":"LineString","coordinates":[[55.923254999996,21.512583000003],[-95.712890999999,37.090240000003]]},"properties":[]},{"type":"Feature","geometry":{"type":"LineString","coordinates":[[108.277199,14.058324000001],[-95.712890999999,37.090240000003]]},"properties":[]},{"type":"Feature","geometry":{"type":"LineString","coordinates":[[100.992541,15.870032],[-95.712890999999,37.090240000003]]},"properties":[]},{"type":"Feature","geometry":{"type":"LineString","coordinates":[[138.252924,36.204824000001],[-95.712890999999,37.090240000003]]},"properties":[]},{"type":"Feature","geometry":{"type":"LineString","coordinates":[[-76.000000000002,24.250000000001],[-95.712890999999,37.090240000003]]},"properties":[]},{"type":"Feature","geometry":{"type":"LineString","coordinates":[[-8.2244540000027,39.399871999999],[-95.712890999999,37.090240000003]]},"properties":[]},{"type":"Feature","geometry":{"type":"LineString","coordinates":[[18.643501000001,60.128160999999],[-95.712890999999,37.090240000003]]},"properties":[]},{"type":"Feature","geometry":{"type":"LineString","coordinates":[[18.732206999998,15.454166000003],[-95.712890999999,37.090240000003]]},"properties":[]},{"type":"Feature","geometry":{"type":"LineString","coordinates":[[-63.616672000003,-38.416096999997],[-95.712890999999,37.090240000003]]},"properties":[]},{"type":"Feature","geometry":{"type":"LineString","coordinates":[[66.923684,48.019573000002],[-95.712890999999,37.090240000003]]},"properties":[]},{"type":"Feature","geometry":{"type":"LineString","coordinates":[[-75.015152,-9.1899670000004],[-95.712890999999,37.090240000003]]},"properties":[]},{"type":"Feature","geometry":{"type":"LineString","coordinates":[[2.2137489999989,46.227638],[-95.712890999999,37.090240000003]]},"properties":[]},{"type":"Feature","geometry":{"type":"LineString","coordinates":[[12.567380000004,41.871939999999],[-95.712890999999,37.090240000003]]},"properties":[]},{"type":"Feature","geometry":{"type":"LineString","coordinates":[[113.921327,-0.78927499999687],[-95.712890999999,37.090240000003]]},"properties":[]},{"type":"Feature","geometry":{"type":"LineString","coordinates":[[-3.7492200000004,40.463667000002],[-95.712890999999,37.090240000003]]},"properties":[]},{"type":"Feature","geometry":{"type":"LineString","coordinates":[[11.609444,-0.80368899999725],[-95.712890999999,37.090240000003]]},"properties":[]},{"type":"Feature","geometry":{"type":"LineString","coordinates":[[78.962879999997,20.593684000004],[-95.712890999999,37.090240000003]]},"properties":[]},{"type":"Feature","geometry":{"type":"LineString","coordinates":[[12.354721999996,7.3697219999967],[-95.712890999999,37.090240000003]]},"properties":[]},{"type":"Feature","geometry":{"type":"LineString","coordinates":[[47.576927000002,40.143105000001],[-95.712890999999,37.090240000003]]},"properties":[]},{"type":"Feature","geometry":{"type":"LineString","coordinates":[[10.267895000002,1.6508009999994],[-95.712890999999,37.090240000003]]},"properties":[]},{"type":"Feature","geometry":{"type":"LineString","coordinates":[[127.766922,35.907756999999],[-95.712890999999,37.090240000003]]},"properties":[]},{"type":"Feature","geometry":{"type":"LineString","coordinates":[[17.228331,26.3351],[-95.712890999999,37.090240000003]]},"properties":[]},{"type":"Feature","geometry":{"type":"LineString","coordinates":[[4.4699360000043,50.503887000001],[-95.712890999999,37.090240000003]]},"properties":[]},{"type":"Feature","geometry":{"type":"LineString","coordinates":[[15.283333300001,-4.2666667000008],[-95.712890999999,37.090240000003]]},"properties":[]},{"type":"Feature","geometry":{"type":"LineString","coordinates":[[-61.222503000003,10.691803000003],[-95.712890999999,37.090240000003]]},"properties":[]},{"type":"Feature","geometry":{"type":"LineString","coordinates":[[8.4689460000024,60.472024],[-95.712890999999,37.090240000003]]},"properties":[]},{"type":"Feature","geometry":{"type":"LineString","coordinates":[[5.2912660000021,52.132633000001],[-95.712890999999,37.090240000003]]},"properties":[]},{"type":"Feature","geometry":{"type":"LineString","coordinates":[[47.481765999997,29.311660000002],[-95.712890999999,37.090240000003]]},"properties":[]},{"type":"Feature","geometry":{"type":"LineString","coordinates":[[-78.183406000002,-1.8312390000011],[-95.712890999999,37.090240000003]]},"properties":[]},{"type":"Feature","geometry":{"type":"LineString","coordinates":[[-64.896335000003,18.335765],[-95.712890999999,37.090240000003]]},"properties":[]},{"type":"Feature","geometry":{"type":"LineString","coordinates":[[-3.4359729999961,55.378051000001],[-95.712890999999,37.090240000003]]},"properties":[]},{"type":"Feature","geometry":{"type":"LineString","coordinates":[[-51.925279999999,-14.235004],[-95.712890999999,37.090240000003]]},"properties":[]},{"type":"Feature","geometry":{"type":"LineString","coordinates":[[-74.297332999997,4.5708679999982],[-95.712890999999,37.090240000003]]},"properties":[]},{"type":"Feature","geometry":{"type":"LineString","coordinates":[[17.873887000004,-11.202692000003],[-95.712890999999,37.090240000003]]},"properties":[]},{"type":"Feature","geometry":{"type":"LineString","coordinates":[[43.679290999998,33.223191000003],[-95.712890999999,37.090240000003]]},"properties":[]},{"type":"Feature","geometry":{"type":"LineString","coordinates":[[1.6596259999975,28.033885999997],[-95.712890999999,37.090240000003]]},"properties":[]},{"type":"Feature","geometry":{"type":"LineString","coordinates":[[105.318756,61.52401],[-95.712890999999,37.090240000003]]},"properties":[]},{"type":"Feature","geometry":{"type":"LineString","coordinates":[[-66.589730000004,6.4237500000005],[-95.712890999999,37.090240000003]]},"properties":[]},{"type":"Feature","geometry":{"type":"LineString","coordinates":[[8.6752770000036,9.0819989999966],[-95.712890999999,37.090240000003]]},"properties":[]},{"type":"Feature","geometry":{"type":"LineString","coordinates":[[45.079161999996,23.885942],[-95.712890999999,37.090240000003]]},"properties":[]},{"type":"Feature","geometry":{"type":"LineString","coordinates":[[-102.552784,23.634501000001],[-95.712890999999,37.090240000003]]},"properties":[]},{"type":"Feature","geometry":{"type":"LineString","coordinates":[[-106.346771,56.130366000001],[-95.712890999999,37.090240000003]]},"properties":[]}],"properties":{"title":"US Oil Imports by Country in Barrels - 2010","description":"Taken from http:\/\/explore.data.gov\/Energy-and-Utilities\/Monthly-U-S-Petroleum-Imports-by-Country-of-Origin\/kfwt-xxkx, found on http:\/\/data.gov."}}