{"type":"FeatureCollection","features":[{"type":"Feature","geometry":{"type":"Point","coordinates":[78.4166998,17.491860799997]},"properties":{"url:moreinfo":"http:\/\/www.hyderabadhospitals.com","description":"Customer","address":"3, Ramalayam Road, Andhra Pradesh 500072, India","placename":"Ramalayam Rd, Kukatpally, Hyderabad, Andhra Pradesh 500072, India","title":"Hyderabad Hospitals"}},{"type":"Feature","geometry":{"type":"Point","coordinates":[101.2523792,13.201746099996]},"properties":{"url:moreinfo":"","description":"Customer","address":"Chonburi, Thailand","placename":"Chon Buri, Thailand","title":"Bangkok Hospital Pattaya"}},{"type":"Feature","geometry":{"type":"Point","coordinates":[101.4339148,12.830844699999]},"properties":{"url:moreinfo":"","description":"Distribution Center","address":"Rayong, Thailand","placename":"Rayong, Thailand","title":"Rayong DC"}},{"type":"Feature","geometry":{"type":"Point","coordinates":[114.416196,23.111846999997]},"properties":{"url:moreinfo":"","description":"Customer","address":"Huizhou, China","placename":"Huizhou, Guangdong, China","title":"Huiyang Hospital"}},{"type":"Feature","geometry":{"type":"Point","coordinates":[114.057868,22.543099000001]},"properties":{"url:moreinfo":"","description":"Distribution Center","address":"Shenzen, China","placename":"Shenzhen, Guangdong, China","title":"Shenzhen DC"}},{"type":"Feature","geometry":{"type":"Point","coordinates":[126.7052062,37.4562557]},"properties":{"url:moreinfo":"","description":"Customer","address":"Incheon, SouthKorea","placename":"Incheon, South Korea","title":"Incheon Hospital"}},{"type":"Feature","geometry":{"type":"Point","coordinates":[126.8308848,37.321877800001]},"properties":{"url:moreinfo":"","description":"Distribution Center","address":"Ansan, SouthKorea","placename":"Ansan-si, Gyeonggi-do, South Korea","title":"Ansan DC"}},{"type":"Feature","geometry":{"type":"Point","coordinates":[126.9779692,37.566535]},"properties":{"url:moreinfo":"","description":"Manufacturing","address":"Seoul, SouthKorea","placename":"Seoul, South Korea","title":"Seoul Mfg Site"}},{"type":"Feature","geometry":{"type":"Point","coordinates":[139.6917064,35.6894875]},"properties":{"url:moreinfo":"","description":"Customer","address":"Tokyo, Japan","placename":"Tokyo, Japan","title":"St. Luke's International Hospital"}},{"type":"Feature","geometry":{"type":"Point","coordinates":[130.4017155,33.590354700002]},"properties":{"url:moreinfo":"","description":"Distribution Center","address":"Fukuoka, Japan","placename":"Fukuoka, Fukuoka Prefecture, Japan","title":"Fukuoka DC"}},{"type":"Feature","geometry":{"type":"Point","coordinates":[-77.075648699998,38.911844699998]},"properties":{"url:moreinfo":"","description":"Customer","address":"3800 Reservoir Road Northwest, Washington, DC","placename":"3800 Reservoir Rd NW, Georgetown University, Washington, DC 20007, USA","title":"Georgetown University Hospital"}},{"type":"Feature","geometry":{"type":"Point","coordinates":[-77.106769799999,38.879969699997]},"properties":{"url:moreinfo":"","description":"Distribution Center","address":"Arlington, VA, USA","placename":"Arlington, VA, USA","title":"Arlington DC"}},{"type":"Feature","geometry":{"type":"Point","coordinates":[-71.133776000002,42.374414000003]},"properties":{"url:moreinfo":"","description":"Customer","address":"330 Mount Auburn Street, Cambridge, MA","placename":"330 Mt Auburn St, Mid-Cambridge, MA 02138, USA","title":"Mount Auburn Hospital"}},{"type":"Feature","geometry":{"type":"Point","coordinates":[-72.516666999997,42.366667000003]},"properties":{"url:moreinfo":"","description":"Distribution Center","address":"Amherst, MA, USA","placename":"Amherst, MA, USA","title":"Amherst DC"}},{"type":"Feature","geometry":{"type":"Point","coordinates":[-84.502180000004,39.141218000003]},"properties":{"url:moreinfo":"","description":"Customer","address":"3333 Burnet Ave, Cincinnati, OH","placename":"3333 Burnet Ave, University Medical College, Cincinnati, OH 45229, USA","title":"Children's Hospital Med Center"}},{"type":"Feature","geometry":{"type":"Point","coordinates":[-84.512019599999,39.103118199997]},"properties":{"url:moreinfo":"","description":"Distribution Center","address":"Cincinatti, OH, USA","placename":"Cincinnati, OH, USA","title":"Cincinatti DC"}},{"type":"Feature","geometry":{"type":"Point","coordinates":[-0.09313200000396,51.4701612]},"properties":{"url:moreinfo":"","description":"Critical, Customer","address":"Denmark Hill, London SE5 9RS, United Kingdom","placename":"Denmark Hill, London SE5, UK","title":"King's College Hospital"}},{"type":"Feature","geometry":{"type":"Point","coordinates":[-79.995220999997,40.441531999997]},"properties":{"url:moreinfo":"http:\/\/www.upmc.com\/Pages\/default.aspx","description":"Customer","address":"600 Grant St, Pittsburgh, PA","placename":"600 Grant St, Pittsburgh, PA 15219, USA","title":"UPMC"}},{"type":"Feature","geometry":{"type":"Point","coordinates":[-73.950000000004,40.650000000002]},"properties":{"url:moreinfo":"","description":"Critical, Distribution Center","address":"Brooklyn, NY, USA","placename":"Brooklyn, NY, USA","title":"New York DC"}},{"type":"Feature","geometry":{"type":"Point","coordinates":[-88.023767400004,43.042453700002]},"properties":{"url:moreinfo":"","description":"Customer","address":"9000 West Wisconsin Avenue, Wauwatosa, WI","placename":"9000 W Wisconsin Ave, Wauwatosa, WI 53226, USA","title":"Children's Hospital of Wisconsin"}},{"type":"Feature","geometry":{"type":"Point","coordinates":[-87.629798199997,41.878113600002]},"properties":{"url:moreinfo":"","description":"Distribution Center","address":"Chicago, IL, USA","placename":"Chicago, IL, USA","title":"Chicago DC"}},{"type":"Feature","geometry":{"type":"Point","coordinates":[-82.3433446,29.639798100001]},"properties":{"url:moreinfo":"","description":"Customer","address":"1600 Southwest Archer Road, Gainesville, FL","placename":"1600 SW Archer Rd, University of Florida, Gainesville, FL 32603, USA","title":"Shands Hospital at the University of Florida"}},{"type":"Feature","geometry":{"type":"Point","coordinates":[-81.379236499997,28.538335500004]},"properties":{"url:moreinfo":"","description":"Distribution Center","address":"Orlando, FL, USA","placename":"Orlando, FL, USA","title":"Orlando DC"}},{"type":"Feature","geometry":{"type":"Point","coordinates":[-84.292712900004,33.7774101]},"properties":{"url:moreinfo":"","description":"Customer","address":"450 North Candler Street, Decatur, GA","placename":"450 N Candler St, Decatur, GA 30030, USA","title":"DeKalb Medical Center - Decatur"}},{"type":"Feature","geometry":{"type":"Point","coordinates":[-84.382448700004,33.752311999997]},"properties":{"url:moreinfo":"","description":"Customer","address":"80 Jesse Hill Jr Dr SE, Atlanta, GA","placename":"80 Jesse Hill Jr Dr SE, Georgia State University, Atlanta, GA 30303, USA","title":"Grady"}},{"type":"Feature","geometry":{"type":"Point","coordinates":[-84.387982400002,33.7489954]},"properties":{"url:moreinfo":"","description":"Distribution Center","address":"Atlanta, GA, USA","placename":"Atlanta, GA, USA","title":"Atlanta DC"}},{"type":"Feature","geometry":{"type":"Point","coordinates":[-96.836993000002,32.810425000003]},"properties":{"url:moreinfo":"","description":"Customer","address":"5201 Harry Hines Boulevard, Dallas, TX","placename":"5201 Harry Hines Blvd, Dallas, TX 75390, USA","title":"Parkland Health & Hospital System"}},{"type":"Feature","geometry":{"type":"Point","coordinates":[-96.769922999997,32.802954999999]},"properties":{"url:moreinfo":"","description":"Distribution Center","address":"Dallas, TX, USA","placename":"Dallas, TX, USA","title":"Dallas DC"}},{"type":"Feature","geometry":{"type":"Point","coordinates":[-112.6421926,45.374913099999]},"properties":{"url:moreinfo":"","description":"Customer","address":"90 Mt Highway 91S, Dillon, MT","placename":"Hwy 91, Dillon, Mt, USA","title":"Barrett Memorial Hospital"}},{"type":"Feature","geometry":{"type":"Point","coordinates":[-116.211076,43.612631000003]},"properties":{"url:moreinfo":"","description":"Distribution Center","address":"Boise, ID, USA","placename":"Boise, ID, USA","title":"Boise  DC"}},{"type":"Feature","geometry":{"type":"Point","coordinates":[-105.9456897,35.657871599998]},"properties":{"url:moreinfo":"","description":"Customer","address":"455 Saint Michaels Drive, Santa Fe, NM","placename":"455 St Michaels Dr, Santa Fe, NM 87505, USA","title":"CHRISTUS ST. VINCENT Regional Medical Center"}},{"type":"Feature","geometry":{"type":"Point","coordinates":[-105.937799,35.6869752]},"properties":{"url:moreinfo":"","description":"Distribution Center","address":"Santa Fe, NM, USA","placename":"Santa Fe, NM, USA","title":"Santa Fe DC"}},{"type":"Feature","geometry":{"type":"Point","coordinates":[-105.018246,39.849600999999]},"properties":{"url:moreinfo":"","description":"Customer","address":"2551 West 84th Avenue, Westminster, CO","placename":"2551 W 84th Ave, Westminster, CO 80031, USA","title":"St. Anthony North Hospital"}},{"type":"Feature","geometry":{"type":"Point","coordinates":[-104.9847034,39.739153599999]},"properties":{"url:moreinfo":"","description":"Distribution Center","address":"Denver, CO, USA","placename":"Denver, CO, USA","title":"Denver DC"}},{"type":"Feature","geometry":{"type":"Point","coordinates":[-111.841536,40.772250000003]},"properties":{"url:moreinfo":"","description":"Customer","address":"50 North Medical Drive, Salt Lake City, UT","placename":"50 N Medical Dr, University of Utah - MarCom, Salt Lake City, UT 84112, USA","title":"University of Utah Health Care"}},{"type":"Feature","geometry":{"type":"Point","coordinates":[-113.0011989,40.507091999997]},"properties":{"url:moreinfo":"","description":"Distribution Center","address":"Salt Lake City, NV, USA","placename":"Salt Lake City, USA","title":"Salt Lake City DC"}},{"type":"Feature","geometry":{"type":"Point","coordinates":[-111.921842,33.671024000004]},"properties":{"url:moreinfo":"","description":"Customer","address":"7400 East Thompson Peak Parkway, Scottsdale, AZ","placename":"7400 E Thompson Peak Pkwy, Scottsdale, AZ 85255, USA","title":"Scottsdale Healthcare"}},{"type":"Feature","geometry":{"type":"Point","coordinates":[-112.0740373,33.448377099997]},"properties":{"url:moreinfo":"","description":"Distribution Center","address":"Phoenix, AZ, USA","placename":"Phoenix, AZ, USA","title":"Phoenix  DC"}},{"type":"Feature","geometry":{"type":"Point","coordinates":[-117.1659225,32.754257000002]},"properties":{"url:moreinfo":"http:\/\/www.ucsd.edu","description":"Customer","address":"200W. Arbor Drive, San Diego, CA","placename":"200 W Arbor Dr, San Diego, CA 92103, USA","title":"UC San Diego Medical Center"}},{"type":"Feature","geometry":{"type":"Point","coordinates":[-118.4464735,34.064983199999]},"properties":{"urltitle:moreinfo":"UCLA Medical Center","url:moreinfo":"http:\/\/www.uclahealth.org\/","description":"Customer","address":"200 Medical Plaza Driveway, Los Angeles, CA","placename":"200 Medical Plaza Driveway, University of California, Los Angeles, Los Angeles, CA 90024, USA","title":"UCLA Medical Center"}},{"type":"Feature","geometry":{"type":"Point","coordinates":[-118.2436849,34.052234200001]},"properties":{"url:moreinfo":"","description":"Critical, Distribution Center","address":"Los Angeles, CA, USA","placename":"Los Angeles, CA, USA","title":"Los Angeles DC"}},{"type":"Feature","geometry":{"type":"Point","coordinates":[-122.6136025,45.5265959]},"properties":{"url:moreinfo":"","description":"Customer","address":"4805 Northeast Glisan Street, Portland, OR","placename":"4805 NE Glisan St, Portland, OR 97213, USA","title":"Providence Portland Medical Center"}},{"type":"Feature","geometry":{"type":"Point","coordinates":[-122.6762071,45.523451499997]},"properties":{"url:moreinfo":"","description":"Distribution Center","address":"Portland, OR, USA","placename":"Portland, OR, USA","title":"Portland DC"}},{"type":"Feature","geometry":{"type":"Point","coordinates":[-122.121512,47.673988099998]},"properties":{"url:moreinfo":"","description":"Customer","address":"Redmond, WA, USA","placename":"Redmond, WA, USA","title":"Redmond Hospital"}},{"type":"Feature","geometry":{"type":"Point","coordinates":[-122.3320708,47.6062095]},"properties":{"url:moreinfo":"","description":"Distribution Center","address":"Seattle, WA, USA","placename":"Seattle, WA, USA","title":"Seattle  DC"}},{"type":"Feature","geometry":{"type":"Point","coordinates":[-122.4578733,37.763085499997]},"properties":{"urltitle:moreinfo":"UC San Francisco Medical Center","url:moreinfo":"http:\/\/www.ucsfhealth.org\/","description":"Customer","address":"505 Parnassus Avenue, San Francisco, CA","placename":"505 Parnassus Ave, San Francisco, CA 94131, USA","title":"UC San Francisco Medical Center"}},{"type":"Feature","geometry":{"type":"Point","coordinates":[-121.4943996,38.5815719]},"properties":{"url:moreinfo":"","description":"Customer","address":"Sacramento, CA, USA","placename":"Sacramento, CA, USA","title":"UC Sacramento Hospital"}},{"type":"Feature","geometry":{"type":"Point","coordinates":[-121.4943996,38.5815719]},"properties":{"url:moreinfo":"","description":"Distribution Center","address":"Sacramento, CA, USA","placename":"Sacramento, CA, USA","title":"Sacramento DC"}},{"type":"Feature","geometry":{"type":"Point","coordinates":[98.330746799997,7.9843109000014]},"properties":{"url:moreinfo":"","description":"Tier 1","address":"Phuket, Thailand","placename":"Phuket, Thailand","title":"Phuket Chemical"}},{"type":"Feature","geometry":{"type":"Point","coordinates":[100.6647101,13.820309999997]},"properties":{"url:moreinfo":"","description":"Manufacturing","address":"Bangkok, Thailand","placename":"Bangkok, Thailand","title":"Bangkok Mfg Site"}},{"type":"Feature","geometry":{"type":"Point","coordinates":[113.264435,23.129162999999]},"properties":{"url:moreinfo":"","description":"Tier 1","address":"Guangzhou, China","placename":"Guangzhou, Guangdong, China","title":"Guangzhou Chem"}},{"type":"Feature","geometry":{"type":"Point","coordinates":[114.057868,22.543099000001]},"properties":{"url:moreinfo":"","description":"Manufacturing","address":"Shenzhen, China","placename":"Shenzhen, Guangdong, China","title":"Shenzhen Mfg Site"}},{"type":"Feature","geometry":{"type":"Point","coordinates":[126.7052062,37.4562557]},"properties":{"url:moreinfo":"","description":"Tier 2 - raw material","address":"Incheon, South Korea","placename":"Incheon, South Korea","title":"Benzene pipeline"}},{"type":"Feature","geometry":{"type":"Point","coordinates":[126.9779692,37.566535]},"properties":{"url:moreinfo":"","description":"Tier 1","address":"Seoul, South Korea","placename":"Seoul, South Korea","title":"Seoul Chem"}},{"type":"Feature","geometry":{"type":"Point","coordinates":[126.9779692,37.566535]},"properties":{"url:moreinfo":"","description":"Manufacturing","address":"Seoul, South Korea","placename":"Seoul, South Korea","title":"Seoul Mfg Site"}},{"type":"Feature","geometry":{"type":"Point","coordinates":[129.0756416,35.179554300001]},"properties":{"url:moreinfo":"","description":"Critical, Tier 2","address":"Busan, South Korea","placename":"Busan, South Korea","title":"Busan Chem"}},{"type":"Feature","geometry":{"type":"Point","coordinates":[140.4712215,36.365855599997]},"properties":{"url:moreinfo":"","description":"Tier 1","address":"Mito, Japan","placename":"Mito, Ibaraki Prefecture, Japan","title":"Mito Chem"}},{"type":"Feature","geometry":{"type":"Point","coordinates":[140.65146928042,36.5991538956]},"properties":{"url:moreinfo":"","description":"Manufacturing","address":"Hitachi, Ibaraki Prefecture, Japan","title":"Hitachi Mfg Site","weight":"0","co2e":"0","energy":"0","water":"0","youtube:link":""}},{"type":"Feature","geometry":{"type":"Point","coordinates":[-80.085058999998,42.129224099999]},"properties":{"url:moreinfo":"","description":"Tier 2","address":"Erie, PA, USA","placename":"Erie, PA, USA","title":"Erie Chem"}},{"type":"Feature","geometry":{"type":"Point","coordinates":[-79.995886400004,40.440624799998]},"properties":{"url:moreinfo":"","description":"Tier 1","address":"Pittsburgh, PA, USA","placename":"Pittsburgh, PA, USA","title":"Pittsburgh Chem"}},{"type":"Feature","geometry":{"type":"Point","coordinates":[-81.695408799997,41.4994954]},"properties":{"url:moreinfo":"","description":"Manufacturing","address":"Cleveland, OH, USA","placename":"Cleveland, OH, USA","title":"Cleveland Mfg Site"}},{"type":"Feature","geometry":{"type":"Point","coordinates":[126.9779692,37.566535]},"properties":{"url:moreinfo":"","description":"Tier 2","address":"Seoul, South Korea","placename":"Seoul, South Korea","title":"Seoul Chem"}},{"type":"Feature","geometry":{"type":"Point","coordinates":[-95.369389599997,29.760192700002]},"properties":{"url:moreinfo":"","description":"Port","address":"Houston, TX","placename":"Houston, TX, USA","title":"Houston Port"}},{"type":"Feature","geometry":{"type":"Point","coordinates":[-88.180355700002,30.696440599999]},"properties":{"url:moreinfo":"","description":"Tier 1","address":"Mobile, AL, USA","placename":"USA, Mobile, AL, USA","title":"Mobile Chem"}},{"type":"Feature","geometry":{"type":"Point","coordinates":[-86.802489999998,33.520660799997]},"properties":{"url:moreinfo":"","description":"Manufacturing","address":"Birmingham, AL, USA","placename":"Birmingham, AL, USA","title":"Birmingham  Mfg Site"}},{"type":"Feature","geometry":{"type":"Point","coordinates":[129.0756416,35.179554300001]},"properties":{"url:moreinfo":"","description":"Critical, Tier 3","address":"Busan, South Korea","placename":"Busan, South Korea","title":"Busan Chem"}},{"type":"Feature","geometry":{"type":"Point","coordinates":[-118.1580556,33.804166700002]},"properties":{"url:moreinfo":"","description":"Port","address":"Long Beach, CA","placename":"Long Beach, CA, USA","title":"Long Beach Port"}},{"type":"Feature","geometry":{"type":"Point","coordinates":[-122.3477486,37.935757599999]},"properties":{"url:moreinfo":"","description":"Tier 2","address":"Richmond, CA, USA","placename":"Richmond, CA, USA","title":"Richmond Chem"}},{"type":"Feature","geometry":{"type":"Point","coordinates":[-122.2711137,37.804363699997]},"properties":{"url:moreinfo":"","description":"Tier 1","address":"Oakland, CA, USA","placename":"Oakland, CA, USA","title":"Oakland Chem"}},{"type":"Feature","geometry":{"type":"Point","coordinates":[-118.2436849,34.052234200001]},"properties":{"url:moreinfo":"","description":"Critical, Manufacturing","address":"Los Angeles, CA, USA","placename":"Los Angeles, CA, USA","title":"Los Angeles  Mfg Site"}},{"type":"Feature","geometry":{"type":"LineString","coordinates":[[-122.2711137,37.804363699997],[-118.2436849,34.052234200001]]},"properties":{"distance":"552.659153","title":"Oakland Chem to Los Angeles  Mfg Site","transportation":"Truck"}},{"type":"Feature","geometry":{"type":"LineString","coordinates":[[-122.3477486,37.935757599999],[-122.2711137,37.804363699997]]},"properties":{"distance":"16.084535","title":"Richmond Chem to Oakland Chem","transportation":"Truck"}},{"type":"Feature","geometry":{"type":"LineString","coordinates":[[-118.1580556,33.804166700002],[-122.3477486,37.935757599999]]},"properties":{"distance":"594.474325","title":"Long Beach Port to Richmond Chem","transportation":"Rail"}},{"type":"Feature","geometry":{"type":"LineString","coordinates":[[129.0756416,35.179554300001],[-118.1580556,33.804166700002]]},"properties":{"distance":"9639.619565","title":"Busan Chem to Long Beach Port","transportation":"Ship"}},{"type":"Feature","geometry":{"type":"LineString","coordinates":[[-88.180355700002,30.696440599999],[-86.802489999998,33.520660799997]]},"properties":{"distance":"339.786434","title":"Mobile Chem to Birmingham  Mfg Site","transportation":"Rail"}},{"type":"Feature","geometry":{"type":"LineString","coordinates":[[-95.369389599997,29.760192700002],[-88.180355700002,30.696440599999]]},"properties":{"distance":"698.361469","title":"Houston Port to Mobile Chem","transportation":"Ship"}},{"type":"Feature","geometry":{"type":"LineString","coordinates":[[126.9779692,37.566535],[-95.369389599997,29.760192700002]]},"properties":{"distance":"11328.989233","title":"Seoul Chem to Houston Port","transportation":"Ship"}},{"type":"Feature","geometry":{"type":"LineString","coordinates":[[-79.995886400004,40.440624799998],[-81.695408799997,41.4994954]]},"properties":{"distance":"184.987625","title":"Pittsburgh Chem to Cleveland Mfg Site","transportation":"Rail"}},{"type":"Feature","geometry":{"type":"LineString","coordinates":[[-80.085058999998,42.129224099999],[-79.995886400004,40.440624799998]]},"properties":{"distance":"187.911417","title":"Erie Chem to Pittsburgh Chem","transportation":"Rail"}},{"type":"Feature","geometry":{"type":"LineString","coordinates":[[140.4712215,36.365855599997],[0,0]]},"properties":{"distance":"14276.969116","title":"Mito Chem to Hitachi Mfg Site","transportation":"Rail"}},{"type":"Feature","geometry":{"type":"LineString","coordinates":[[129.0756416,35.179554300001],[140.4712215,36.365855599997]]},"properties":{"distance":"1035.882531","title":"Busan Chem to Mito Chem","transportation":"Ship"}},{"type":"Feature","geometry":{"type":"LineString","coordinates":[[126.9779692,37.566535],[126.9779692,37.566535]]},"properties":{"distance":"0","title":"Seoul Chem to Seoul Mfg Site","transportation":"Rail"}},{"type":"Feature","geometry":{"type":"LineString","coordinates":[[126.7052062,37.4562557],[126.9779692,37.566535]]},"properties":{"distance":"27.003433","title":"Benzene pipeline to Seoul Chem","transportation":"Pipeline"}},{"type":"Feature","geometry":{"type":"LineString","coordinates":[[113.264435,23.129162999999],[114.057868,22.543099000001]]},"properties":{"distance":"104.202067","title":"Guangzhou Chem to Shenzhen Mfg Site","transportation":"Truck"}},{"type":"Feature","geometry":{"type":"LineString","coordinates":[[98.330746799997,7.9843109000014],[100.6647101,13.820309999997]]},"properties":{"distance":"697.133948","title":"Phuket Chemical to Bangkok Mfg Site","transportation":"Ship"}},{"type":"Feature","geometry":{"type":"LineString","coordinates":[[-118.2436849,34.052234200001],[-121.4943996,38.5815719]]},"properties":{"distance":"581.683279","title":"Los Angeles  Mfg Site to Sacramento DC","transportation":"Truck"}},{"type":"Feature","geometry":{"type":"LineString","coordinates":[[-121.4943996,38.5815719],[-121.4943996,38.5815719]]},"properties":{"distance":"0","title":"Sacramento DC to UC Sacramento Hospital","transportation":"Truck"}},{"type":"Feature","geometry":{"type":"LineString","coordinates":[[-121.4943996,38.5815719],[-122.4578733,37.763085499997]]},"properties":{"distance":"124.001165","title":"Sacramento DC to UC San Francisco Medical Center","transportation":"Truck"}},{"type":"Feature","geometry":{"type":"LineString","coordinates":[[-118.2436849,34.052234200001],[-122.3320708,47.6062095]]},"properties":{"distance":"1545.302693","title":"Los Angeles  Mfg Site to Seattle  DC","transportation":"Truck"}},{"type":"Feature","geometry":{"type":"LineString","coordinates":[[-122.3320708,47.6062095],[-122.121512,47.673988099998]]},"properties":{"distance":"17.483231","title":"Seattle  DC to Redmond Hospital","transportation":"Truck"}},{"type":"Feature","geometry":{"type":"LineString","coordinates":[[-118.2436849,34.052234200001],[-122.6762071,45.523451499997]]},"properties":{"co2e":"0","distance":"1330.013366","title":"Los Angeles  Mfg Site to Portland DC","transportation":"Truck"}},{"type":"Feature","geometry":{"type":"LineString","coordinates":[[-122.6762071,45.523451499997],[-122.6136025,45.5265959]]},"properties":{"distance":"4.889597","title":"Portland DC to Providence Portland Medical Center","transportation":"Truck"}},{"type":"Feature","geometry":{"type":"LineString","coordinates":[[-118.2436849,34.052234200001],[-118.2436849,34.052234200001]]},"properties":{"distance":"0","title":"Los Angeles  Mfg Site to Los Angeles DC","transportation":"Truck"}},{"type":"Feature","geometry":{"type":"LineString","coordinates":[[-118.2436849,34.052234200001],[-118.4464735,34.064983199999]]},"properties":{"distance":"18.734821","title":"Los Angeles DC to UCLA Medical Center","transportation":"Truck"}},{"type":"Feature","geometry":{"type":"LineString","coordinates":[[-118.2436849,34.052234200001],[-117.1659225,32.754257000002]]},"properties":{"distance":"175.609817","title":"Los Angeles DC to UC San Diego Medical Center","transportation":"Truck"}},{"type":"Feature","geometry":{"type":"LineString","coordinates":[[-118.2436849,34.052234200001],[-112.0740373,33.448377099997]]},"properties":{"distance":"574.261721","title":"Los Angeles  Mfg Site to Phoenix  DC","transportation":"Truck"}},{"type":"Feature","geometry":{"type":"LineString","coordinates":[[-112.0740373,33.448377099997],[-111.921842,33.671024000004]]},"properties":{"distance":"28.492038","title":"Phoenix  DC to Scottsdale Healthcare","transportation":"Truck"}},{"type":"Feature","geometry":{"type":"LineString","coordinates":[[-118.2436849,34.052234200001],[-113.0011989,40.507091999997]]},"properties":{"distance":"854.182288","title":"Los Angeles  Mfg Site to Salt Lake City DC","transportation":"Truck"}},{"type":"Feature","geometry":{"type":"LineString","coordinates":[[-113.0011989,40.507091999997],[-111.841536,40.772250000003]]},"properties":{"distance":"102.193577","title":"Salt Lake City DC to University of Utah Health Care","transportation":"Truck"}},{"type":"Feature","geometry":{"type":"LineString","coordinates":[[-118.2436849,34.052234200001],[-104.9847034,39.739153599999]]},"properties":{"distance":"1335.948028","title":"Los Angeles  Mfg Site to Denver DC","transportation":"Truck"}},{"type":"Feature","geometry":{"type":"LineString","coordinates":[[-104.9847034,39.739153599999],[-105.018246,39.849600999999]]},"properties":{"distance":"12.611113","title":"Denver DC to St. Anthony North Hospital","transportation":"Truck"}},{"type":"Feature","geometry":{"type":"LineString","coordinates":[[-118.2436849,34.052234200001],[-105.937799,35.6869752]]},"properties":{"distance":"1136.501610","title":"Los Angeles  Mfg Site to Santa Fe DC","transportation":"Truck"}},{"type":"Feature","geometry":{"type":"LineString","coordinates":[[-105.937799,35.6869752],[-105.9456897,35.657871599998]]},"properties":{"distance":"3.313738","title":"Santa Fe DC to CHRISTUS ST. VINCENT Regional Medical Center","transportation":"Truck"}},{"type":"Feature","geometry":{"type":"LineString","coordinates":[[-118.2436849,34.052234200001],[-116.211076,43.612631000003]]},"properties":{"distance":"1077.449491","title":"Los Angeles  Mfg Site to Boise  DC","transportation":"Truck"}},{"type":"Feature","geometry":{"type":"LineString","coordinates":[[-116.211076,43.612631000003],[-112.6421926,45.374913099999]]},"properties":{"distance":"344.230686","title":"Boise  DC to Barrett Memorial Hospital","transportation":"Truck"}},{"type":"Feature","geometry":{"type":"LineString","coordinates":[[-86.802489999998,33.520660799997],[-96.769922999997,32.802954999999]]},"properties":{"distance":"930.876222","title":"Birmingham  Mfg Site to Dallas DC","transportation":"Truck"}},{"type":"Feature","geometry":{"type":"LineString","coordinates":[[-96.769922999997,32.802954999999],[-96.836993000002,32.810425000003]]},"properties":{"distance":"6.323137","title":"Dallas DC to Parkland Health & Hospital System","transportation":"Truck"}},{"type":"Feature","geometry":{"type":"LineString","coordinates":[[-86.802489999998,33.520660799997],[-84.387982400002,33.7489954]]},"properties":{"distance":"224.965084","title":"Birmingham  Mfg Site to Atlanta DC","transportation":"Truck"}},{"type":"Feature","geometry":{"type":"LineString","coordinates":[[-84.387982400002,33.7489954],[-84.382448700004,33.752311999997]]},"properties":{"distance":"0.630679","title":"Atlanta DC to Grady","transportation":"Truck"}},{"type":"Feature","geometry":{"type":"LineString","coordinates":[[-84.387982400002,33.7489954],[-84.292712900004,33.7774101]]},"properties":{"distance":"9.356425","title":"Atlanta DC to DeKalb Medical Center - Decatur","transportation":"Truck"}},{"type":"Feature","geometry":{"type":"LineString","coordinates":[[-86.802489999998,33.520660799997],[-81.379236499997,28.538335500004]]},"properties":{"distance":"757.329043","title":"Birmingham  Mfg Site to Orlando DC","transportation":"Truck"}},{"type":"Feature","geometry":{"type":"LineString","coordinates":[[-81.379236499997,28.538335500004],[-82.3433446,29.639798100001]]},"properties":{"distance":"154.195755","title":"Orlando DC to Shands Hospital at the University of Florida","transportation":"Truck"}},{"type":"Feature","geometry":{"type":"LineString","coordinates":[[-81.695408799997,41.4994954],[-87.629798199997,41.878113600002]]},"properties":{"distance":"494.467905","title":"Cleveland Mfg Site to Chicago DC","transportation":"Truck"}},{"type":"Feature","geometry":{"type":"LineString","coordinates":[[-87.629798199997,41.878113600002],[-88.023767400004,43.042453700002]]},"properties":{"distance":"133.441063","title":"Chicago DC to Children's Hospital of Wisconsin","transportation":"Truck"}},{"type":"Feature","geometry":{"type":"LineString","coordinates":[[-81.695408799997,41.4994954],[-73.950000000004,40.650000000002]]},"properties":{"distance":"655.860793","title":"Cleveland Mfg Site to New York DC","transportation":"Truck"}},{"type":"Feature","geometry":{"type":"LineString","coordinates":[[-73.950000000004,40.650000000002],[-79.995220999997,40.441531999997]]},"properties":{"distance":"511.219166","title":"New York DC to UPMC","transportation":"Truck"}},{"type":"Feature","geometry":{"type":"LineString","coordinates":[[-73.950000000004,40.650000000002],[-0.09313200000396,51.4701612]]},"properties":{"co2e":"0","distance":"5574.494429","title":"New York DC to King's College Hospital","transportation":"Truck"}},{"type":"Feature","geometry":{"type":"LineString","coordinates":[[-81.695408799997,41.4994954],[-84.512019599999,39.103118199997]]},"properties":{"distance":"357.806491","title":"Cleveland Mfg Site to Cincinatti DC","transportation":"Truck"}},{"type":"Feature","geometry":{"type":"LineString","coordinates":[[-84.512019599999,39.103118199997],[-84.502180000004,39.141218000003]]},"properties":{"distance":"4.320701","title":"Cincinatti DC to Children's Hospital Med Center","transportation":"Truck"}},{"type":"Feature","geometry":{"type":"LineString","coordinates":[[-81.695408799997,41.4994954],[-72.516666999997,42.366667000003]]},"properties":{"distance":"764.986255","title":"Cleveland Mfg Site to Amherst DC","transportation":"Truck"}},{"type":"Feature","geometry":{"type":"LineString","coordinates":[[-72.516666999997,42.366667000003],[-71.133776000002,42.374414000003]]},"properties":{"distance":"113.607931","title":"Amherst DC to Mount Auburn Hospital","transportation":"Truck"}},{"type":"Feature","geometry":{"type":"LineString","coordinates":[[-81.695408799997,41.4994954],[-77.106769799999,38.879969699997]]},"properties":{"distance":"486.465906","title":"Cleveland Mfg Site to Arlington DC","transportation":"Truck"}},{"type":"Feature","geometry":{"type":"LineString","coordinates":[[-77.106769799999,38.879969699997],[-77.075648699998,38.911844699998]]},"properties":{"distance":"4.451522","title":"Arlington DC to Georgetown University Hospital","transportation":"Truck"}},{"type":"Feature","geometry":{"type":"LineString","coordinates":[[0,0],[130.4017155,33.590354700002]]},"properties":{"distance":"13641.133614","title":"Hitachi Mfg Site to Fukuoka DC","transportation":"Truck"}},{"type":"Feature","geometry":{"type":"LineString","coordinates":[[130.4017155,33.590354700002],[139.6917064,35.6894875]]},"properties":{"distance":"880.958239","title":"Fukuoka DC to St. Luke's International Hospital","transportation":"Truck"}},{"type":"Feature","geometry":{"type":"LineString","coordinates":[[126.9779692,37.566535],[126.8308848,37.321877800001]]},"properties":{"distance":"30.144689","title":"Seoul Mfg Site to Ansan DC","transportation":"Truck"}},{"type":"Feature","geometry":{"type":"LineString","coordinates":[[126.8308848,37.321877800001],[126.7052062,37.4562557]]},"properties":{"distance":"18.615945","title":"Ansan DC to Incheon Hospital","transportation":"Truck"}},{"type":"Feature","geometry":{"type":"LineString","coordinates":[[114.057868,22.543099000001],[114.057868,22.543099000001]]},"properties":{"distance":"0","title":"Shenzhen Mfg Site to Shenzhen DC","transportation":"Truck"}},{"type":"Feature","geometry":{"type":"LineString","coordinates":[[114.057868,22.543099000001],[114.416196,23.111846999997]]},"properties":{"distance":"73.130964","title":"Shenzhen DC to Huiyang Hospital","transportation":"Truck"}},{"type":"Feature","geometry":{"type":"LineString","coordinates":[[100.6647101,13.820309999997],[101.4339148,12.830844699999]]},"properties":{"distance":"137.956529","title":"Bangkok Mfg Site to Rayong DC","transportation":"Truck"}},{"type":"Feature","geometry":{"type":"LineString","coordinates":[[101.4339148,12.830844699999],[101.2523792,13.201746099996]]},"properties":{"distance":"45.691665","title":"Rayong DC to Bangkok Hospital Pattaya","transportation":"Truck"}},{"type":"Feature","geometry":{"type":"LineString","coordinates":[[101.4339148,12.830844699999],[78.4166998,17.491860799997]]},"properties":{"distance":"2522.150392","title":"Rayong DC to Hyderabad Hospitals","transportation":"Truck"}}],"properties":{"description":"Test XYZ","title":"Gamma Corp_v2"}}