{"supplychain":{"category":19,"created":1330644141,"enable_comments":true,"flags":0,"id":2115,"modified":1331244988,"other_perms":1,"passcode":null,"user_featured":false,"usergroup_id":null,"usergroup_perms":0,"user_id":1315,"owner":{"id":1315,"name":"cljim22","avatar":"http:\/\/free.sourcemap.com\/assets\/images\/default-user.png","banner_url":null,"display_name":null},"taxonomy":[{"description":"Test Maps","id":19,"left":35,"name":"test-maps","right":36,"title":"Test Maps "}],"attributes":{"description":"Supply Chains for 19th century industry.","tags":"","title":"West Ham Industry"},"stops":[{"local_stop_id":41,"id":41,"geometry":"POINT(2188.986467 6710338.537384)","attributes":{"description":"Royal Primrose Soap Works","address":"51.500668, 0.019664","placename":"51.500668,0.019664","title":"Soap"}},{"local_stop_id":40,"id":40,"geometry":"POINT(2000.967847 6710610.892269)","attributes":{"description":"Peruvian Guano Works","address":"51.502191,  0.017975","placename":"51.502191,0.017975","title":"Guano Fertalizer"}},{"local_stop_id":39,"id":39,"geometry":"POINT(1846.456394 6710871.989542)","attributes":{"description":"Lyle Sugar","address":"51.503651, 0.016587","placename":"51.503651,0.016587","title":"Sugar"}},{"local_stop_id":38,"id":38,"geometry":"POINT(5438.513723 6710302.772481)","attributes":{"description":"Tate Sugar","address":"51.500468, 0.048855","placename":"51.500468,0.048855","title":"Sugar"}},{"local_stop_id":37,"id":37,"geometry":"POINT(-1835.213125 6715968.280362)","attributes":{"description":"East London Soap Works","address":"51.532139, -0.016486","placename":"51.532139,-0.016486","title":"Soap"}},{"local_stop_id":36,"id":36,"geometry":"POINT(4475.266169 6710539.1814)","attributes":{"description":"India Rubber Gutta Percha and Telegraph Works","address":"51.50179,  0.040202","placename":"51.50179,0.040202","title":"Telegraph Cables"}},{"local_stop_id":35,"id":35,"geometry":"POINT(-1012.11681 6716251.560774)","attributes":{"description":"Howard & Sons","address":"51.533722, -0.009092","placename":"51.533722,-0.009091999999999999","title":"Qunine"}},{"local_stop_id":34,"id":34,"geometry":"POINT(-180090.445816 7357646.413223)","attributes":{"address":"Newcastle, England","placename":"Newcastle Upon Tyne, Tyne and Wear, UK","title":"Coal"}},{"local_stop_id":33,"id":33,"geometry":"POINT(4686.439243 6710394.330946)","attributes":{"address":"51.500980, 0.042099","placename":"51.50098,0.042099","title":"Caustic Soda"}},{"local_stop_id":32,"id":32,"geometry":"POINT(1619706.606045 6026746.974644)","attributes":{"address":"Austria","placename":"Austria","title":"Mined Pot Ash"}},{"local_stop_id":31,"id":31,"geometry":"POINT(-467836.39044 7656721.010178)","attributes":{"address":"Scotland","placename":"Scotland, UK","title":"Kelp Ash Potash"}},{"local_stop_id":30,"id":30,"geometry":"POINT(-11838468.395229 7584411.732747)","attributes":{"address":"Canada","placename":"Canada","title":"Hardwood Ash Potash"}},{"local_stop_id":29,"id":29,"geometry":"POINT(-10654710.288472 4451692.554811)","attributes":{"address":"United States","placename":"United States","title":"Hardword Ash Potash"}},{"local_stop_id":28,"id":28,"geometry":"POINT(965727.418131 1015263.983184)","attributes":{"address":"Nigeria","placename":"Nigeria","title":"Palm Oil"}},{"local_stop_id":27,"id":27,"geometry":"POINT(-1004.547085 6715634.369291)","attributes":{"address":"51.530273, -0.009024","placename":"51.530273,-0.009024000000000001","title":"Animal Fat"}},{"local_stop_id":26,"id":26,"geometry":"POINT(8790107.59317 2343495.165705)","attributes":{"address":"India","placename":"India","title":"Jute"}},{"local_stop_id":25,"id":25,"geometry":"POINT(-8504808.873967 -1534092.147667)","attributes":{"address":"-13.649999, -76.399998","placename":"-13.649999,-76.399998","title":"Guano"}},{"local_stop_id":24,"id":24,"geometry":"POINT(-180090.445816 7357646.413223)","attributes":{"address":"Newcastle, England","placename":"Newcastle Upon Tyne, Tyne and Wear, UK","title":"Coal"}},{"local_stop_id":23,"id":23,"geometry":"POINT(-8658559.903747 2454202.390949)","attributes":{"address":"Cuba","placename":"Cuba","title":"Sugarcane"}},{"local_stop_id":22,"id":22,"geometry":"POINT(-8604719.230149 2050378.802628)","attributes":{"address":"Jamaica","placename":"Jamaica","title":"Sugarcane"}},{"local_stop_id":21,"id":21,"geometry":"POINT(-180090.445816 7357646.413223)","attributes":{"address":"Newcastle, England","placename":"Newcastle Upon Tyne, Tyne and Wear, UK","title":"Coal"}},{"local_stop_id":20,"id":20,"geometry":"POINT(-8658559.903747 2454202.390949)","attributes":{"address":"Cuba","placename":"Cuba","title":"Sugarcane"}},{"local_stop_id":19,"id":19,"geometry":"POINT(-8604719.230149 2050378.802628)","attributes":{"address":"Jamaica","placename":"Jamaica","title":"Sugarcane"}},{"local_stop_id":18,"id":18,"geometry":"POINT(-180090.445816 7357646.413223)","attributes":{"address":"Newcastle, England","placename":"Newcastle Upon Tyne, Tyne and Wear, UK","title":"Coal"}},{"local_stop_id":17,"id":17,"geometry":"POINT(4686.439243 6710394.330946)","attributes":{"address":"51.500980, 0.042099","placename":"51.50098,0.042099","title":"Caustic Soda"}},{"local_stop_id":16,"id":16,"geometry":"POINT(1619706.606045 6026746.974644)","attributes":{"address":"Austria","placename":"Austria","title":"Mined Pot Ash"}},{"local_stop_id":15,"id":15,"geometry":"POINT(-467836.39044 7656721.010178)","attributes":{"address":"Scotland","placename":"Scotland, UK","title":"Kelp Ash Potash"}},{"local_stop_id":14,"id":14,"geometry":"POINT(-11838468.395229 7584411.732747)","attributes":{"address":"Canada","placename":"Canada","title":"Hardwood Ash Potash"}},{"local_stop_id":13,"id":13,"geometry":"POINT(-10654710.288472 4451692.554811)","attributes":{"address":"United States","placename":"United States","title":"Hardword Ash Potash"}},{"local_stop_id":12,"id":12,"geometry":"POINT(965727.418131 1015263.983184)","attributes":{"address":"Nigeria","placename":"Nigeria","title":"Palm Oil"}},{"local_stop_id":11,"id":11,"geometry":"POINT(-1004.547085 6715634.369291)","attributes":{"address":"51.530273, -0.009024","placename":"51.530273,-0.009024000000000001","title":"Animal Fat"}},{"local_stop_id":10,"id":10,"geometry":"POINT(11351890.344374 469131.367658)","attributes":{"address":"Malaysia","placename":"Malaysia","title":"Gutta Percha"}},{"local_stop_id":9,"id":9,"geometry":"POINT(-8604719.230149 2050378.802628)","attributes":{"address":"Jamaica","placename":"Jamaica","title":"Cinchona Plantation"}},{"local_stop_id":8,"id":8,"geometry":"POINT(8991475.312498 879195.517639)","attributes":{"address":"Sri Lanka","placename":"Sri Lanka","title":"Cinchona Plantation"}},{"local_stop_id":7,"id":7,"geometry":"POINT(12681664.112134 -87864.470043)","attributes":{"address":"Indonisia","placename":"Indonesia","title":"Cinchona Plantation"}},{"local_stop_id":6,"id":6,"geometry":"POINT(8615699.228123 1099278.892582)","attributes":{"address":"9.826461, 77.396143","placename":"9.826461,77.396143","title":"Cinchona Plantation"}},{"local_stop_id":5,"id":5,"geometry":"POINT(-7078656.47219 -1838348.789522)","attributes":{"address":"Bolivia","placename":"Bolivia","title":"Cinchona Forests"}},{"local_stop_id":4,"id":4,"geometry":"POINT(-8270741.276858 509367.281339)","attributes":{"address":"Columbia","placename":"Colombia","title":"Cinchona Forests"}},{"local_stop_id":3,"id":3,"geometry":"POINT(-8350648.52242 -1027437.355768)","attributes":{"address":"Peru","placename":"Peru","title":"Cinchona Forests"}},{"local_stop_id":2,"id":2,"geometry":"POINT(875.082517 6710996.639615)","attributes":{"address":"51.504348, 0.007861","placename":"51.504348,0.007861","title":"Cinchona Bark"}},{"local_stop_id":1,"id":1,"geometry":"POINT(2686.584591 6711430.873123)","attributes":{"address":"51.506776, 0.024134","placename":"51.506776,0.024134","title":"West Ham Industry"}}],"hops":[{"from_stop_id":2,"to_stop_id":1,"geometry":"MULTILINESTRING((875.082517 6710996.639615,2686.584591 6711430.873123))","attributes":{}},{"from_stop_id":3,"to_stop_id":2,"geometry":"MULTILINESTRING((-8350648.52242 -1027437.355768,875.082517 6710996.639615))","attributes":{}},{"from_stop_id":4,"to_stop_id":2,"geometry":"MULTILINESTRING((-8270741.276858 509367.281339,875.082517 6710996.639615))","attributes":{}},{"from_stop_id":5,"to_stop_id":2,"geometry":"MULTILINESTRING((-7078656.47219 -1838348.789522,875.082517 6710996.639615))","attributes":{}},{"from_stop_id":6,"to_stop_id":2,"geometry":"MULTILINESTRING((8615699.228123 1099278.892582,875.082517 6710996.639615))","attributes":{}},{"from_stop_id":7,"to_stop_id":2,"geometry":"MULTILINESTRING((12681664.112134 -87864.470043,875.082517 6710996.639615))","attributes":{}},{"from_stop_id":8,"to_stop_id":2,"geometry":"MULTILINESTRING((8991475.312498 879195.517639,875.082517 6710996.639615))","attributes":{}},{"from_stop_id":9,"to_stop_id":2,"geometry":"MULTILINESTRING((-8604719.230149 2050378.802628,875.082517 6710996.639615))","attributes":{}},{"from_stop_id":10,"to_stop_id":1,"geometry":"MULTILINESTRING((11351890.344374 469131.367658,2686.584591 6711430.873123))","attributes":{}},{"from_stop_id":11,"to_stop_id":1,"geometry":"MULTILINESTRING((-1004.547085 6715634.369291,2686.584591 6711430.873123))","attributes":{}},{"from_stop_id":12,"to_stop_id":1,"geometry":"MULTILINESTRING((965727.418131 1015263.983184,2686.584591 6711430.873123))","attributes":{}},{"from_stop_id":13,"to_stop_id":1,"geometry":"MULTILINESTRING((-10654710.288472 4451692.554811,2686.584591 6711430.873123))","attributes":{}},{"from_stop_id":14,"to_stop_id":1,"geometry":"MULTILINESTRING((-11838468.395229 7584411.732747,2686.584591 6711430.873123))","attributes":{}},{"from_stop_id":15,"to_stop_id":1,"geometry":"MULTILINESTRING((-467836.39044 7656721.010178,2686.584591 6711430.873123))","attributes":{}},{"from_stop_id":16,"to_stop_id":1,"geometry":"MULTILINESTRING((1619706.606045 6026746.974644,2686.584591 6711430.873123))","attributes":{}},{"from_stop_id":17,"to_stop_id":1,"geometry":"MULTILINESTRING((4686.439243 6710394.330946,2686.584591 6711430.873123))","attributes":{}},{"from_stop_id":18,"to_stop_id":1,"geometry":"MULTILINESTRING((-180090.445816 7357646.413223,2686.584591 6711430.873123))","attributes":{}},{"from_stop_id":19,"to_stop_id":1,"geometry":"MULTILINESTRING((-8604719.230149 2050378.802628,2686.584591 6711430.873123))","attributes":{}},{"from_stop_id":20,"to_stop_id":1,"geometry":"MULTILINESTRING((-8658559.903747 2454202.390949,2686.584591 6711430.873123))","attributes":{}},{"from_stop_id":21,"to_stop_id":1,"geometry":"MULTILINESTRING((-180090.445816 7357646.413223,2686.584591 6711430.873123))","attributes":{}},{"from_stop_id":22,"to_stop_id":1,"geometry":"MULTILINESTRING((-8604719.230149 2050378.802628,2686.584591 6711430.873123))","attributes":{}},{"from_stop_id":23,"to_stop_id":1,"geometry":"MULTILINESTRING((-8658559.903747 2454202.390949,2686.584591 6711430.873123))","attributes":{}},{"from_stop_id":24,"to_stop_id":1,"geometry":"MULTILINESTRING((-180090.445816 7357646.413223,2686.584591 6711430.873123))","attributes":{}},{"from_stop_id":25,"to_stop_id":1,"geometry":"MULTILINESTRING((-8504808.873967 -1534092.147667,2686.584591 6711430.873123))","attributes":{}},{"from_stop_id":26,"to_stop_id":1,"geometry":"MULTILINESTRING((8790107.59317 2343495.165705,2686.584591 6711430.873123))","attributes":{}},{"from_stop_id":27,"to_stop_id":1,"geometry":"MULTILINESTRING((-1004.547085 6715634.369291,2686.584591 6711430.873123))","attributes":{}},{"from_stop_id":28,"to_stop_id":1,"geometry":"MULTILINESTRING((965727.418131 1015263.983184,2686.584591 6711430.873123))","attributes":{}},{"from_stop_id":29,"to_stop_id":1,"geometry":"MULTILINESTRING((-10654710.288472 4451692.554811,2686.584591 6711430.873123))","attributes":{}},{"from_stop_id":30,"to_stop_id":1,"geometry":"MULTILINESTRING((-11838468.395229 7584411.732747,2686.584591 6711430.873123))","attributes":{}},{"from_stop_id":31,"to_stop_id":1,"geometry":"MULTILINESTRING((-467836.39044 7656721.010178,2686.584591 6711430.873123))","attributes":{}},{"from_stop_id":32,"to_stop_id":1,"geometry":"MULTILINESTRING((1619706.606045 6026746.974644,2686.584591 6711430.873123))","attributes":{}},{"from_stop_id":33,"to_stop_id":1,"geometry":"MULTILINESTRING((4686.439243 6710394.330946,2686.584591 6711430.873123))","attributes":{}},{"from_stop_id":34,"to_stop_id":1,"geometry":"MULTILINESTRING((-180090.445816 7357646.413223,2686.584591 6711430.873123))","attributes":{}},{"from_stop_id":1,"to_stop_id":35,"geometry":"MULTILINESTRING((2686.584591 6711430.873123,-1012.11681 6716251.560774))","attributes":{}},{"from_stop_id":1,"to_stop_id":36,"geometry":"MULTILINESTRING((2686.584591 6711430.873123,4475.266169 6710539.1814))","attributes":{}},{"from_stop_id":1,"to_stop_id":37,"geometry":"MULTILINESTRING((2686.584591 6711430.873123,-1835.213125 6715968.280362))","attributes":{}},{"from_stop_id":1,"to_stop_id":38,"geometry":"MULTILINESTRING((2686.584591 6711430.873123,5438.513723 6710302.772481))","attributes":{}},{"from_stop_id":1,"to_stop_id":39,"geometry":"MULTILINESTRING((2686.584591 6711430.873123,1846.456394 6710871.989542))","attributes":{}},{"from_stop_id":1,"to_stop_id":40,"geometry":"MULTILINESTRING((2686.584591 6711430.873123,2000.967847 6710610.892269))","attributes":{}},{"from_stop_id":1,"to_stop_id":41,"geometry":"MULTILINESTRING((2686.584591 6711430.873123,2188.986467 6710338.537384))","attributes":{}}]},"editable":false}