{"type":"FeatureCollection","features":[{"type":"Feature","geometry":{"type":"Point","coordinates":[-3.4359729999961,55.378051000001]},"properties":{"address":"Great Britain","placename":"United Kingdom","title":"Sugar"}},{"type":"Feature","geometry":{"type":"Point","coordinates":[-1.1743197000044,52.355517700002]},"properties":{"address":"England","placename":"England, UK","title":"Soap"}},{"type":"Feature","geometry":{"type":"Point","coordinates":[-28.945665000003,46.112075000002]},"properties":{"address":"46.112075, -28.945665","placename":"46.112075,-28.945665","title":"Underwater Cables"}},{"type":"Feature","geometry":{"type":"Point","coordinates":[64.732280999999,16.298305000004]},"properties":{"address":"16.298305, 64.732281","placename":"16.298305,64.732281","title":"Underwater Cables"}},{"type":"Feature","geometry":{"type":"Point","coordinates":[72.877655899996,19.075983700002]},"properties":{"address":"Bombay","placename":"Mumbai, Maharashtra, India","title":"Quinine"}},{"type":"Feature","geometry":{"type":"Point","coordinates":[6.4615550000024,5.2190670000032]},"properties":{"address":"5.219067,  6.461555","placename":"5.219067,6.461555","title":"Qunine"}},{"type":"Feature","geometry":{"type":"Point","coordinates":[-3.1790900000001,51.481580999998]},"properties":{"address":"Cardiff","placename":"Cardiff, UK","title":"Coal"}},{"type":"Feature","geometry":{"type":"Point","coordinates":[-1.6177800000041,54.978251999997]},"properties":{"address":"New Castle, England","placename":"Newcastle Upon Tyne, Tyne and Wear, UK","title":"Coal"}},{"type":"Feature","geometry":{"type":"Point","coordinates":[0.020014000002366,51.505502]},"properties":{"address":"51.505502, 0.020014","placename":"51.505502,0.020014","title":"Coal"}},{"type":"Feature","geometry":{"type":"Point","coordinates":[0.048855000002647,51.500468000002]},"properties":{"address":"51.500468, 0.048855","placename":"51.500468,0.048855","title":"Sugar"}},{"type":"Feature","geometry":{"type":"Point","coordinates":[-3.7492200000004,40.463667000002]},"properties":{"address":"Spain","placename":"Spain","title":"Oranges"}},{"type":"Feature","geometry":{"type":"Point","coordinates":[35.243321999997,38.963745000001]},"properties":{"address":"Turkey","placename":"Turkey","title":"Oranges"}},{"type":"Feature","geometry":{"type":"Point","coordinates":[12.567380000004,41.871939999999]},"properties":{"address":"Italy","placename":"Italy","title":"Oranges"}},{"type":"Feature","geometry":{"type":"Point","coordinates":[0.028551999998836,51.500875000002]},"properties":{"address":"51.500875, 0.028552","placename":"51.500875,0.028552","title":"Marmalade"}},{"type":"Feature","geometry":{"type":"Point","coordinates":[47.576927000002,40.143105000001]},"properties":{"address":"Azerbaijan","placename":"Azerbaijan","title":"Crude Oil"}},{"type":"Feature","geometry":{"type":"Point","coordinates":[-79.674443999998,41.629167]},"properties":{"address":"41.629167, -79.674444","placename":"41.629167,-79.67444399999999","title":"Crude Oil"}},{"type":"Feature","geometry":{"type":"Point","coordinates":[0.020283000002156,51.500029000002]},"properties":{"address":"51.500029, 0.020283","placename":"51.500029,0.020283","title":"Petroleum"}},{"type":"Feature","geometry":{"type":"Point","coordinates":[-66.063281,45.273317000003]},"properties":{"address":"45.273317, -66.063281","placename":"45.273317,-66.063281","title":"Oak"}},{"type":"Feature","geometry":{"type":"Point","coordinates":[95.956223000002,21.913964999999]},"properties":{"address":"Myanmar","placename":"Myanmar","title":"Teak"}},{"type":"Feature","geometry":{"type":"Point","coordinates":[30.121382899998,60.076238299998]},"properties":{"address":"St. Petersburg","placename":"St Petersburg, Russia","title":"Fir"}},{"type":"Feature","geometry":{"type":"Point","coordinates":[18.643501000001,60.128160999999]},"properties":{"address":"Sweden","placename":"Sweden","title":"Fir"}},{"type":"Feature","geometry":{"type":"Point","coordinates":[8.4689460000024,60.472024]},"properties":{"address":"Norway","placename":"Norway","title":"Fir"}},{"type":"Feature","geometry":{"type":"Point","coordinates":[-0.013655000001957,51.531574000002]},"properties":{"address":"51.531574, -0.013655","placename":"51.531574,-0.013655","title":"Timber"}},{"type":"Feature","geometry":{"type":"Point","coordinates":[-73.553992499998,45.508669900003]},"properties":{"address":"Montreal","placename":"Montreal, QC, Canada","title":"Wheat"}},{"type":"Feature","geometry":{"type":"Point","coordinates":[-87.629798199997,41.878113600002]},"properties":{"address":"Chicago","placename":"Chicago, IL, USA","title":"Wheat"}},{"type":"Feature","geometry":{"type":"Point","coordinates":[0.030332999997913,51.505334000001]},"properties":{"address":"51.505334, 0.030333","placename":"51.505334,0.030333","title":"Floor"}},{"type":"Feature","geometry":{"type":"Point","coordinates":[78.962879999997,20.593684000004]},"properties":{"address":"India","placename":"India","title":"Jute"}},{"type":"Feature","geometry":{"type":"Point","coordinates":[-0.0074739999983028,51.53759]},"properties":{"address":"51.537590, -0.007474","placename":"51.53759,-0.007474","title":"Jute"}},{"type":"Feature","geometry":{"type":"Point","coordinates":[-76.399997999999,-13.649998999999]},"properties":{"address":"-13.649999, -76.399998","placename":"-13.649999,-76.399998","title":"Guano"}},{"type":"Feature","geometry":{"type":"Point","coordinates":[-63.616672000003,-38.416096999997]},"properties":{"address":"Argentina","placename":"Argentina","title":"Bones"}},{"type":"Feature","geometry":{"type":"Point","coordinates":[78.962879999997,20.593684000004]},"properties":{"address":"India","placename":"India","title":"Bones"}},{"type":"Feature","geometry":{"type":"Point","coordinates":[-71.542969,-35.675146999998]},"properties":{"address":"Chile","placename":"Chile","title":"Cubic Nitre"}},{"type":"Feature","geometry":{"type":"Point","coordinates":[0.017974999999918,51.502191]},"properties":{"address":"51.502191,  0.017975","placename":"51.502191,0.017975","title":"Fertalizer"}},{"type":"Feature","geometry":{"type":"Point","coordinates":[-1.6177800000041,54.978251999997]},"properties":{"address":"Newcastle, England","placename":"Newcastle Upon Tyne, Tyne and Wear, UK","title":"Coal"}},{"type":"Feature","geometry":{"type":"Point","coordinates":[10.451526000003,51.165690999999]},"properties":{"address":"Germany","placename":"Germany","title":"Sugar Beet Root"}},{"type":"Feature","geometry":{"type":"Point","coordinates":[2.2137489999989,46.227638]},"properties":{"address":"France","placename":"France","title":"Sugar Beet Root"}},{"type":"Feature","geometry":{"type":"Point","coordinates":[4.4699360000043,50.503887000001]},"properties":{"address":"Belgium","placename":"Belgium","title":"Sugar Beet Root"}},{"type":"Feature","geometry":{"type":"Point","coordinates":[80.249583000004,13.060421999997]},"properties":{"address":"Chennai, Tamil Nadu","placename":"Chennai, Tamil Nadu, India","title":"Sugarcane"}},{"type":"Feature","geometry":{"type":"Point","coordinates":[-79.9192702,-6.4776528000035]},"properties":{"address":"Lambayeque, Peru","placename":"Lambayeque, Peru","title":"Sugarcane"}},{"type":"Feature","geometry":{"type":"Point","coordinates":[121.774017,12.879720999999]},"properties":{"address":"Philippines","placename":"Philippines","title":"Sugarcane"}},{"type":"Feature","geometry":{"type":"Point","coordinates":[-41.280857700004,-11.409873699999]},"properties":{"address":"Bahia, Brazil","placename":"Bahia, Brazil","title":"Sugarcane"}},{"type":"Feature","geometry":{"type":"Point","coordinates":[-58.93018,4.8604159999962]},"properties":{"address":"Guiana","placename":"Guyana","title":"Sugarcane"}},{"type":"Feature","geometry":{"type":"Point","coordinates":[113.921327,-0.78927499999687]},"properties":{"address":"Indonisia","placename":"Indonesia","title":"Sugarcane"}},{"type":"Feature","geometry":{"type":"Point","coordinates":[-77.297508,18.109580999997]},"properties":{"address":"Jamaica","placename":"Jamaica","title":"Sugarcane"}},{"type":"Feature","geometry":{"type":"Point","coordinates":[0.048855000002647,51.500468000002]},"properties":{"address":"51.500468, 0.048855","placename":"51.500468,0.048855","title":"Sugar"}},{"type":"Feature","geometry":{"type":"Point","coordinates":[0.042099000000844,51.500980000001]},"properties":{"address":"51.500980, 0.042099","placename":"51.50098,0.042099","title":"Caustic Soda"}},{"type":"Feature","geometry":{"type":"Point","coordinates":[80.771797000003,7.8730540000028]},"properties":{"address":"Sri Lanka","placename":"Sri Lanka","title":"Coconut Oil"}},{"type":"Feature","geometry":{"type":"Point","coordinates":[146.921099,-31.253218299999]},"properties":{"address":"New South Wales","placename":"New South Wales, Australia","title":"Coconut Oil"}},{"type":"Feature","geometry":{"type":"Point","coordinates":[11.579038900004,51.8608995]},"properties":{"address":"Stassfurt, Germany","placename":"Sta\u00dffurt, Germany","title":"Mined Pot Ash"}},{"type":"Feature","geometry":{"type":"Point","coordinates":[-77.502663999998,44.318117999999]},"properties":{"address":"44.318118, -77.502664","placename":"44.318118,-77.502664","title":"Hardword Ash Potash"}},{"type":"Feature","geometry":{"type":"Point","coordinates":[8.6752770000036,9.0819989999966]},"properties":{"address":"Nigeria","placename":"Nigeria","title":"Palm Oil"}},{"type":"Feature","geometry":{"type":"Point","coordinates":[-0.0090240000007321,51.530272999999]},"properties":{"address":"51.530273, -0.009024","placename":"51.530273,-0.009024000000000001","title":"Tallow"}},{"type":"Feature","geometry":{"type":"Point","coordinates":[-95.712890999999,37.090240000003]},"properties":{"address":"United States","placename":"United States","title":"Tallow"}},{"type":"Feature","geometry":{"type":"Point","coordinates":[174.885971,-40.900556999999]},"properties":{"address":"New Zealand","placename":"New Zealand","title":"Tallow"}},{"type":"Feature","geometry":{"type":"Point","coordinates":[133.775136,-25.274397999999]},"properties":{"address":"Australia","placename":"Australia","title":"Tallow"}},{"type":"Feature","geometry":{"type":"Point","coordinates":[-63.616672000003,-38.416096999997]},"properties":{"address":"Argentina","placename":"Argentina","title":"Tallow"}},{"type":"Feature","geometry":{"type":"Point","coordinates":[0.019664000000369,51.500668000002]},"properties":{"address":"51.500668, 0.019664","placename":"51.500668,0.019664","title":"Soap"}},{"type":"Feature","geometry":{"type":"Point","coordinates":[-51.925279999999,-14.235004]},"properties":{"address":"Brazil","placename":"Brazil","title":"Caoutchouc Rubber"}},{"type":"Feature","geometry":{"type":"Point","coordinates":[78.962879999997,20.593684000004]},"properties":{"address":"India","placename":"India","title":"Caoutchouc Rubber"}},{"type":"Feature","geometry":{"type":"Point","coordinates":[-1.0231940000024,7.9465270000027]},"properties":{"address":"Ghana","placename":"Ghana","title":"Caoutchouc Rubber"}},{"type":"Feature","geometry":{"type":"Point","coordinates":[101.975766,4.2104840000023]},"properties":{"address":"Malaysia","placename":"Malaysia","title":"Gutta Percha"}},{"type":"Feature","geometry":{"type":"Point","coordinates":[0.040202000001157,51.50179]},"properties":{"address":"51.50179,  0.040202","placename":"51.50179,0.040202","title":"Telegraph Cables and Rubber"}},{"type":"Feature","geometry":{"type":"Point","coordinates":[113.921327,-0.78927499999687]},"properties":{"address":"Indonisia","placename":"Indonesia","title":"Cinchona Plantation"}},{"type":"Feature","geometry":{"type":"Point","coordinates":[77.396142999997,9.8264609999956]},"properties":{"address":"9.826461, 77.396143","placename":"9.826461,77.396143","title":"Cinchona Plantation"}},{"type":"Feature","geometry":{"type":"Point","coordinates":[-63.588652999998,-16.290154000002]},"properties":{"address":"Bolivia","placename":"Bolivia","title":"Cinchona Forests"}},{"type":"Feature","geometry":{"type":"Point","coordinates":[-74.297332999997,4.5708679999982]},"properties":{"address":"Columbia","placename":"Colombia","title":"Cinchona Forests"}},{"type":"Feature","geometry":{"type":"Point","coordinates":[-75.015152,-9.1899670000004]},"properties":{"address":"Peru","placename":"Peru","title":"Cinchona Forests"}},{"type":"Feature","geometry":{"type":"Point","coordinates":[-0.0090919999973729,51.533722000001]},"properties":{"address":"51.533722, -0.009092","placename":"51.533722,-0.009091999999999999","title":"Qunine"}},{"type":"Feature","geometry":{"type":"Point","coordinates":[0.024134000001753,51.506775999999]},"properties":{"address":"51.506776, 0.024134","placename":"51.506776,0.024134","title":"West Ham Industry"}},{"type":"Feature","geometry":{"type":"LineString","coordinates":[[-0.0090919999973729,51.533722000001],[0.024134000001753,51.506775999999]]},"properties":[]},{"type":"Feature","geometry":{"type":"LineString","coordinates":[[-75.015152,-9.1899670000004],[-0.0090919999973729,51.533722000001]]},"properties":[]},{"type":"Feature","geometry":{"type":"LineString","coordinates":[[-74.297332999997,4.5708679999982],[-0.0090919999973729,51.533722000001]]},"properties":[]},{"type":"Feature","geometry":{"type":"LineString","coordinates":[[-63.588652999998,-16.290154000002],[-0.0090919999973729,51.533722000001]]},"properties":[]},{"type":"Feature","geometry":{"type":"LineString","coordinates":[[77.396142999997,9.8264609999956],[-0.0090919999973729,51.533722000001]]},"properties":[]},{"type":"Feature","geometry":{"type":"LineString","coordinates":[[113.921327,-0.78927499999687],[-0.0090919999973729,51.533722000001]]},"properties":[]},{"type":"Feature","geometry":{"type":"LineString","coordinates":[[0.040202000001157,51.50179],[0.024134000001753,51.506775999999]]},"properties":[]},{"type":"Feature","geometry":{"type":"LineString","coordinates":[[101.975766,4.2104840000023],[0.040202000001157,51.50179]]},"properties":[]},{"type":"Feature","geometry":{"type":"LineString","coordinates":[[-1.0231940000024,7.9465270000027],[0.040202000001157,51.50179]]},"properties":[]},{"type":"Feature","geometry":{"type":"LineString","coordinates":[[78.962879999997,20.593684000004],[0.040202000001157,51.50179]]},"properties":[]},{"type":"Feature","geometry":{"type":"LineString","coordinates":[[-51.925279999999,-14.235004],[0.040202000001157,51.50179]]},"properties":[]},{"type":"Feature","geometry":{"type":"LineString","coordinates":[[0.019664000000369,51.500668000002],[0.024134000001753,51.506775999999]]},"properties":[]},{"type":"Feature","geometry":{"type":"LineString","coordinates":[[-63.616672000003,-38.416096999997],[0.019664000000369,51.500668000002]]},"properties":[]},{"type":"Feature","geometry":{"type":"LineString","coordinates":[[133.775136,-25.274397999999],[0.019664000000369,51.500668000002]]},"properties":[]},{"type":"Feature","geometry":{"type":"LineString","coordinates":[[174.885971,-40.900556999999],[0.019664000000369,51.500668000002]]},"properties":[]},{"type":"Feature","geometry":{"type":"LineString","coordinates":[[-95.712890999999,37.090240000003],[0.019664000000369,51.500668000002]]},"properties":[]},{"type":"Feature","geometry":{"type":"LineString","coordinates":[[-0.0090240000007321,51.530272999999],[0.019664000000369,51.500668000002]]},"properties":[]},{"type":"Feature","geometry":{"type":"LineString","coordinates":[[8.6752770000036,9.0819989999966],[0.019664000000369,51.500668000002]]},"properties":[]},{"type":"Feature","geometry":{"type":"LineString","coordinates":[[-77.502663999998,44.318117999999],[0.019664000000369,51.500668000002]]},"properties":[]},{"type":"Feature","geometry":{"type":"LineString","coordinates":[[11.579038900004,51.8608995],[0.019664000000369,51.500668000002]]},"properties":[]},{"type":"Feature","geometry":{"type":"LineString","coordinates":[[146.921099,-31.253218299999],[0.019664000000369,51.500668000002]]},"properties":[]},{"type":"Feature","geometry":{"type":"LineString","coordinates":[[80.771797000003,7.8730540000028],[0.019664000000369,51.500668000002]]},"properties":[]},{"type":"Feature","geometry":{"type":"LineString","coordinates":[[0.042099000000844,51.500980000001],[0.019664000000369,51.500668000002]]},"properties":[]},{"type":"Feature","geometry":{"type":"LineString","coordinates":[[0.048855000002647,51.500468000002],[0.024134000001753,51.506775999999]]},"properties":[]},{"type":"Feature","geometry":{"type":"LineString","coordinates":[[-77.297508,18.109580999997],[0.048855000002647,51.500468000002]]},"properties":[]},{"type":"Feature","geometry":{"type":"LineString","coordinates":[[113.921327,-0.78927499999687],[0.048855000002647,51.500468000002]]},"properties":[]},{"type":"Feature","geometry":{"type":"LineString","coordinates":[[-58.93018,4.8604159999962],[0.048855000002647,51.500468000002]]},"properties":[]},{"type":"Feature","geometry":{"type":"LineString","coordinates":[[-41.280857700004,-11.409873699999],[0.048855000002647,51.500468000002]]},"properties":[]},{"type":"Feature","geometry":{"type":"LineString","coordinates":[[121.774017,12.879720999999],[0.048855000002647,51.500468000002]]},"properties":[]},{"type":"Feature","geometry":{"type":"LineString","coordinates":[[-79.9192702,-6.4776528000035],[0.048855000002647,51.500468000002]]},"properties":[]},{"type":"Feature","geometry":{"type":"LineString","coordinates":[[80.249583000004,13.060421999997],[0.048855000002647,51.500468000002]]},"properties":[]},{"type":"Feature","geometry":{"type":"LineString","coordinates":[[4.4699360000043,50.503887000001],[0.048855000002647,51.500468000002]]},"properties":[]},{"type":"Feature","geometry":{"type":"LineString","coordinates":[[2.2137489999989,46.227638],[0.048855000002647,51.500468000002]]},"properties":[]},{"type":"Feature","geometry":{"type":"LineString","coordinates":[[10.451526000003,51.165690999999],[0.048855000002647,51.500468000002]]},"properties":[]},{"type":"Feature","geometry":{"type":"LineString","coordinates":[[-1.6177800000041,54.978251999997],[0.048855000002647,51.500468000002]]},"properties":[]},{"type":"Feature","geometry":{"type":"LineString","coordinates":[[0.017974999999918,51.502191],[0.024134000001753,51.506775999999]]},"properties":[]},{"type":"Feature","geometry":{"type":"LineString","coordinates":[[-71.542969,-35.675146999998],[0.017974999999918,51.502191]]},"properties":[]},{"type":"Feature","geometry":{"type":"LineString","coordinates":[[78.962879999997,20.593684000004],[0.017974999999918,51.502191]]},"properties":[]},{"type":"Feature","geometry":{"type":"LineString","coordinates":[[-63.616672000003,-38.416096999997],[0.017974999999918,51.502191]]},"properties":[]},{"type":"Feature","geometry":{"type":"LineString","coordinates":[[-76.399997999999,-13.649998999999],[0.017974999999918,51.502191]]},"properties":[]},{"type":"Feature","geometry":{"type":"LineString","coordinates":[[-0.0074739999983028,51.53759],[0.024134000001753,51.506775999999]]},"properties":[]},{"type":"Feature","geometry":{"type":"LineString","coordinates":[[78.962879999997,20.593684000004],[-0.0074739999983028,51.53759]]},"properties":[]},{"type":"Feature","geometry":{"type":"LineString","coordinates":[[0.030332999997913,51.505334000001],[0.024134000001753,51.506775999999]]},"properties":[]},{"type":"Feature","geometry":{"type":"LineString","coordinates":[[-87.629798199997,41.878113600002],[0.030332999997913,51.505334000001]]},"properties":[]},{"type":"Feature","geometry":{"type":"LineString","coordinates":[[-73.553992499998,45.508669900003],[0.030332999997913,51.505334000001]]},"properties":[]},{"type":"Feature","geometry":{"type":"LineString","coordinates":[[-0.013655000001957,51.531574000002],[0.024134000001753,51.506775999999]]},"properties":[]},{"type":"Feature","geometry":{"type":"LineString","coordinates":[[8.4689460000024,60.472024],[-0.013655000001957,51.531574000002]]},"properties":[]},{"type":"Feature","geometry":{"type":"LineString","coordinates":[[18.643501000001,60.128160999999],[-0.013655000001957,51.531574000002]]},"properties":[]},{"type":"Feature","geometry":{"type":"LineString","coordinates":[[30.121382899998,60.076238299998],[-0.013655000001957,51.531574000002]]},"properties":[]},{"type":"Feature","geometry":{"type":"LineString","coordinates":[[95.956223000002,21.913964999999],[-0.013655000001957,51.531574000002]]},"properties":[]},{"type":"Feature","geometry":{"type":"LineString","coordinates":[[-66.063281,45.273317000003],[-0.013655000001957,51.531574000002]]},"properties":[]},{"type":"Feature","geometry":{"type":"LineString","coordinates":[[0.020283000002156,51.500029000002],[0.024134000001753,51.506775999999]]},"properties":[]},{"type":"Feature","geometry":{"type":"LineString","coordinates":[[-79.674443999998,41.629167],[0.020283000002156,51.500029000002]]},"properties":[]},{"type":"Feature","geometry":{"type":"LineString","coordinates":[[47.576927000002,40.143105000001],[0.020283000002156,51.500029000002]]},"properties":[]},{"type":"Feature","geometry":{"type":"LineString","coordinates":[[0.028551999998836,51.500875000002],[0.024134000001753,51.506775999999]]},"properties":[]},{"type":"Feature","geometry":{"type":"LineString","coordinates":[[12.567380000004,41.871939999999],[0.028551999998836,51.500875000002]]},"properties":[]},{"type":"Feature","geometry":{"type":"LineString","coordinates":[[35.243321999997,38.963745000001],[0.028551999998836,51.500875000002]]},"properties":[]},{"type":"Feature","geometry":{"type":"LineString","coordinates":[[-3.7492200000004,40.463667000002],[0.028551999998836,51.500875000002]]},"properties":[]},{"type":"Feature","geometry":{"type":"LineString","coordinates":[[0.048855000002647,51.500468000002],[0.028551999998836,51.500875000002]]},"properties":[]},{"type":"Feature","geometry":{"type":"LineString","coordinates":[[0.020014000002366,51.505502],[0.024134000001753,51.506775999999]]},"properties":[]},{"type":"Feature","geometry":{"type":"LineString","coordinates":[[-1.6177800000041,54.978251999997],[0.020014000002366,51.505502]]},"properties":[]},{"type":"Feature","geometry":{"type":"LineString","coordinates":[[-3.1790900000001,51.481580999998],[0.020014000002366,51.505502]]},"properties":[]},{"type":"Feature","geometry":{"type":"LineString","coordinates":[[0.024134000001753,51.506775999999],[6.4615550000024,5.2190670000032]]},"properties":[]},{"type":"Feature","geometry":{"type":"LineString","coordinates":[[0.024134000001753,51.506775999999],[72.877655899996,19.075983700002]]},"properties":[]},{"type":"Feature","geometry":{"type":"LineString","coordinates":[[0.024134000001753,51.506775999999],[64.732280999999,16.298305000004]]},"properties":[]},{"type":"Feature","geometry":{"type":"LineString","coordinates":[[0.024134000001753,51.506775999999],[-28.945665000003,46.112075000002]]},"properties":[]},{"type":"Feature","geometry":{"type":"LineString","coordinates":[[0.024134000001753,51.506775999999],[-1.1743197000044,52.355517700002]]},"properties":[]},{"type":"Feature","geometry":{"type":"LineString","coordinates":[[0.024134000001753,51.506775999999],[-3.4359729999961,55.378051000001]]},"properties":[]}],"properties":{"description":"A new test map showing some of the commodities flowing into East London during the 19th Century. Some of the locations are not overly precise in this draft. I've started pulling out the exact location of the factories (zoom into London to see these details) from my GIS database. In the weeks ahead, I will start adding some of the ports and add a few more commodities. This is the early research for a Digging into Data project called Trading Consequences, which is a partnership between environmental historians in Canada and computer scientists in Scotland.\nFor more information visit the project website and my website: http:\/\/tradingconsequences.blogs.edina.ac.uk\/\nand http:\/\/www.jimclifford.ca\/","tags":"Trading Consequences Nineteenth Century West Ham Digging Into Data London Soap Cinchona Quinine Potash Palm-Oil Guano","title":"West Ham Industry"}}