{"type":"FeatureCollection","features":[{"type":"Feature","geometry":{"type":"Point","coordinates":[72.8561644,19.017614700001]},"properties":{"address":"Bombay","placename":"Mumbai, Maharashtra, India","title":"Quinine"}},{"type":"Feature","geometry":{"type":"Point","coordinates":[6.4615550000024,5.2190670000032]},"properties":{"address":"5.219067,  6.461555","placename":"5.219067,6.461555","title":"Qunine"}},{"type":"Feature","geometry":{"type":"Point","coordinates":[0.024134000001753,51.506775999999]},"properties":{"address":"51.506776, 0.024134","placename":"51.506776,0.024134","title":"West Ham Industry"}},{"type":"Feature","geometry":{"type":"Point","coordinates":[113.921327,-0.78927499999687]},"properties":{"address":"Indonisia","placename":"Indonesia","title":"Cinchona Plantation"}},{"type":"Feature","geometry":{"type":"Point","coordinates":[77.396142999997,9.8264609999956]},"properties":{"address":"9.826461, 77.396143","placename":"9.826461,77.396143","title":"Cinchona Plantation"}},{"type":"Feature","geometry":{"type":"Point","coordinates":[-63.588652999998,-16.290154000002]},"properties":{"address":"Bolivia","placename":"Bolivia","title":"Cinchona Forests"}},{"type":"Feature","geometry":{"type":"Point","coordinates":[-74.297332999997,4.5708679999982]},"properties":{"address":"Columbia","placename":"Colombia","title":"Cinchona Forests"}},{"type":"Feature","geometry":{"type":"Point","coordinates":[-75.015152,-9.1899670000004]},"properties":{"address":"Peru","placename":"Peru","title":"Cinchona Forests"}},{"type":"Feature","geometry":{"type":"Point","coordinates":[-0.0090919999973729,51.533722000001]},"properties":{"address":"51.533722, -0.009092","placename":"51.533722,-0.009091999999999999","title":"Qunine"}},{"type":"Feature","geometry":{"type":"LineString","coordinates":[[-75.015152,-9.1899670000004],[-0.0090919999973729,51.533722000001]]},"properties":[]},{"type":"Feature","geometry":{"type":"LineString","coordinates":[[-74.297332999997,4.5708679999982],[-0.0090919999973729,51.533722000001]]},"properties":[]},{"type":"Feature","geometry":{"type":"LineString","coordinates":[[-63.588652999998,-16.290154000002],[-0.0090919999973729,51.533722000001]]},"properties":[]},{"type":"Feature","geometry":{"type":"LineString","coordinates":[[77.396142999997,9.8264609999956],[-0.0090919999973729,51.533722000001]]},"properties":[]},{"type":"Feature","geometry":{"type":"LineString","coordinates":[[113.921327,-0.78927499999687],[-0.0090919999973729,51.533722000001]]},"properties":[]},{"type":"Feature","geometry":{"type":"LineString","coordinates":[[0.024134000001753,51.506775999999],[6.4615550000024,5.2190670000032]]},"properties":[]},{"type":"Feature","geometry":{"type":"LineString","coordinates":[[0.024134000001753,51.506775999999],[72.8561644,19.017614700001]]},"properties":[]}],"properties":{"title":"19th Century Howard & Sons Quinine","description":"","tags":""}}