{"supplychain":{"category":19,"created":1332277447,"enable_comments":true,"flags":0,"id":2234,"modified":1332277447,"other_perms":1,"passcode":null,"user_featured":false,"usergroup_id":null,"usergroup_perms":0,"user_id":1315,"owner":{"id":1315,"name":"cljim22","avatar":"http:\/\/free.sourcemap.com\/assets\/images\/default-user.png","banner_url":null,"display_name":null},"taxonomy":[{"description":"Test Maps","id":19,"left":35,"name":"test-maps","right":36,"title":"Test Maps "}],"attributes":{"title":"West Ham Industry","description":"","tags":""},"stops":[{"local_stop_id":72,"id":72,"geometry":"POINT(-382490.764739 7435586.530983)","attributes":{"address":"Great Britain","placename":"United Kingdom","title":"Sugar"}},{"local_stop_id":71,"id":71,"geometry":"POINT(-130724.671033 6864664.654246)","attributes":{"address":"England","placename":"England, UK","title":"Soap"}},{"local_stop_id":70,"id":70,"geometry":"POINT(-3222216.688473 5798327.543437)","attributes":{"address":"46.112075, -28.945665","placename":"46.112075,-28.945665","title":"Underwater Cables"}},{"local_stop_id":69,"id":69,"geometry":"POINT(7205964.558807 1839294.125478)","attributes":{"address":"16.298305, 64.732281","placename":"16.298305,64.732281","title":"Underwater Cables"}},{"local_stop_id":68,"id":68,"geometry":"POINT(8112703.544995 2163883.810239)","attributes":{"address":"Bombay","placename":"Mumbai, Maharashtra, India","title":"Quinine"}},{"local_stop_id":67,"id":67,"geometry":"POINT(719297.012333 581788.991239)","attributes":{"address":"5.219067,  6.461555","placename":"5.219067,6.461555","title":"Qunine"}},{"local_stop_id":66,"id":66,"geometry":"POINT(-353894.679986 6706926.02086)","attributes":{"address":"Cardiff","placename":"Cardiff, UK","title":"Coal"}},{"local_stop_id":65,"id":65,"geometry":"POINT(-180090.445816 7357646.413223)","attributes":{"address":"New Castle, England","placename":"Newcastle Upon Tyne, Tyne and Wear, UK","title":"Coal"}},{"local_stop_id":64,"id":64,"geometry":"POINT(2227.948289 6711203.022837)","attributes":{"address":"51.505502, 0.020014","placename":"51.505502,0.020014","title":"Coal"}},{"local_stop_id":63,"id":63,"geometry":"POINT(5438.513723 6710302.772481)","attributes":{"address":"51.500468, 0.048855","placename":"51.500468,0.048855","title":"Sugar"}},{"local_stop_id":62,"id":62,"geometry":"POINT(-417361.261272 4933551.652462)","attributes":{"address":"Spain","placename":"Spain","title":"Oranges"}},{"local_stop_id":61,"id":61,"geometry":"POINT(3923268.658903 4716479.684629)","attributes":{"address":"Turkey","placename":"Turkey","title":"Oranges"}},{"local_stop_id":60,"id":60,"geometry":"POINT(1398994.342206 5141815.937641)","attributes":{"address":"Italy","placename":"Italy","title":"Oranges"}},{"local_stop_id":59,"id":59,"geometry":"POINT(3178.394101 6710375.554224)","attributes":{"address":"51.500875, 0.028552","placename":"51.500875,0.028552","title":"Marmalade"}},{"local_stop_id":58,"id":58,"geometry":"POINT(5296239.287149 4886759.751808)","attributes":{"address":"Azerbaijan","placename":"Azerbaijan","title":"Crude Oil"}},{"local_stop_id":57,"id":57,"geometry":"POINT(-8869318.535317 5105591.307883)","attributes":{"address":"41.629167, -79.674444","placename":"41.629167,-79.67444399999999","title":"Crude Oil"}},{"local_stop_id":56,"id":56,"geometry":"POINT(2257.893232 6710224.269069)","attributes":{"address":"51.500029, 0.020283","placename":"51.500029,0.020283","title":"Petroleum"}},{"local_stop_id":55,"id":55,"geometry":"POINT(-7354130.801053 5664652.773992)","attributes":{"address":"45.273317, -66.063281","placename":"45.273317,-66.063281","title":"Oak"}},{"local_stop_id":54,"id":54,"geometry":"POINT(5219276.174952 2877382.408711)","attributes":{"address":"Burmah","placename":"Burmah, 13818, Saudi Arabia","title":"Teak"}},{"local_stop_id":53,"id":53,"geometry":"POINT(11724030.288901 8747149.04879)","attributes":{"address":"Russia","placename":"Russia","title":"Fir"}},{"local_stop_id":52,"id":52,"geometry":"POINT(2075385.037924 8428326.96544)","attributes":{"address":"Sweden","placename":"Sweden","title":"Fir"}},{"local_stop_id":51,"id":51,"geometry":"POINT(942758.756276 8505587.038689)","attributes":{"address":"Norway","placename":"Norway","title":"Fir"}},{"local_stop_id":50,"id":50,"geometry":"POINT(-1520.067647 6715867.175083)","attributes":{"address":"51.531574, -0.013655","placename":"51.531574,-0.013655","title":"Timber"}},{"local_stop_id":49,"id":49,"geometry":"POINT(-8187992.990912 5701959.80533)","attributes":{"address":"Montreal","placename":"Montreal, QC, Canada","title":"Wheat"}},{"local_stop_id":48,"id":48,"geometry":"POINT(-9754904.513941 5142738.902517)","attributes":{"address":"Chicago","placename":"Chicago, IL, USA","title":"Wheat"}},{"local_stop_id":47,"id":47,"geometry":"POINT(3376.654114 6711172.977121)","attributes":{"address":"51.505334, 0.030333","placename":"51.505334,0.030333","title":"Floor"}},{"local_stop_id":46,"id":46,"geometry":"POINT(8790107.59317 2343495.165705)","attributes":{"address":"India","placename":"India","title":"Jute"}},{"local_stop_id":45,"id":45,"geometry":"POINT(-832.001874 6716943.787081)","attributes":{"address":"51.537590, -0.007474","placename":"51.53759,-0.007474","title":"Jute"}},{"local_stop_id":44,"id":44,"geometry":"POINT(-8504808.873967 -1534092.147667)","attributes":{"address":"-13.649999, -76.399998","placename":"-13.649999,-76.399998","title":"Guano"}},{"local_stop_id":43,"id":43,"geometry":"POINT(-7081775.533003 -4638374.275084)","attributes":{"address":"Argentina","placename":"Argentina","title":"Bones"}},{"local_stop_id":42,"id":42,"geometry":"POINT(8790107.59317 2343495.165705)","attributes":{"address":"India","placename":"India","title":"Bones"}},{"local_stop_id":41,"id":41,"geometry":"POINT(-7964126.878919 -4256013.675159)","attributes":{"address":"Chile","placename":"Chile","title":"Cubic Nitre"}},{"local_stop_id":40,"id":40,"geometry":"POINT(2000.967847 6710610.892269)","attributes":{"address":"51.502191,  0.017975","placename":"51.502191,0.017975","title":"Fertalizer"}},{"local_stop_id":39,"id":39,"geometry":"POINT(-180090.445816 7357646.413223)","attributes":{"address":"Newcastle, England","placename":"Newcastle Upon Tyne, Tyne and Wear, UK","title":"Coal"}},{"local_stop_id":38,"id":38,"geometry":"POINT(-8658559.903747 2454202.390949)","attributes":{"address":"Cuba","placename":"Cuba","title":"Sugarcane"}},{"local_stop_id":37,"id":37,"geometry":"POINT(1163458.552333 6650655.041174)","attributes":{"address":"Germany","placename":"Germany","title":"Sugar Beet Root"}},{"local_stop_id":36,"id":36,"geometry":"POINT(246433.411424 5816903.713427)","attributes":{"address":"France","placename":"France","title":"Sugar Beet Root"}},{"local_stop_id":35,"id":35,"geometry":"POINT(497590.999399 6534001.856289)","attributes":{"address":"Belgium","placename":"Belgium","title":"Sugar Beet Root"}},{"local_stop_id":34,"id":34,"geometry":"POINT(8933342.715933 1466636.185174)","attributes":{"address":"Chennai, Tamil Nadu","placename":"Chennai, Tamil Nadu, India","title":"Sugarcane"}},{"local_stop_id":33,"id":33,"geometry":"POINT(-8350648.52242 -1027437.355768)","attributes":{"address":"Peru","placename":"Peru","title":"Sugarcane"}},{"local_stop_id":32,"id":32,"geometry":"POINT(418418.473608 6671450.385666)","attributes":{"address":"Philippine","placename":"4553 Philippine, The Netherlands","title":"Sugarcane"}},{"local_stop_id":31,"id":31,"geometry":"POINT(-5780295.728898 -1601191.813438)","attributes":{"address":"Brazil","placename":"Brazil","title":"Sugarcane"}},{"local_stop_id":30,"id":30,"geometry":"POINT(-6560077.629956 541709.129825)","attributes":{"address":"Guiana","placename":"Guyana","title":"Sugarcane"}},{"local_stop_id":29,"id":29,"geometry":"POINT(12681664.112134 -87864.470043)","attributes":{"address":"Indonisia","placename":"Indonesia","title":"Sugarcane"}},{"local_stop_id":28,"id":28,"geometry":"POINT(-8604719.230149 2050378.802628)","attributes":{"address":"Jamaica","placename":"Jamaica","title":"Sugarcane"}},{"local_stop_id":27,"id":27,"geometry":"POINT(5438.513723 6710302.772481)","attributes":{"address":"51.500468, 0.048855","placename":"51.500468,0.048855","title":"Sugar"}},{"local_stop_id":26,"id":26,"geometry":"POINT(4686.439243 6710394.330946)","attributes":{"address":"51.500980, 0.042099","placename":"51.50098,0.042099","title":"Caustic Soda"}},{"local_stop_id":25,"id":25,"geometry":"POINT(8991475.312498 879195.517639)","attributes":{"address":"Sri Lanka","placename":"Sri Lanka","title":"Coconut Oil"}},{"local_stop_id":24,"id":24,"geometry":"POINT(16355181.927468 -3665678.208029)","attributes":{"address":"New South Wales","placename":"New South Wales, Australia","title":"Coconut Oil"}},{"local_stop_id":23,"id":23,"geometry":"POINT(1619706.606045 6026746.974644)","attributes":{"address":"Austria","placename":"Austria","title":"Mined Pot Ash"}},{"local_stop_id":22,"id":22,"geometry":"POINT(-467836.39044 7656721.010178)","attributes":{"address":"Scotland","placename":"Scotland, UK","title":"Kelp Ash Potash"}},{"local_stop_id":21,"id":21,"geometry":"POINT(-11838468.395229 7584411.732747)","attributes":{"address":"Canada","placename":"Canada","title":"Hardwood Ash Potash"}},{"local_stop_id":20,"id":20,"geometry":"POINT(-10654710.288472 4451692.554811)","attributes":{"address":"United States","placename":"United States","title":"Hardword Ash Potash"}},{"local_stop_id":19,"id":19,"geometry":"POINT(965727.418131 1015263.983184)","attributes":{"address":"Nigeria","placename":"Nigeria","title":"Palm Oil"}},{"local_stop_id":18,"id":18,"geometry":"POINT(-1004.547085 6715634.369291)","attributes":{"address":"51.530273, -0.009024","placename":"51.530273,-0.009024000000000001","title":"Tallow"}},{"local_stop_id":17,"id":17,"geometry":"POINT(-10654710.288472 4451692.554811)","attributes":{"address":"United States","placename":"United States","title":"Tallow"}},{"local_stop_id":16,"id":16,"geometry":"POINT(19468217.238607 -4997684.890551)","attributes":{"address":"New Zealand","placename":"New Zealand","title":"Tallow"}},{"local_stop_id":15,"id":15,"geometry":"POINT(14891780.020321 -2909486.054997)","attributes":{"address":"Australia","placename":"Australia","title":"Tallow"}},{"local_stop_id":14,"id":14,"geometry":"POINT(-7081775.533003 -4638374.275084)","attributes":{"address":"Argentina","placename":"Argentina","title":"Tallow"}},{"local_stop_id":13,"id":13,"geometry":"POINT(2188.986467 6710338.537384)","attributes":{"address":"51.500668, 0.019664","placename":"51.500668,0.019664","title":"Soap"}},{"local_stop_id":12,"id":12,"geometry":"POINT(-5780295.728898 -1601191.813438)","attributes":{"address":"Brazil","placename":"Brazil","title":"Caoutchouc Rubber"}},{"local_stop_id":11,"id":11,"geometry":"POINT(8790107.59317 2343495.165705)","attributes":{"address":"India","placename":"India","title":"Caoutchouc Rubber"}},{"local_stop_id":10,"id":10,"geometry":"POINT(17079270.653886 -3251150.118142)","attributes":{"address":"Gold Coast","placename":"Gold Coast, QLD, Australia","title":"Caoutchouc Rubber"}},{"local_stop_id":9,"id":9,"geometry":"POINT(11351890.344374 469131.367658)","attributes":{"address":"Malaysia","placename":"Malaysia","title":"Gutta Percha"}},{"local_stop_id":8,"id":8,"geometry":"POINT(4475.266169 6710539.1814)","attributes":{"address":"51.50179,  0.040202","placename":"51.50179,0.040202","title":"Telegraph Cables and Rubber"}},{"local_stop_id":7,"id":7,"geometry":"POINT(12681664.112134 -87864.470043)","attributes":{"address":"Indonisia","placename":"Indonesia","title":"Cinchona Plantation"}},{"local_stop_id":6,"id":6,"geometry":"POINT(8615699.228123 1099278.892582)","attributes":{"address":"9.826461, 77.396143","placename":"9.826461,77.396143","title":"Cinchona Plantation"}},{"local_stop_id":5,"id":5,"geometry":"POINT(-7078656.47219 -1838348.789522)","attributes":{"address":"Bolivia","placename":"Bolivia","title":"Cinchona Forests"}},{"local_stop_id":4,"id":4,"geometry":"POINT(-8270741.276858 509367.281339)","attributes":{"address":"Columbia","placename":"Colombia","title":"Cinchona Forests"}},{"local_stop_id":3,"id":3,"geometry":"POINT(-8350648.52242 -1027437.355768)","attributes":{"address":"Peru","placename":"Peru","title":"Cinchona Forests"}},{"local_stop_id":2,"id":2,"geometry":"POINT(-1012.11681 6716251.560774)","attributes":{"address":"51.533722, -0.009092","placename":"51.533722,-0.009091999999999999","title":"Qunine"}},{"local_stop_id":1,"id":1,"geometry":"POINT(2686.584591 6711430.873123)","attributes":{"address":"51.506776, 0.024134","placename":"51.506776,0.024134","title":"West Ham Industry"}}],"hops":[{"from_stop_id":2,"to_stop_id":1,"geometry":"MULTILINESTRING((-1012.11681 6716251.560774,2686.584591 6711430.873123))","attributes":{}},{"from_stop_id":3,"to_stop_id":2,"geometry":"MULTILINESTRING((-8350648.52242 -1027437.355768,-1012.11681 6716251.560774))","attributes":{}},{"from_stop_id":4,"to_stop_id":2,"geometry":"MULTILINESTRING((-8270741.276858 509367.281339,-1012.11681 6716251.560774))","attributes":{}},{"from_stop_id":5,"to_stop_id":2,"geometry":"MULTILINESTRING((-7078656.47219 -1838348.789522,-1012.11681 6716251.560774))","attributes":{}},{"from_stop_id":6,"to_stop_id":2,"geometry":"MULTILINESTRING((8615699.228123 1099278.892582,-1012.11681 6716251.560774))","attributes":{}},{"from_stop_id":7,"to_stop_id":2,"geometry":"MULTILINESTRING((12681664.112134 -87864.470043,-1012.11681 6716251.560774))","attributes":{}},{"from_stop_id":8,"to_stop_id":1,"geometry":"MULTILINESTRING((4475.266169 6710539.1814,2686.584591 6711430.873123))","attributes":{}},{"from_stop_id":9,"to_stop_id":8,"geometry":"MULTILINESTRING((11351890.344374 469131.367658,4475.266169 6710539.1814))","attributes":{}},{"from_stop_id":10,"to_stop_id":8,"geometry":"MULTILINESTRING((17079270.653886 -3251150.118142,4475.266169 6710539.1814))","attributes":{}},{"from_stop_id":11,"to_stop_id":8,"geometry":"MULTILINESTRING((8790107.59317 2343495.165705,4475.266169 6710539.1814))","attributes":{}},{"from_stop_id":12,"to_stop_id":8,"geometry":"MULTILINESTRING((-5780295.728898 -1601191.813438,4475.266169 6710539.1814))","attributes":{}},{"from_stop_id":13,"to_stop_id":1,"geometry":"MULTILINESTRING((2188.986467 6710338.537384,2686.584591 6711430.873123))","attributes":{}},{"from_stop_id":14,"to_stop_id":13,"geometry":"MULTILINESTRING((-7081775.533003 -4638374.275084,2188.986467 6710338.537384))","attributes":{}},{"from_stop_id":15,"to_stop_id":13,"geometry":"MULTILINESTRING((14891780.020321 -2909486.054997,2188.986467 6710338.537384))","attributes":{}},{"from_stop_id":16,"to_stop_id":13,"geometry":"MULTILINESTRING((19468217.238607 -4997684.890551,2188.986467 6710338.537384))","attributes":{}},{"from_stop_id":17,"to_stop_id":13,"geometry":"MULTILINESTRING((-10654710.288472 4451692.554811,2188.986467 6710338.537384))","attributes":{}},{"from_stop_id":18,"to_stop_id":13,"geometry":"MULTILINESTRING((-1004.547085 6715634.369291,2188.986467 6710338.537384))","attributes":{}},{"from_stop_id":19,"to_stop_id":13,"geometry":"MULTILINESTRING((965727.418131 1015263.983184,2188.986467 6710338.537384))","attributes":{}},{"from_stop_id":20,"to_stop_id":13,"geometry":"MULTILINESTRING((-10654710.288472 4451692.554811,2188.986467 6710338.537384))","attributes":{}},{"from_stop_id":21,"to_stop_id":13,"geometry":"MULTILINESTRING((-11838468.395229 7584411.732747,2188.986467 6710338.537384))","attributes":{}},{"from_stop_id":22,"to_stop_id":13,"geometry":"MULTILINESTRING((-467836.39044 7656721.010178,2188.986467 6710338.537384))","attributes":{}},{"from_stop_id":23,"to_stop_id":13,"geometry":"MULTILINESTRING((1619706.606045 6026746.974644,2188.986467 6710338.537384))","attributes":{}},{"from_stop_id":24,"to_stop_id":13,"geometry":"MULTILINESTRING((16355181.927468 -3665678.208029,2188.986467 6710338.537384))","attributes":{}},{"from_stop_id":25,"to_stop_id":13,"geometry":"MULTILINESTRING((8991475.312498 879195.517639,2188.986467 6710338.537384))","attributes":{}},{"from_stop_id":26,"to_stop_id":13,"geometry":"MULTILINESTRING((4686.439243 6710394.330946,2188.986467 6710338.537384))","attributes":{}},{"from_stop_id":27,"to_stop_id":1,"geometry":"MULTILINESTRING((5438.513723 6710302.772481,2686.584591 6711430.873123))","attributes":{}},{"from_stop_id":28,"to_stop_id":27,"geometry":"MULTILINESTRING((-8604719.230149 2050378.802628,5438.513723 6710302.772481))","attributes":{}},{"from_stop_id":29,"to_stop_id":27,"geometry":"MULTILINESTRING((12681664.112134 -87864.470043,5438.513723 6710302.772481))","attributes":{}},{"from_stop_id":30,"to_stop_id":27,"geometry":"MULTILINESTRING((-6560077.629956 541709.129825,5438.513723 6710302.772481))","attributes":{}},{"from_stop_id":31,"to_stop_id":27,"geometry":"MULTILINESTRING((-5780295.728898 -1601191.813438,5438.513723 6710302.772481))","attributes":{}},{"from_stop_id":32,"to_stop_id":27,"geometry":"MULTILINESTRING((418418.473608 6671450.385666,5438.513723 6710302.772481))","attributes":{}},{"from_stop_id":33,"to_stop_id":27,"geometry":"MULTILINESTRING((-8350648.52242 -1027437.355768,5438.513723 6710302.772481))","attributes":{}},{"from_stop_id":34,"to_stop_id":27,"geometry":"MULTILINESTRING((8933342.715933 1466636.185174,5438.513723 6710302.772481))","attributes":{}},{"from_stop_id":35,"to_stop_id":27,"geometry":"MULTILINESTRING((497590.999399 6534001.856289,5438.513723 6710302.772481))","attributes":{}},{"from_stop_id":36,"to_stop_id":27,"geometry":"MULTILINESTRING((246433.411424 5816903.713427,5438.513723 6710302.772481))","attributes":{}},{"from_stop_id":37,"to_stop_id":27,"geometry":"MULTILINESTRING((1163458.552333 6650655.041174,5438.513723 6710302.772481))","attributes":{}},{"from_stop_id":38,"to_stop_id":27,"geometry":"MULTILINESTRING((-8658559.903747 2454202.390949,5438.513723 6710302.772481))","attributes":{}},{"from_stop_id":39,"to_stop_id":27,"geometry":"MULTILINESTRING((-180090.445816 7357646.413223,5438.513723 6710302.772481))","attributes":{}},{"from_stop_id":40,"to_stop_id":1,"geometry":"MULTILINESTRING((2000.967847 6710610.892269,2686.584591 6711430.873123))","attributes":{}},{"from_stop_id":41,"to_stop_id":40,"geometry":"MULTILINESTRING((-7964126.878919 -4256013.675159,2000.967847 6710610.892269))","attributes":{}},{"from_stop_id":42,"to_stop_id":40,"geometry":"MULTILINESTRING((8790107.59317 2343495.165705,2000.967847 6710610.892269))","attributes":{}},{"from_stop_id":43,"to_stop_id":40,"geometry":"MULTILINESTRING((-7081775.533003 -4638374.275084,2000.967847 6710610.892269))","attributes":{}},{"from_stop_id":44,"to_stop_id":40,"geometry":"MULTILINESTRING((-8504808.873967 -1534092.147667,2000.967847 6710610.892269))","attributes":{}},{"from_stop_id":45,"to_stop_id":1,"geometry":"MULTILINESTRING((-832.001874 6716943.787081,2686.584591 6711430.873123))","attributes":{}},{"from_stop_id":46,"to_stop_id":45,"geometry":"MULTILINESTRING((8790107.59317 2343495.165705,-832.001874 6716943.787081))","attributes":{}},{"from_stop_id":47,"to_stop_id":1,"geometry":"MULTILINESTRING((3376.654114 6711172.977121,2686.584591 6711430.873123))","attributes":{}},{"from_stop_id":48,"to_stop_id":47,"geometry":"MULTILINESTRING((-9754904.513941 5142738.902517,3376.654114 6711172.977121))","attributes":{}},{"from_stop_id":49,"to_stop_id":47,"geometry":"MULTILINESTRING((-8187992.990912 5701959.80533,3376.654114 6711172.977121))","attributes":{}},{"from_stop_id":50,"to_stop_id":1,"geometry":"MULTILINESTRING((-1520.067647 6715867.175083,2686.584591 6711430.873123))","attributes":{}},{"from_stop_id":51,"to_stop_id":50,"geometry":"MULTILINESTRING((942758.756276 8505587.038689,-1520.067647 6715867.175083))","attributes":{}},{"from_stop_id":52,"to_stop_id":50,"geometry":"MULTILINESTRING((2075385.037924 8428326.96544,-1520.067647 6715867.175083))","attributes":{}},{"from_stop_id":53,"to_stop_id":50,"geometry":"MULTILINESTRING((11724030.288901 8747149.04879,-1520.067647 6715867.175083))","attributes":{}},{"from_stop_id":54,"to_stop_id":50,"geometry":"MULTILINESTRING((5219276.174952 2877382.408711,-1520.067647 6715867.175083))","attributes":{}},{"from_stop_id":55,"to_stop_id":50,"geometry":"MULTILINESTRING((-7354130.801053 5664652.773992,-1520.067647 6715867.175083))","attributes":{}},{"from_stop_id":56,"to_stop_id":1,"geometry":"MULTILINESTRING((2257.893232 6710224.269069,2686.584591 6711430.873123))","attributes":{}},{"from_stop_id":57,"to_stop_id":56,"geometry":"MULTILINESTRING((-8869318.535317 5105591.307883,2257.893232 6710224.269069))","attributes":{}},{"from_stop_id":58,"to_stop_id":56,"geometry":"MULTILINESTRING((5296239.287149 4886759.751808,2257.893232 6710224.269069))","attributes":{}},{"from_stop_id":59,"to_stop_id":1,"geometry":"MULTILINESTRING((3178.394101 6710375.554224,2686.584591 6711430.873123))","attributes":{}},{"from_stop_id":60,"to_stop_id":59,"geometry":"MULTILINESTRING((1398994.342206 5141815.937641,3178.394101 6710375.554224))","attributes":{}},{"from_stop_id":61,"to_stop_id":59,"geometry":"MULTILINESTRING((3923268.658903 4716479.684629,3178.394101 6710375.554224))","attributes":{}},{"from_stop_id":62,"to_stop_id":59,"geometry":"MULTILINESTRING((-417361.261272 4933551.652462,3178.394101 6710375.554224))","attributes":{}},{"from_stop_id":63,"to_stop_id":59,"geometry":"MULTILINESTRING((5438.513723 6710302.772481,3178.394101 6710375.554224))","attributes":{}},{"from_stop_id":64,"to_stop_id":1,"geometry":"MULTILINESTRING((2227.948289 6711203.022837,2686.584591 6711430.873123))","attributes":{}},{"from_stop_id":65,"to_stop_id":64,"geometry":"MULTILINESTRING((-180090.445816 7357646.413223,2227.948289 6711203.022837))","attributes":{}},{"from_stop_id":66,"to_stop_id":64,"geometry":"MULTILINESTRING((-353894.679986 6706926.02086,2227.948289 6711203.022837))","attributes":{}},{"from_stop_id":1,"to_stop_id":67,"geometry":"MULTILINESTRING((2686.584591 6711430.873123,719297.012333 581788.991239))","attributes":{}},{"from_stop_id":1,"to_stop_id":68,"geometry":"MULTILINESTRING((2686.584591 6711430.873123,8112703.544995 2163883.810239))","attributes":{}},{"from_stop_id":1,"to_stop_id":69,"geometry":"MULTILINESTRING((2686.584591 6711430.873123,7205964.558807 1839294.125478))","attributes":{}},{"from_stop_id":1,"to_stop_id":70,"geometry":"MULTILINESTRING((2686.584591 6711430.873123,-3222216.688473 5798327.543437))","attributes":{}},{"from_stop_id":1,"to_stop_id":71,"geometry":"MULTILINESTRING((2686.584591 6711430.873123,-130724.671033 6864664.654246))","attributes":{}},{"from_stop_id":1,"to_stop_id":72,"geometry":"MULTILINESTRING((2686.584591 6711430.873123,-382490.764739 7435586.530983))","attributes":{}}]},"editable":false}