{"supplychain":{"category":41,"created":1332297788,"enable_comments":true,"flags":0,"id":2239,"modified":1352655156,"other_perms":-1,"passcode":null,"user_featured":false,"usergroup_id":null,"usergroup_perms":0,"user_id":7,"owner":{"id":7,"name":"hock","avatar":"http:\/\/prod-accountpics.s3-website-us-east-1.amazonaws.com\/hock.png?AWSAccessKeyId=AKIAIDYFSB4C2GNEML7Q&Expires=1380254320&Signature=padzJ1x0Vlg9Fy1q2kMkGqH4eYk%3D","banner_url":null,"display_name":"Matthew Hockenberry"},"taxonomy":[{"description":"Category for Electronics","id":41,"left":37,"name":"electronics","right":38,"title":"Electronics & Computers"}],"attributes":{"description":"This is a reconstruction of the supply chain for the Western Electric produced \"candlestick\" style telephones of the late 1920s. Information is largely drawn from archival Western Electric\/AT&T materials, as well as those of supplier companies. Some imagery is currently included for cotton and copper sources. \n\nThis is a rough draft - many details are missing or incomplete.","tags":"telephone westernelectric at&t phone","title":"Telephone (1927) Draft"},"stops":[{"local_stop_id":82,"id":82,"geometry":"POINT(-10521170.314122 4450853.470443)","attributes":{"description":"Principle source for Western Electric.","address":"Joplin, Missouri","placename":"Joplin, MO, USA","title":"Zinc"}},{"local_stop_id":81,"id":81,"geometry":"POINT(-417361.261272 4933551.652462)","attributes":{"description":"Principle source for Western Electric.","address":"Spain","placename":"Spain","title":"Lead"}},{"local_stop_id":80,"id":80,"geometry":"POINT(-9017991.949163 5859222.796232)","attributes":{"description":"Nickel mines in the greater Sudbury region of Ontario. The Worthington community was destroyed in mine shaft collapse during 1927.","address":"Sudbury, Ontario","placename":"Greater Sudbury, ON, Canada","title":"Nickel"}},{"local_stop_id":79,"id":79,"geometry":"POINT(-8282800.316921 4874421.358375)","attributes":{"description":"'German' Silver","address":"New Jersey","placename":"New Jersey, USA","title":"Nickel Silver"}},{"local_stop_id":78,"id":78,"geometry":"POINT(3471503.775043 3146451.579471)","attributes":{"address":"Asyut, Egypt","placename":"Asyut, Al Hamraa Ath Thaneyah, Qesm Than Asyut, Assiut, Egypt","title":"Cotton","description":"","weight":"0","co2e":"0","energy":"0","water":"0","vimeo:link":"https:\/\/vimeo.com\/38896371"}},{"local_stop_id":77,"id":77,"geometry":"POINT(-9951798.648024 3809956.871062)","attributes":{"vimeo:link":"https:\/\/vimeo.com\/38896371","water":"0","energy":"0","co2e":"0","weight":"0","description":"Picked and milled.","address":"Mississippi, United States","placename":"Mississippi, USA","title":"Cotton"}},{"local_stop_id":76,"id":76,"geometry":"POINT(-9673919.562125 3805156.31661)","attributes":{"description":"Picked and milled.","address":"Alabama","placename":"Alabama, USA","title":"Cotton","weight":"0","co2e":"0","energy":"0","water":"0","vimeo:link":"https:\/\/vimeo.com\/38896371"}},{"local_stop_id":75,"id":75,"geometry":"POINT(-10257537.206474 3664585.105528)","attributes":{"description":"Picked and milled.","address":"Louisiana","placename":"Louisiana, USA","title":"Cotton","weight":"0","co2e":"0","energy":"0","water":"0","vimeo:link":"https:\/\/vimeo.com\/38896371"}},{"local_stop_id":74,"id":74,"geometry":"POINT(-10026717.110606 3497261.357873)","attributes":{"address":"New Orleans, Louisiana","placename":"New Orleans, LA, USA","title":"Cotton","description":"","weight":"0","co2e":"0","energy":"0","water":"0","vimeo:link":"https:\/\/vimeo.com\/38896371"}},{"local_stop_id":73,"id":73,"geometry":"POINT(-11121018.963617 3759189.437118)","attributes":{"description":"Picked and milled.","address":"Texas","placename":"Texas, USA","title":"Cotton","weight":"0","co2e":"0","energy":"0","water":"0","vimeo:link":"https:\/\/vimeo.com\/38896371"}},{"local_stop_id":72,"id":72,"geometry":"POINT(-10552831.224832 3414057.06632)","attributes":{"address":"Galveston, Texas","placename":"Galveston, TX, USA","title":"Cotton","description":"","weight":"0","co2e":"0","energy":"0","water":"0","vimeo:link":"https:\/\/vimeo.com\/38896371"}},{"local_stop_id":71,"id":71,"geometry":"POINT(-8350648.52242 -1027437.355768)","attributes":{"vimeo:link":"https:\/\/vimeo.com\/38896020","water":"0","energy":"0","co2e":"0","weight":"0","address":"Peru","placename":"Peru","title":"Copper","description":""}},{"local_stop_id":70,"id":70,"geometry":"POINT(3141254.579416 -2965844.12197)","attributes":{"vimeo:link":"https:\/\/vimeo.com\/38896020","water":"0","energy":"0","co2e":"0","weight":"0","address":"Pretoria, South Africa","placename":"Pretoria, South Africa","title":"Copper","description":""}},{"local_stop_id":69,"id":69,"geometry":"POINT(-9678196.234323 6060909.399103)","attributes":{"vimeo:link":"https:\/\/vimeo.com\/38896020","water":"0","energy":"0","co2e":"0","weight":"0","address":"Lake Superior, Michigan","placename":"Lake Superior","title":"Copper","description":""}},{"local_stop_id":68,"id":68,"geometry":"POINT(-12527314.138966 5780961.911905)","attributes":{"address":"Butte, Montana","placename":"Butte, Mt, USA","title":"Copper","description":"","weight":"0","co2e":"0","energy":"0","water":"0","vimeo:link":"https:\/\/vimeo.com\/38896020"}},{"local_stop_id":67,"id":67,"geometry":"POINT(-11416123.694313 2708933.292233)","attributes":{"address":"Mexico","placename":"Mexico","title":"Silver","description":""}},{"local_stop_id":66,"id":66,"geometry":"POINT(-16443713.194169 9565770.619947)","attributes":{"address":"Fairbanks, Alaska","placename":"Fairbanks, AK, USA","title":"Silver","description":""}},{"local_stop_id":65,"id":65,"geometry":"POINT(14864621.571131 3969712.852676)","attributes":{"address":"Kochi, Japan","placename":"Kochi, Kochi Prefecture, Japan","title":"Silk","description":""}},{"local_stop_id":64,"id":64,"geometry":"POINT(12348165.277932 2471112.008518)","attributes":{"address":"Maoming, China","placename":"Maoming, Guangdong, China","title":"Silk","description":""}},{"local_stop_id":63,"id":63,"geometry":"POINT(-8282800.316921 4874421.358375)","attributes":{"description":"Milled throughout New Jersey, Ohio, and the South.","address":"New Jersey","placename":"New Jersey, USA","title":"Silk"}},{"local_stop_id":62,"id":62,"geometry":"POINT(-417361.261272 4933551.652462)","attributes":{"description":"Principle source for Western Electric.","address":"Spain","placename":"Spain","title":"Lead"}},{"local_stop_id":61,"id":61,"geometry":"POINT(-10222672.932701 4574377.176589)","attributes":{"address":"Missouri, United States","placename":"Missouri, USA","title":"Lead","description":""}},{"local_stop_id":60,"id":60,"geometry":"POINT(16355181.927468 -3665678.208029)","attributes":{"address":"New South Wales, Australia","placename":"New South Wales, Australia","title":"Lead","description":""}},{"local_stop_id":59,"id":59,"geometry":"POINT(-417361.261272 4933551.652462)","attributes":{"description":"Principle source.","address":"Spain","placename":"Spain","title":"Lead"}},{"local_stop_id":58,"id":58,"geometry":"POINT(942758.756276 8505587.038689)","attributes":{"address":"Norway","placename":"Norway","title":"Antimony","description":""}},{"local_stop_id":57,"id":57,"geometry":"POINT(2075385.037924 8428326.96544)","attributes":{"address":"Sweden","placename":"Sweden","title":"Antimony","description":""}},{"local_stop_id":56,"id":56,"geometry":"POINT(12577300.197084 3263157.816317)","attributes":{"description":"Principle source for Western Electric.","address":"Hunan, China","placename":"Hunan, China","title":"Antimony"}},{"local_stop_id":55,"id":55,"geometry":"POINT(12588219.637255 2581152.999194)","attributes":{"description":"Traveling through the Jiangmen Port.","address":"Jiangmen, China","placename":"Jiangmen, Guangdong, China","title":"Antimony"}},{"local_stop_id":54,"id":54,"geometry":"POINT(-9754904.513941 5142738.902517)","attributes":{"address":"Chicago","placename":"Chicago, IL, USA","title":"Telephone Cables","description":""}},{"local_stop_id":53,"id":53,"geometry":"POINT(13467901.708762 1643088.171762)","attributes":{"description":"'Manila Hemp, the most valuable of all fibres for cordage, the produce of the leaf-stalks' of Musa Textilis, a native of the Phillippine Islands.' [Encyclopedia Britannica, 11th ed., 1911]","address":"Manila, Phillipines","placename":"Manila, Philippines","title":"Hemp"}},{"local_stop_id":52,"id":52,"geometry":"POINT(11806992.464117 -254819.990239)","attributes":{"address":"Bangka, Indonesia","placename":"Bangka Island, Indonesia","title":"Tin","description":""}},{"local_stop_id":51,"id":51,"geometry":"POINT(11354588.060914 669141.057044)","attributes":{"address":"Malay Peninsula, Malaysia","placename":"Malay Peninsula, 17200 Rantau Panjang, Kelantan, Malaysia","title":"Tin","description":""}},{"local_stop_id":50,"id":50,"geometry":"POINT(-517913.730541 6533956.857863)","attributes":{"description":"Small amounts, the Cornwall mines have been rapidly depleted over the last hundred years.","address":"Cornwall, England","placename":"Cornwall, UK","title":"Tin"}},{"local_stop_id":49,"id":49,"geometry":"POINT(-8291403.955461 4937079.662206)","attributes":{"description":"Small amounts.","address":"Franklin, New Jersey","placename":"Franklin Township, NJ, USA","title":"Zinc"}},{"local_stop_id":48,"id":48,"geometry":"POINT(1995339.322048 6563202.009238)","attributes":{"address":"Opole, Poland","placename":"Opole, Poland","title":"Zinc","description":""}},{"local_stop_id":47,"id":47,"geometry":"POINT(16355181.927468 -3665678.208029)","attributes":{"address":"New South Wales, Australia","placename":"New South Wales, Australia","title":"Zinc","description":""}},{"local_stop_id":46,"id":46,"geometry":"POINT(-10521170.314122 4450853.470443)","attributes":{"description":"Principle source for Western Electric.","address":"Joplin, Missouri","placename":"Joplin, MO, USA","title":"Zinc"}},{"local_stop_id":45,"id":45,"geometry":"POINT(-8460829.326142 5042679.553733)","attributes":{"description":"'Blue' Coal (carbon rich anthracite) mined throughout Pennsylvania's Wyoming Valley by (among others) the Glen Alden Coal Co. for use in transmitter.","address":"Nanticoke, PA","placename":"Nanticoke, PA, USA","title":"Coal"}},{"local_stop_id":44,"id":44,"geometry":"POINT(-1079425.583803 1112739.818908)","attributes":{"address":"Guinea","placename":"Guinea","title":"Aluminum (Bauxite)","description":""}},{"local_stop_id":43,"id":43,"geometry":"POINT(-10222672.932701 4191236.712494)","attributes":{"address":"Arkansas, United States","placename":"Arkansas, USA","title":"Aluminum (Bauxite)","description":""}},{"local_stop_id":42,"id":42,"geometry":"POINT(-10654710.288472 4451692.554811)","attributes":{"address":"United States","placename":"United States","title":"Mica","description":""}},{"local_stop_id":41,"id":41,"geometry":"POINT(-5780295.728898 -1601191.813438)","attributes":{"address":"Brazil","placename":"Brazil","title":"Mica","description":""}},{"local_stop_id":40,"id":40,"geometry":"POINT(5217445.125175 -2127516.82188)","attributes":{"address":"Madagascar","placename":"Madagascar","title":"Mica","description":""}},{"local_stop_id":39,"id":39,"geometry":"POINT(8737096.249779 1965692.870033)","attributes":{"description":"Principle source for Western Electric.","address":"Hyderabad, India","placename":"Hyderabad, Andhra Pradesh, India","title":"Mica"}},{"local_stop_id":38,"id":38,"geometry":"POINT(14755505.404755 -2212877.884205)","attributes":{"address":"Northern Territory, Australia","placename":"Northern Territory, Australia","title":"Wool","description":""}},{"local_stop_id":37,"id":37,"geometry":"POINT(-11416123.694313 2708933.292233)","attributes":{"address":"Mexico","placename":"Mexico","title":"Wool","description":""}},{"local_stop_id":36,"id":36,"geometry":"POINT(16355181.927468 -3665678.208029)","attributes":{"address":"New South Wales, Australia","placename":"New South Wales, Australia","title":"Wool","description":""}},{"local_stop_id":35,"id":35,"geometry":"POINT(-7246428.993335 -4564696.453281)","attributes":{"address":"La Pampa, Argentina","placename":"La Pampa Province, Argentina","title":"Wool","description":""}},{"local_stop_id":34,"id":34,"geometry":"POINT(-11192690.759854 3643778.87402)","attributes":{"address":"Big Hill, Texas","placename":"Big Hill, Texas 76936, USA","title":"Sulpher","description":""}},{"local_stop_id":33,"id":33,"geometry":"POINT(-5780295.728898 -1601191.813438)","attributes":{"address":"Brazil","placename":"Brazil","title":"Rubber","description":""}},{"local_stop_id":32,"id":32,"geometry":"POINT(-8131966.414398 5084281.273534)","attributes":{"description":"Ebonite is the brand name for vulcanized rubber developed by Goodyear through the United States Rubber Co.","address":"Naugatuck, Connecticut","placename":"Naugatuck, CT, USA","title":"Ebonite"}},{"local_stop_id":31,"id":31,"geometry":"POINT(11281462.933065 -65648.93452)","attributes":{"address":"Sumatra, Indonesia","placename":"Sumatra, Indonesia","title":"Rubber","description":""}},{"local_stop_id":30,"id":30,"geometry":"POINT(-5780295.728898 -1601191.813438)","attributes":{"address":"Brazil","placename":"Brazil","title":"Rubber","description":""}},{"local_stop_id":29,"id":29,"geometry":"POINT(-14209668.126165 7118559.555953)","attributes":{"address":"British Columbia, Canada","placename":"British Columbia, Canada","title":"Platinum","description":""}},{"local_stop_id":28,"id":28,"geometry":"POINT(6606331.913652 8909622.263147)","attributes":{"address":"Ural Mountains, Russia","placename":"Ural Mountains, Russia","title":"Platinum","description":""}},{"local_stop_id":27,"id":27,"geometry":"POINT(-8270741.276858 509367.281339)","attributes":{"description":"Principle source for Western Electric.","address":"Columbia","placename":"Colombia","title":"Platinum"}},{"local_stop_id":26,"id":26,"geometry":"POINT(255562.054947 6427950.283018)","attributes":{"address":"Amiens, France","placename":"Amiens, France","title":"Flax","description":""}},{"local_stop_id":25,"id":25,"geometry":"POINT(1286631.420429 6130984.180845)","attributes":{"address":"Munich, Germany","placename":"Munich, Germany","title":"Flax","description":""}},{"local_stop_id":24,"id":24,"geometry":"POINT(497590.999399 6534001.856289)","attributes":{"address":"Belgium","placename":"Belgium","title":"Flax","description":""}},{"local_stop_id":23,"id":23,"geometry":"POINT(3469336.495877 6170212.711441)","attributes":{"address":"Ukraine","placename":"Ukraine","title":"Flax","description":""}},{"local_stop_id":22,"id":22,"geometry":"POINT(-771167.353207 7017108.645533)","attributes":{"description":"Locally grown flax, available water supplies', market demands and the business acumen of certain families fostered change in the local economy during the 181h century. These entrepreneurs then promoted the 19th century development of industrialized textile enterprises in the district and the transformation of Dunmurry itself into a commercial 'linen village'. [Robert Common, 'Changing Dunmurry 1900-1960,' 2003.]","address":"Dunmurry, Ireland","placename":"Dunmurry, Co. Kildare, Ireland","title":"Flax"}},{"local_stop_id":21,"id":21,"geometry":"POINT(-8256768.231735 5000072.320442)","attributes":{"description":"Produced at the Barbour Flax Spinning Co. 'The parent establishment of this Company, that of William Barbour & Sons, is in Lisburn, Ireland, where their mills have been running since 1785. In 1864, when the duty was taken from Flax Machinery, the house of William Barbour & Sons determined to establish branch works in Paterson. The manufacture of Shoe Threads and Linen Thread, where are largely used in various leather manufactures, was begun on a liberal scale in mills called 'Passaic Flax Thread Works,' driven by water power and employing 450 hands. This mill was also known as 'Passaic Mill No. 2'' and was formerly run by John Colt, for the weaving of fine sheetings and cotton duck. The mill is known at present as 'Barbour Flax Spinning Co., Spruce Street Mill.'' ['The Co-Operator,' newspaper of the Barbour Mills V1 N3 June 22, 1918]","address":"Patterson, New Jersey","placename":"Paterson, NJ, USA","title":"Linen"}},{"local_stop_id":20,"id":20,"geometry":"POINT(-8203331.992979 5270724.27882)","attributes":{"description":"By the John A. Manning Paper Co.","address":"Troy, New York","placename":"Troy, NY, USA","title":"Paper"}},{"local_stop_id":19,"id":19,"geometry":"POINT(-10026092.129589 2913168.051015)","attributes":{"description":"Rather than the stone work and pottery production employed for centuries by indigenous inhabitants, asphaltic petroleum distillation from the gulf now produces asphalt used in telephonic condensors.","address":"Gulf of Mexico","placename":"Gulf of Mexico","title":"Asphaltic Petroleum"}},{"local_stop_id":18,"id":18,"geometry":"POINT(-7005966.759397 1135943.470215)","attributes":{"description":"Venezuela's Lake Bermudez (Guanoco Lake) is another significant natural source of asphalt.","address":"Lake Bermudez, Benitez, Sucre, Venezuela","placename":"Lake Bermudez, Venezuela","title":"Asphaltum"}},{"local_stop_id":17,"id":17,"geometry":"POINT(-6857873.052932 1145979.107473)","attributes":{"description":"This pitch lake is the largest natural deposit of aslphalt in the world.","address":"La Brea, Trinidad","placename":"La Brea, Trinidad & Tobago","title":"Asphaltum"}},{"local_stop_id":16,"id":16,"geometry":"POINT(-16443713.194169 9565770.619947)","attributes":{"description":"Sources in the Klondike remained an important source for the gold in telephone circuitry.","address":"Fairbanks, Alaska","placename":"Fairbanks, AK, USA","title":"Gold"}},{"local_stop_id":15,"id":15,"geometry":"POINT(2433094.369693 -3381588.797442)","attributes":{"description":"Mines throughout the Transvaal region.","address":"Northern Cape, South Africa","placename":"Northern Cape, South Africa","title":"Gold"}},{"local_stop_id":14,"id":14,"geometry":"POINT(16835152.988433 -4013563.517504)","attributes":{"description":"A quarter of the world's nickel (what was not produced at sudbury) was likely to have come from New Caledonia.","address":"New Caledonia, Australia","placename":"Caledonia St, Paddington NSW 2021, Australia","title":"Nickel"}},{"local_stop_id":13,"id":13,"geometry":"POINT(-9017991.949163 5859222.796232)","attributes":{"description":"Nickel mines in the greater Sudbury region of Ontario. The Worthington community was destroyed in mine shaft collapse during 1927.","address":"Sudbury, Ontario","placename":"Greater Sudbury, ON, Canada","title":"Nickel"}},{"local_stop_id":12,"id":12,"geometry":"POINT(-8956198.789254 4664197.776145)","attributes":{"address":"West Virginia","placename":"West Virginia, USA","title":"Coal","description":""}},{"local_stop_id":11,"id":11,"geometry":"POINT(-8859860.697796 4868536.851783)","attributes":{"address":"Connellsville, PA","placename":"Connellsville, PA 15425, USA","title":"Coal","description":""}},{"local_stop_id":10,"id":10,"geometry":"POINT(-8905101.339605 4930180.797179)","attributes":{"description":"Coal from Western Pennsylvania's coal fields (already diminishing by the early 1920s) and Viginia is processed into Coke.","address":"Pittsburgh, Pennsylvania","placename":"Pittsburgh, PA, USA","title":"Coke"}},{"local_stop_id":9,"id":9,"geometry":"POINT(-8593255.181633 5042377.968044)","attributes":{"address":"Pennsylvania","placename":"Pennsylvania, USA","title":"Common Limestone","description":""}},{"local_stop_id":8,"id":8,"geometry":"POINT(-8439566.602088 2275380.601708)","attributes":{"description":"Additional iron reserves were imported from the Santiago region of Cuba, brought along the mississippi river. Companies like the Juragua Iron Company were US controlled companies operating abroad.","address":"Santiago, Cuba","placename":"Santiago de Cuba, Cuba","title":"Iron (Hematite)"}},{"local_stop_id":7,"id":7,"geometry":"POINT(-9951798.648024 3809956.871062)","attributes":{"description":"Numerous iron sources throughout the mississippi river basin.","address":"Mississippi, United States","placename":"Mississippi, USA","title":"Iron (Hematite)"}},{"local_stop_id":6,"id":6,"geometry":"POINT(-10345776.181588 6012077.430134)","attributes":{"description":"The Hull-Rust-Mahoning Mine in Hibbing, Minnesota. One of the largest open pit iron mines in the world, iron for the telephone was gathered throughout the mississippi basin.","address":"Hibbing, Minnesota","placename":"Hibbing, MN, USA","title":"Iron (Hematite)"}},{"local_stop_id":5,"id":5,"geometry":"POINT(-10026717.110606 3497261.357873)","attributes":{"description":"New Orleans was (and is) a major port for the shipment of heavy commodities between the mississippi river and the gulf waters.","address":"New Orleans, Louisiana","placename":"New Orleans, LA, USA","title":"Iron (Hematite)"}},{"local_stop_id":4,"id":4,"geometry":"POINT(-10204739.229151 5945781.890194)","attributes":{"description":"Two Harbors is one of the early mining ports of Lake Superior. Significant iron reserves from the region were utilized in the construction of the telephone.","address":"Two Harbors, Minnesota","placename":"Two Harbors, MN 55616, USA","title":"Iron (Hematite)"}},{"local_stop_id":3,"id":3,"geometry":"POINT(-8905101.339605 4930180.797179)","attributes":{"address":"Pittsburgh, Pennsylvania","placename":"Pittsburgh, PA, USA","title":"Pig Iron & Steel","description":""}},{"local_stop_id":2,"id":2,"geometry":"POINT(-10204739.229151 5945781.890194)","attributes":{"description":"Two Harbors is one of the early mining ports of Lake Superior. Significant iron reserves from the region were utilized in the construction of the telephone.","address":"Two Harbors, Minnesota","placename":"Two Harbors, MN 55616, USA","title":"Iron (Hematite)"}},{"local_stop_id":1,"id":1,"geometry":"POINT(-9768724.450237 5137877.22093)","attributes":{"description":"Western Electric's Hawthorne Works was the manufacturing facility responsible for production throughout the early 1900s.","address":"Cicero, Illinois","placename":"Cicero, IL, USA","title":"Telephone"}}],"hops":[{"from_stop_id":2,"to_stop_id":1,"geometry":"MULTILINESTRING((-10204739.229151 5945781.890194,-9768724.450237 5137877.22093))","attributes":{"title":"Iron (Hematite) to Telephone","distance":"654.092232"}},{"from_stop_id":3,"to_stop_id":1,"geometry":"MULTILINESTRING((-8905101.339605 4930180.797179,-9768724.450237 5137877.22093))","attributes":{"title":"Pig Iron & Steel to Telephone","distance":"667.898944"}},{"from_stop_id":4,"to_stop_id":3,"geometry":"MULTILINESTRING((-10204739.229151 5945781.890194,-8905101.339605 4930180.797179))","attributes":{"distance":"1187.653169","title":"Iron (Hematite) to Pig Iron & Steel"}},{"from_stop_id":5,"to_stop_id":3,"geometry":"MULTILINESTRING((-10026717.110606 3497261.357873,-8905101.339605 4930180.797179))","attributes":{"title":"Iron (Hematite) to Pig Iron & Steel","distance":"1480.577326"}},{"from_stop_id":6,"to_stop_id":5,"geometry":"MULTILINESTRING((-10345776.181588 6012077.430134,-10026717.110606 3497261.357873))","attributes":{"title":"Iron (Hematite) to Iron (Hematite)","distance":"1958.748811"}},{"from_stop_id":7,"to_stop_id":5,"geometry":"MULTILINESTRING((-9951798.648024 3809956.871062,-10026717.110606 3497261.357873))","attributes":{"title":"Iron (Hematite) to Iron (Hematite)","distance":"274.831902"}},{"from_stop_id":8,"to_stop_id":5,"geometry":"MULTILINESTRING((-8439566.602088 2275380.601708,-10026717.110606 3497261.357873))","attributes":{"title":"Iron (Hematite) to Iron (Hematite)","distance":"1809.421016"}},{"from_stop_id":9,"to_stop_id":3,"geometry":"MULTILINESTRING((-8593255.181633 5042377.968044,-8905101.339605 4930180.797179))","attributes":{"title":"Common Limestone to Pig Iron & Steel","distance":"250.500913"}},{"from_stop_id":10,"to_stop_id":3,"geometry":"MULTILINESTRING((-8905101.339605 4930180.797179,-8905101.339605 4930180.797179))","attributes":{"title":"Coke to Pig Iron & Steel","distance":"0"}},{"from_stop_id":11,"to_stop_id":10,"geometry":"MULTILINESTRING((-8859860.697796 4868536.851783,-8905101.339605 4930180.797179))","attributes":{"title":"Coal to Coke","distance":"58.311753"}},{"from_stop_id":12,"to_stop_id":10,"geometry":"MULTILINESTRING((-8956198.789254 4664197.776145,-8905101.339605 4930180.797179))","attributes":{"title":"Coal to Coke","distance":"208.679164"}},{"from_stop_id":13,"to_stop_id":1,"geometry":"MULTILINESTRING((-9017991.949163 5859222.796232,-9768724.450237 5137877.22093))","attributes":{"distance":"745.165662","title":"Nickel to Telephone"}},{"from_stop_id":14,"to_stop_id":1,"geometry":"MULTILINESTRING((16835152.988433 -4013563.517504,-9768724.450237 5137877.22093))","attributes":{"title":"Nickel to Telephone","distance":"14864.130214"}},{"from_stop_id":15,"to_stop_id":1,"geometry":"MULTILINESTRING((2433094.369693 -3381588.797442,-9768724.450237 5137877.22093))","attributes":{"title":"Gold to Telephone","distance":"13660.606860"}},{"from_stop_id":16,"to_stop_id":1,"geometry":"MULTILINESTRING((-16443713.194169 9565770.619947,-9768724.450237 5137877.22093))","attributes":{"distance":"4484.103688","title":"Gold to Telephone"}},{"from_stop_id":17,"to_stop_id":1,"geometry":"MULTILINESTRING((-6857873.052932 1145979.107473,-9768724.450237 5137877.22093))","attributes":{"title":"Asphaltum to Telephone","distance":"4341.682826"}},{"from_stop_id":18,"to_stop_id":1,"geometry":"MULTILINESTRING((-7005966.759397 1135943.470215,-9768724.450237 5137877.22093))","attributes":{"title":"Asphaltum to Telephone","distance":"4275.603025"}},{"from_stop_id":19,"to_stop_id":1,"geometry":"MULTILINESTRING((-10026092.129589 2913168.051015,-9768724.450237 5137877.22093))","attributes":{"title":"Asphaltic Petroleum to Telephone","distance":"1851.534915"}},{"from_stop_id":20,"to_stop_id":1,"geometry":"MULTILINESTRING((-8203331.992979 5270724.27882,-9768724.450237 5137877.22093))","attributes":{"title":"Paper to Telephone","distance":"1159.560668"}},{"from_stop_id":21,"to_stop_id":20,"geometry":"MULTILINESTRING((-8256768.231735 5000072.320442,-8203331.992979 5270724.27882))","attributes":{"title":"Linen to Paper","distance":"205.334325"}},{"from_stop_id":22,"to_stop_id":21,"geometry":"MULTILINESTRING((-771167.353207 7017108.645533,-8256768.231735 5000072.320442))","attributes":{"title":"Flax to Linen","distance":"5071.996215"}},{"from_stop_id":23,"to_stop_id":21,"geometry":"MULTILINESTRING((3469336.495877 6170212.711441,-8256768.231735 5000072.320442))","attributes":{"title":"Flax to Linen","distance":"7682.685118"}},{"from_stop_id":24,"to_stop_id":21,"geometry":"MULTILINESTRING((497590.999399 6534001.856289,-8256768.231735 5000072.320442))","attributes":{"title":"Flax to Linen","distance":"5907.257324"}},{"from_stop_id":25,"to_stop_id":21,"geometry":"MULTILINESTRING((1286631.420429 6130984.180845,-8256768.231735 5000072.320442))","attributes":{"title":"Flax to Linen","distance":"6483.338292"}},{"from_stop_id":26,"to_stop_id":21,"geometry":"MULTILINESTRING((255562.054947 6427950.283018,-8256768.231735 5000072.320442))","attributes":{"title":"Flax to Linen","distance":"5788.615337"}},{"from_stop_id":27,"to_stop_id":1,"geometry":"MULTILINESTRING((-8270741.276858 509367.281339,-9768724.450237 5137877.22093))","attributes":{"title":"Platinum to Telephone","distance":"4354.707400"}},{"from_stop_id":28,"to_stop_id":1,"geometry":"MULTILINESTRING((6606331.913652 8909622.263147,-9768724.450237 5137877.22093))","attributes":{"title":"Platinum to Telephone","distance":"8075.697260"}},{"from_stop_id":29,"to_stop_id":1,"geometry":"MULTILINESTRING((-14209668.126165 7118559.555953,-9768724.450237 5137877.22093))","attributes":{"distance":"3206.611851","title":"Platinum to Telephone"}},{"from_stop_id":30,"to_stop_id":1,"geometry":"MULTILINESTRING((-5780295.728898 -1601191.813438,-9768724.450237 5137877.22093))","attributes":{"title":"Rubber to Telephone","distance":"7236.306649"}},{"from_stop_id":31,"to_stop_id":1,"geometry":"MULTILINESTRING((11281462.933065 -65648.93452,-9768724.450237 5137877.22093))","attributes":{"title":"Rubber to Telephone","distance":"15337.839723"}},{"from_stop_id":32,"to_stop_id":1,"geometry":"MULTILINESTRING((-8131966.414398 5084281.273534,-9768724.450237 5137877.22093))","attributes":{"title":"Ebonite to Telephone","distance":"1220.511089"}},{"from_stop_id":33,"to_stop_id":32,"geometry":"MULTILINESTRING((-5780295.728898 -1601191.813438,-8131966.414398 5084281.273534))","attributes":{"title":"Rubber to Ebonite","distance":"6565.058660"}},{"from_stop_id":34,"to_stop_id":32,"geometry":"MULTILINESTRING((-11192690.759854 3643778.87402,-8131966.414398 5084281.273534))","attributes":{"distance":"2706.629410","title":"Sulpher to Ebonite"}},{"from_stop_id":35,"to_stop_id":1,"geometry":"MULTILINESTRING((-7246428.993335 -4564696.453281,-9768724.450237 5137877.22093))","attributes":{"distance":"9159.464885","title":"Wool to Telephone"}},{"from_stop_id":36,"to_stop_id":1,"geometry":"MULTILINESTRING((16355181.927468 -3665678.208029,-9768724.450237 5137877.22093))","attributes":{"distance":"15076.902523","title":"Wool to Telephone"}},{"from_stop_id":37,"to_stop_id":1,"geometry":"MULTILINESTRING((-11416123.694313 2708933.292233,-9768724.450237 5137877.22093))","attributes":{"distance":"2444.764997","title":"Wool to Telephone"}},{"from_stop_id":38,"to_stop_id":1,"geometry":"MULTILINESTRING((14755505.404755 -2212877.884205,-9768724.450237 5137877.22093))","attributes":{"distance":"15489.553198","title":"Wool to Telephone"}},{"from_stop_id":39,"to_stop_id":1,"geometry":"MULTILINESTRING((8737096.249779 1965692.870033,-9768724.450237 5137877.22093))","attributes":{"distance":"13278.713064","title":"Mica to Telephone"}},{"from_stop_id":40,"to_stop_id":1,"geometry":"MULTILINESTRING((5217445.125175 -2127516.82188,-9768724.450237 5137877.22093))","attributes":{"title":"Mica to Telephone","distance":"15038.216589"}},{"from_stop_id":41,"to_stop_id":1,"geometry":"MULTILINESTRING((-5780295.728898 -1601191.813438,-9768724.450237 5137877.22093))","attributes":{"distance":"7236.306649","title":"Mica to Telephone"}},{"from_stop_id":42,"to_stop_id":1,"geometry":"MULTILINESTRING((-10654710.288472 4451692.554811,-9768724.450237 5137877.22093))","attributes":{"title":"Mica to Telephone","distance":"863.273881"}},{"from_stop_id":43,"to_stop_id":1,"geometry":"MULTILINESTRING((-10222672.932701 4191236.712494,-9768724.450237 5137877.22093))","attributes":{"title":"Aluminum (Bauxite) to Telephone","distance":"819.329751"}},{"from_stop_id":44,"to_stop_id":1,"geometry":"MULTILINESTRING((-1079425.583803 1112739.818908,-9768724.450237 5137877.22093))","attributes":{"title":"Aluminum (Bauxite) to Telephone","distance":"8285.210588"}},{"from_stop_id":45,"to_stop_id":1,"geometry":"MULTILINESTRING((-8460829.326142 5042679.553733,-9768724.450237 5137877.22093))","attributes":{"title":"Coal to Telephone","distance":"979.892065"}},{"from_stop_id":46,"to_stop_id":1,"geometry":"MULTILINESTRING((-10521170.314122 4450853.470443,-9768724.450237 5137877.22093))","attributes":{"title":"Zinc to Telephone","distance":"785.014975"}},{"from_stop_id":47,"to_stop_id":1,"geometry":"MULTILINESTRING((16355181.927468 -3665678.208029,-9768724.450237 5137877.22093))","attributes":{"title":"Zinc to Telephone","distance":"15076.902523"}},{"from_stop_id":48,"to_stop_id":1,"geometry":"MULTILINESTRING((1995339.322048 6563202.009238,-9768724.450237 5137877.22093))","attributes":{"title":"Zinc to Telephone","distance":"7465.890009"}},{"from_stop_id":49,"to_stop_id":1,"geometry":"MULTILINESTRING((-8291403.955461 4937079.662206,-9768724.450237 5137877.22093))","attributes":{"title":"Zinc to Telephone","distance":"1119.938365"}},{"from_stop_id":50,"to_stop_id":1,"geometry":"MULTILINESTRING((-517913.730541 6533956.857863,-9768724.450237 5137877.22093))","attributes":{"distance":"6130.248562","title":"Tin to Telephone"}},{"from_stop_id":51,"to_stop_id":1,"geometry":"MULTILINESTRING((11354588.060914 669141.057044,-9768724.450237 5137877.22093))","attributes":{"title":"Tin to Telephone","distance":"14603.453444"}},{"from_stop_id":52,"to_stop_id":1,"geometry":"MULTILINESTRING((11806992.464117 -254819.990239,-9768724.450237 5137877.22093))","attributes":{"distance":"15405.234969","title":"Tin to Telephone"}},{"from_stop_id":53,"to_stop_id":1,"geometry":"MULTILINESTRING((13467901.708762 1643088.171762,-9768724.450237 5137877.22093))","attributes":{"distance":"13081.158452","title":"Hemp to Telephone"}},{"from_stop_id":54,"to_stop_id":1,"geometry":"MULTILINESTRING((-9754904.513941 5142738.902517,-9768724.450237 5137877.22093))","attributes":{"title":"Telephone Cables to Telephone","distance":"10.898570"}},{"from_stop_id":55,"to_stop_id":54,"geometry":"MULTILINESTRING((12588219.637255 2581152.999194,-9754904.513941 5142738.902517))","attributes":{"distance":"12537.559753","title":"Antimony to Telephone Cables"}},{"from_stop_id":56,"to_stop_id":55,"geometry":"MULTILINESTRING((12577300.197084 3263157.816317,12588219.637255 2581152.999194))","attributes":{"title":"Antimony to Antimony","distance":"615.398881"}},{"from_stop_id":57,"to_stop_id":54,"geometry":"MULTILINESTRING((2075385.037924 8428326.96544,-9754904.513941 5142738.902517))","attributes":{"distance":"6854.545502","title":"Antimony to Telephone Cables"}},{"from_stop_id":58,"to_stop_id":54,"geometry":"MULTILINESTRING((942758.756276 8505587.038689,-9754904.513941 5142738.902517))","attributes":{"title":"Antimony to Telephone Cables","distance":"6359.219829"}},{"from_stop_id":59,"to_stop_id":54,"geometry":"MULTILINESTRING((-417361.261272 4933551.652462,-9754904.513941 5142738.902517))","attributes":{"distance":"6718.654566","title":"Lead to Telephone Cables"}},{"from_stop_id":60,"to_stop_id":54,"geometry":"MULTILINESTRING((16355181.927468 -3665678.208029,-9754904.513941 5142738.902517))","attributes":{"title":"Lead to Telephone Cables","distance":"15087.440220"}},{"from_stop_id":61,"to_stop_id":54,"geometry":"MULTILINESTRING((-10222672.932701 4574377.176589,-9754904.513941 5142738.902517))","attributes":{"title":"Lead to Telephone Cables","distance":"563.588161"}},{"from_stop_id":62,"to_stop_id":1,"geometry":"MULTILINESTRING((-417361.261272 4933551.652462,-9768724.450237 5137877.22093))","attributes":{"distance":"6729.380349","title":"Lead to Telephone"}},{"from_stop_id":63,"to_stop_id":1,"geometry":"MULTILINESTRING((-8282800.316921 4874421.358375,-9768724.450237 5137877.22093))","attributes":{"distance":"1137.260962","title":"Silk to Telephone"}},{"from_stop_id":64,"to_stop_id":63,"geometry":"MULTILINESTRING((12348165.277932 2471112.008518,-8282800.316921 4874421.358375))","attributes":{"distance":"13129.749826","title":"Silk to Silk"}},{"from_stop_id":65,"to_stop_id":1,"geometry":"MULTILINESTRING((14864621.571131 3969712.852676,-9768724.450237 5137877.22093))","attributes":{"title":"Silk to Telephone","distance":"10630.934035"}},{"from_stop_id":66,"to_stop_id":1,"geometry":"MULTILINESTRING((-16443713.194169 9565770.619947,-9768724.450237 5137877.22093))","attributes":{"distance":"4484.103688","title":"Silver to Telephone"}},{"from_stop_id":67,"to_stop_id":1,"geometry":"MULTILINESTRING((-11416123.694313 2708933.292233,-9768724.450237 5137877.22093))","attributes":{"distance":"2444.764997","title":"Silver to Telephone"}},{"from_stop_id":68,"to_stop_id":1,"geometry":"MULTILINESTRING((-12527314.138966 5780961.911905,-9768724.450237 5137877.22093))","attributes":{"distance":"2028.884165","title":"Copper to Telephone"}},{"from_stop_id":69,"to_stop_id":1,"geometry":"MULTILINESTRING((-9678196.234323 6060909.399103,-9768724.450237 5137877.22093))","attributes":{"title":"Copper to Telephone","distance":"656.681113"}},{"from_stop_id":70,"to_stop_id":1,"geometry":"MULTILINESTRING((3141254.579416 -2965844.12197,-9768724.450237 5137877.22093))","attributes":{"title":"Copper to Telephone","distance":"13977.057937"}},{"from_stop_id":71,"to_stop_id":1,"geometry":"MULTILINESTRING((-8350648.52242 -1027437.355768,-9768724.450237 5137877.22093))","attributes":{"title":"Copper to Telephone","distance":"5821.854520"}},{"from_stop_id":72,"to_stop_id":1,"geometry":"MULTILINESTRING((-10552831.224832 3414057.06632,-9768724.450237 5137877.22093))","attributes":{"distance":"1532.047143","title":"Cotton to Telephone"}},{"from_stop_id":73,"to_stop_id":72,"geometry":"MULTILINESTRING((-11121018.963617 3759189.437118,-10552831.224832 3414057.06632))","attributes":{"title":"Cotton to Cotton","distance":"571.234186"}},{"from_stop_id":74,"to_stop_id":1,"geometry":"MULTILINESTRING((-10026717.110606 3497261.357873,-9768724.450237 5137877.22093))","attributes":{"title":"Cotton to Telephone","distance":"1338.832232"}},{"from_stop_id":75,"to_stop_id":74,"geometry":"MULTILINESTRING((-10257537.206474 3664585.105528,-10026717.110606 3497261.357873))","attributes":{"distance":"245.105502","title":"Cotton to Cotton"}},{"from_stop_id":76,"to_stop_id":74,"geometry":"MULTILINESTRING((-9673919.562125 3805156.31661,-10026717.110606 3497261.357873))","attributes":{"title":"Cotton to Cotton","distance":"400.296041"}},{"from_stop_id":77,"to_stop_id":74,"geometry":"MULTILINESTRING((-9951798.648024 3809956.871062,-10026717.110606 3497261.357873))","attributes":{"title":"Cotton to Cotton","distance":"274.831902"}},{"from_stop_id":78,"to_stop_id":1,"geometry":"MULTILINESTRING((3471503.775043 3146451.579471,-9768724.450237 5137877.22093))","attributes":{"title":"Cotton to Telephone","distance":"10108.683807"}},{"from_stop_id":79,"to_stop_id":1,"geometry":"MULTILINESTRING((-8282800.316921 4874421.358375,-9768724.450237 5137877.22093))","attributes":{"distance":"1137.260962","title":"Nickel Silver to Telephone"}},{"from_stop_id":80,"to_stop_id":79,"geometry":"MULTILINESTRING((-9017991.949163 5859222.796232,-8282800.316921 4874421.358375))","attributes":{"title":"Nickel to Nickel Silver","distance":"892.246147"}},{"from_stop_id":81,"to_stop_id":79,"geometry":"MULTILINESTRING((-417361.261272 4933551.652462,-8282800.316921 4874421.358375))","attributes":{"distance":"5823.466386","title":"Lead to Nickel Silver"}},{"from_stop_id":82,"to_stop_id":79,"geometry":"MULTILINESTRING((-10521170.314122 4450853.470443,-8282800.316921 4874421.358375))","attributes":{"distance":"1775.067838","title":"Zinc to Nickel Silver"}}]},"editable":true}