{"supplychain":{"category":13,"created":1332747040,"enable_comments":true,"flags":0,"id":2256,"modified":1332747040,"other_perms":1,"passcode":null,"user_featured":false,"usergroup_id":null,"usergroup_perms":0,"user_id":1461,"owner":{"id":1461,"name":"nitin","avatar":"http:\/\/free.sourcemap.com\/assets\/images\/default-user.png","banner_url":null,"display_name":null},"taxonomy":[{"description":"Automotive & Industrial","id":13,"left":21,"name":"industrial","right":24,"title":"Automotive & Industrial"}],"attributes":{"title":"trial1","description":"trial","tags":"ccc"},"stops":[{"local_stop_id":68,"id":68,"geometry":"POINT(-10382398.212384 5618898.147063)","attributes":{"address":"Minneapolis,MN","placename":"Minneapolis, MN, USA","title":"Smelter"}},{"local_stop_id":67,"id":67,"geometry":"POINT(-9089865.489713 3546320.837278)","attributes":{"address":"Jacksonville,FL","placename":"Jacksonville, FL, USA","title":"Smelter"}},{"local_stop_id":66,"id":66,"geometry":"POINT(-11872350.229968 4175369.056032)","attributes":{"address":"Albuquerque,NM","placename":"Albuquerque, NM, USA","title":"Smelter"}},{"local_stop_id":65,"id":65,"geometry":"POINT(-8427030.468951 4939371.088596)","attributes":{"address":"Topton,PA","placename":"Topton, PA, USA","title":"Smelter"}},{"local_stop_id":64,"id":64,"geometry":"POINT(-13627666.99667 4547679.508982)","attributes":{"address":"San Francisco,CA","placename":"San Francisco, CA, USA","title":"Smelter"}},{"local_stop_id":63,"id":63,"geometry":"POINT(-11669835.897621 4826701.608898)","attributes":{"address":"Aurora, Colorado","placename":"Aurora, CO, USA","title":"Customer"}},{"local_stop_id":62,"id":62,"geometry":"POINT(-11668660.797945 4697904.39345)","attributes":{"address":"Colorado Springs, Colorado","placename":"Colorado Springs, CO, USA","title":"Customer"}},{"local_stop_id":61,"id":61,"geometry":"POINT(-11686843.723571 4828108.878899)","attributes":{"address":"Denver\u00a0[f], Colorado","placename":"Denver, CO, USA","title":"Customer"}},{"local_stop_id":60,"id":60,"geometry":"POINT(-9244611.02556 5210755.618708)","attributes":{"address":"Detroit, Michigan","placename":"Detroit, MI, USA","title":"Customer"}},{"local_stop_id":59,"id":59,"geometry":"POINT(-10382398.212384 5618898.147063)","attributes":{"address":"Minneapolis, Minnesota","placename":"Minneapolis, MN, USA","title":"Customer"}},{"local_stop_id":58,"id":58,"geometry":"POINT(-10686447.174735 5049636.772523)","attributes":{"address":"Omaha, Nebraska","placename":"Omaha, NE, USA","title":"Customer"}},{"local_stop_id":57,"id":57,"geometry":"POINT(-9754904.513941 5142738.902517)","attributes":{"address":"Chicago, Illinois","placename":"Chicago, IL, USA","title":"Customer"}},{"local_stop_id":56,"id":56,"geometry":"POINT(-9591072.880881 4832360.382466)","attributes":{"address":"Indianapolis[f], Indiana","placename":"Indianapolis, IN, USA","title":"Customer"}},{"local_stop_id":55,"id":55,"geometry":"POINT(-10835530.010536 4536037.906622)","attributes":{"address":"Wichita, Kansas","placename":"Wichita, KS, USA","title":"Customer"}},{"local_stop_id":54,"id":54,"geometry":"POINT(-10040951.745401 4668382.843839)","attributes":{"address":"Saint Louis\u00a0[d], Missouri","placename":"St Louis, MO, USA","title":"Customer"}},{"local_stop_id":53,"id":53,"geometry":"POINT(-10528437.885002 4735966.621857)","attributes":{"address":"Kansas City, Missouri","placename":"Kansas City, MO, USA","title":"Customer"}},{"local_stop_id":52,"id":52,"geometry":"POINT(-9094291.307764 5086298.649398)","attributes":{"address":"Cleveland, Ohio","placename":"Cleveland, OH, USA","title":"Customer"}},{"local_stop_id":51,"id":51,"geometry":"POINT(-9239383.5068 4860302.011878)","attributes":{"address":"Columbus, Ohio","placename":"Columbus, OH, USA","title":"Customer"}},{"local_stop_id":50,"id":50,"geometry":"POINT(-9785703.878584 5317895.079942)","attributes":{"address":"Milwaukee, Wisconsin","placename":"Milwaukee, WI, USA","title":"Customer"}},{"local_stop_id":49,"id":49,"geometry":"POINT(-8575649.01342 4706658.354775)","attributes":{"address":"Washington, District of Columbia","placename":"Washington, DC, USA","title":"Customer"}},{"local_stop_id":48,"id":48,"geometry":"POINT(-8528429.901434 4763352.472613)","attributes":{"address":"Baltimore, Maryland","placename":"Baltimore, MD, USA","title":"Customer"}},{"local_stop_id":47,"id":47,"geometry":"POINT(-7910337.76851 5214822.776941)","attributes":{"address":"Boston, Massachusetts","placename":"Boston, MA, USA","title":"Customer"}},{"local_stop_id":46,"id":46,"geometry":"POINT(-8367194.717573 4859018.147241)","attributes":{"address":"Philadelphia, Pennsylvania","placename":"Philadelphia, PA, USA","title":"Customer"}},{"local_stop_id":45,"id":45,"geometry":"POINT(-8457830.601699 4418626.389044)","attributes":{"address":"Virginia Beach\u00a0[e], Virginia","placename":"Virginia Beach, VA, USA","title":"Customer"}},{"local_stop_id":44,"id":44,"geometry":"POINT(-9179091.022683 3242743.855783)","attributes":{"address":"Tampa, Florida","placename":"Tampa, FL, USA","title":"Customer"}},{"local_stop_id":43,"id":43,"geometry":"POINT(-8930766.371033 2972967.227658)","attributes":{"address":"Miami, Florida","placename":"Miami, FL, USA","title":"Customer"}},{"local_stop_id":42,"id":42,"geometry":"POINT(-9089865.489713 3546320.837278)","attributes":{"address":"Jacksonville, Florida","placename":"Jacksonville, FL, USA","title":"Customer"}},{"local_stop_id":41,"id":41,"geometry":"POINT(-9394027.22984 3995147.831738)","attributes":{"address":"Atlanta, Georgia","placename":"Atlanta, GA, USA","title":"Customer"}},{"local_stop_id":40,"id":40,"geometry":"POINT(-9546587.619742 4615180.606067)","attributes":{"address":"Louisville, Kentucky","placename":"Louisville, KY, USA","title":"Customer"}},{"local_stop_id":39,"id":39,"geometry":"POINT(-10026717.110606 3497261.357873)","attributes":{"address":"New Orleans, Louisiana","placename":"New Orleans, LA, USA","title":"Customer"}},{"local_stop_id":38,"id":38,"geometry":"POINT(-11872350.229968 4175369.056032)","attributes":{"address":"Albuquerque, New Mexico","placename":"Albuquerque, NM, USA","title":"Customer"}},{"local_stop_id":37,"id":37,"geometry":"POINT(-8754010.522829 4269307.276918)","attributes":{"address":"Raleigh, North Carolina","placename":"Raleigh, NC, USA","title":"Customer"}},{"local_stop_id":36,"id":36,"geometry":"POINT(-8999415.69838 4194784.328974)","attributes":{"address":"Charlotte, North Carolina","placename":"Charlotte, NC, USA","title":"Customer"}},{"local_stop_id":35,"id":35,"geometry":"POINT(-10685866.832833 4321829.740469)","attributes":{"address":"Tulsa, Oklahoma","placename":"Tulsa, OK, USA","title":"Customer"}},{"local_stop_id":34,"id":34,"geometry":"POINT(-10855479.064411 4227603.645556)","attributes":{"address":"Oklahoma City, Oklahoma","placename":"Oklahoma City, OK, USA","title":"Customer"}},{"local_stop_id":33,"id":33,"geometry":"POINT(-13656252.906822 5704308.111809)","attributes":{"address":"Portland, Oregon","placename":"Portland, OR, USA","title":"Customer"}},{"local_stop_id":32,"id":32,"geometry":"POINT(-9660800.025802 4323471.640479)","attributes":{"address":"Nashville\u00a0[f], Tennessee","placename":"Nashville, TN, USA","title":"Customer"}},{"local_stop_id":31,"id":31,"geometry":"POINT(-10024206.611186 4184220.871795)","attributes":{"address":"Memphis, Tennessee","placename":"Memphis, TN, USA","title":"Customer"}},{"local_stop_id":30,"id":30,"geometry":"POINT(-10842115.538028 3223855.027765)","attributes":{"address":"Corpus Christi, Texas","placename":"Corpus Christi, TX, USA","title":"Customer"}},{"local_stop_id":29,"id":29,"geometry":"POINT(-10810020.414512 3860273.155768)","attributes":{"address":"Arlington, Texas","placename":"Arlington, TX, USA","title":"Customer"}},{"local_stop_id":28,"id":28,"geometry":"POINT(-11854070.979586 3731680.355971)","attributes":{"address":"El Paso, Texas","placename":"El Paso, TX, USA","title":"Customer"}},{"local_stop_id":27,"id":27,"geometry":"POINT(-10833707.421041 3858913.061908)","attributes":{"address":"Fort Worth, Texas","placename":"Fort Worth, TX, USA","title":"Customer"}},{"local_stop_id":26,"id":26,"geometry":"POINT(-10880707.756832 3537936.30054)","attributes":{"address":"Austin, Texas","placename":"Austin, TX, USA","title":"Customer"}},{"local_stop_id":25,"id":25,"geometry":"POINT(-10772378.552464 3869178.646697)","attributes":{"address":"Dallas, Texas","placename":"Dallas, TX, USA","title":"Customer"}},{"local_stop_id":24,"id":24,"geometry":"POINT(-10964260.537606 3429738.795921)","attributes":{"address":"San Antonio, Texas","placename":"San Antonio, TX, USA","title":"Customer"}},{"local_stop_id":23,"id":23,"geometry":"POINT(-10616471.887537 3472761.945088)","attributes":{"address":"Houston, Texas","placename":"Houston, TX, USA","title":"Customer"}},{"local_stop_id":22,"id":22,"geometry":"POINT(-12449022.56223 3950543.294554)","attributes":{"address":"Mesa, Arizona","placename":"Mesa, AZ, USA","title":"Customer"}},{"local_stop_id":21,"id":21,"geometry":"POINT(-12348279.157771 3792453.153723)","attributes":{"address":"Tucson, Arizona","placename":"Tucson, AZ, USA","title":"Customer"}},{"local_stop_id":20,"id":20,"geometry":"POINT(-12476024.763382 3954970.877516)","attributes":{"address":"Phoenix, Arizona","placename":"Phoenix, AZ, USA","title":"Customer"}},{"local_stop_id":19,"id":19,"geometry":"POINT(-13120987.239522 3994689.659096)","attributes":{"address":"Santa Ana, California","placename":"Santa Ana, CA, USA","title":"Customer"}},{"local_stop_id":18,"id":18,"geometry":"POINT(-13126182.497894 4006707.310464)","attributes":{"address":"Anaheim, California","placename":"Anaheim, CA, USA","title":"Customer"}},{"local_stop_id":17,"id":17,"geometry":"POINT(-13249102.470371 4214726.475458)","attributes":{"address":"Bakersfield, California","placename":"Bakersfield, CA, USA","title":"Customer"}},{"local_stop_id":16,"id":16,"geometry":"POINT(-13611158.11581 4551825.709453)","attributes":{"address":"Oakland, California","placename":"Oakland, CA, USA","title":"Customer"}},{"local_stop_id":15,"id":15,"geometry":"POINT(-13153294.582515 4002536.612345)","attributes":{"address":"Long Beach, California","placename":"Long Beach, CA, USA","title":"Customer"}},{"local_stop_id":14,"id":14,"geometry":"POINT(-13524694.697707 4661911.338796)","attributes":{"address":"Sacramento, California","placename":"Sacramento, CA, USA","title":"Customer"}},{"local_stop_id":13,"id":13,"geometry":"POINT(-13332998.805358 4404001.304882)","attributes":{"address":"Fresno, California","placename":"Fresno, CA, USA","title":"Customer"}},{"local_stop_id":12,"id":12,"geometry":"POINT(-13627666.99667 4547679.508982)","attributes":{"address":"San Francisco, California","placename":"San Francisco, CA, USA","title":"Customer"}},{"local_stop_id":11,"id":11,"geometry":"POINT(-13569284.376529 4486518.948002)","attributes":{"address":"San Jose, California","placename":"San Jose, CA, USA","title":"Customer"}},{"local_stop_id":10,"id":10,"geometry":"POINT(-13041885.98047 3857579.348242)","attributes":{"address":"San Diego, California","placename":"San Diego, CA, USA","title":"Customer"}},{"local_stop_id":9,"id":9,"geometry":"POINT(-13162826.792588 4035817.961317)","attributes":{"address":"Los Angeles, California","placename":"Los Angeles, CA, USA","title":"Customer"}},{"local_stop_id":8,"id":8,"geometry":"POINT(-12820979.230347 4316407.973249)","attributes":{"address":"Las Vegas, Nevada","placename":"Las Vegas, NV, USA","title":"Customer"}},{"local_stop_id":7,"id":7,"geometry":"POINT(-8905101.339605 4930180.797179)","attributes":{"address":"Pittsburgh, Pennsylvania","placename":"Pittsburgh, PA, USA","title":"Customer"}},{"local_stop_id":6,"id":6,"geometry":"POINT(-13617943.829143 6041590.385935)","attributes":{"address":"Seattle, Washington","placename":"Seattle, WA, USA","title":"Customer"}},{"local_stop_id":5,"id":5,"geometry":"POINT(-10231592.429164 5263162.825633)","attributes":{"address":"Oelwein, IA","placename":"Oelwein, IA, USA","title":"Distribution Center"}},{"local_stop_id":4,"id":4,"geometry":"POINT(-10836148.924641 3645513.332302)","attributes":{"address":"Temple, TX","placename":"Temple, TX, USA","title":"Distribution Center"}},{"local_stop_id":3,"id":3,"geometry":"POINT(-8754010.522829 4269307.276918)","attributes":{"address":"Raleigh, NC","placename":"Raleigh, NC, USA","title":"Distribution Center"}},{"local_stop_id":2,"id":2,"geometry":"POINT(-9587047.779601 4609419.45724)","attributes":{"address":"Corydon, IN","placename":"Corydon, IN 47112, USA","title":"Factory"}},{"local_stop_id":1,"id":1,"geometry":"POINT(-8433307.919753 4936240.071855)","attributes":{"address":"Lyons, PA","placename":"Lyons, PA, USA","title":"Factory"}}],"hops":[{"from_stop_id":2,"to_stop_id":3,"geometry":"MULTILINESTRING((-9587047.779601 4609419.45724,-8754010.522829 4269307.276918))","attributes":{}},{"from_stop_id":2,"to_stop_id":4,"geometry":"MULTILINESTRING((-9587047.779601 4609419.45724,-10836148.924641 3645513.332302))","attributes":{}},{"from_stop_id":2,"to_stop_id":5,"geometry":"MULTILINESTRING((-9587047.779601 4609419.45724,-10231592.429164 5263162.825633))","attributes":{}},{"from_stop_id":5,"to_stop_id":6,"geometry":"MULTILINESTRING((-10231592.429164 5263162.825633,-13617943.829143 6041590.385935))","attributes":{}},{"from_stop_id":5,"to_stop_id":7,"geometry":"MULTILINESTRING((-10231592.429164 5263162.825633,-8905101.339605 4930180.797179))","attributes":{}},{"from_stop_id":5,"to_stop_id":8,"geometry":"MULTILINESTRING((-10231592.429164 5263162.825633,-12820979.230347 4316407.973249))","attributes":{}},{"from_stop_id":5,"to_stop_id":9,"geometry":"MULTILINESTRING((-10231592.429164 5263162.825633,-13162826.792588 4035817.961317))","attributes":{}},{"from_stop_id":5,"to_stop_id":10,"geometry":"MULTILINESTRING((-10231592.429164 5263162.825633,-13041885.98047 3857579.348242))","attributes":{}},{"from_stop_id":5,"to_stop_id":11,"geometry":"MULTILINESTRING((-10231592.429164 5263162.825633,-13569284.376529 4486518.948002))","attributes":{}},{"from_stop_id":5,"to_stop_id":12,"geometry":"MULTILINESTRING((-10231592.429164 5263162.825633,-13627666.99667 4547679.508982))","attributes":{}},{"from_stop_id":5,"to_stop_id":13,"geometry":"MULTILINESTRING((-10231592.429164 5263162.825633,-13332998.805358 4404001.304882))","attributes":{}},{"from_stop_id":5,"to_stop_id":14,"geometry":"MULTILINESTRING((-10231592.429164 5263162.825633,-13524694.697707 4661911.338796))","attributes":{}},{"from_stop_id":5,"to_stop_id":15,"geometry":"MULTILINESTRING((-10231592.429164 5263162.825633,-13153294.582515 4002536.612345))","attributes":{}},{"from_stop_id":5,"to_stop_id":16,"geometry":"MULTILINESTRING((-10231592.429164 5263162.825633,-13611158.11581 4551825.709453))","attributes":{}},{"from_stop_id":5,"to_stop_id":17,"geometry":"MULTILINESTRING((-10231592.429164 5263162.825633,-13249102.470371 4214726.475458))","attributes":{}},{"from_stop_id":5,"to_stop_id":18,"geometry":"MULTILINESTRING((-10231592.429164 5263162.825633,-13126182.497894 4006707.310464))","attributes":{}},{"from_stop_id":5,"to_stop_id":19,"geometry":"MULTILINESTRING((-10231592.429164 5263162.825633,-13120987.239522 3994689.659096))","attributes":{}},{"from_stop_id":5,"to_stop_id":20,"geometry":"MULTILINESTRING((-10231592.429164 5263162.825633,-12476024.763382 3954970.877516))","attributes":{}},{"from_stop_id":5,"to_stop_id":21,"geometry":"MULTILINESTRING((-10231592.429164 5263162.825633,-12348279.157771 3792453.153723))","attributes":{}},{"from_stop_id":5,"to_stop_id":22,"geometry":"MULTILINESTRING((-10231592.429164 5263162.825633,-12449022.56223 3950543.294554))","attributes":{}},{"from_stop_id":5,"to_stop_id":23,"geometry":"MULTILINESTRING((-10231592.429164 5263162.825633,-10616471.887537 3472761.945088))","attributes":{}},{"from_stop_id":5,"to_stop_id":24,"geometry":"MULTILINESTRING((-10231592.429164 5263162.825633,-10964260.537606 3429738.795921))","attributes":{}},{"from_stop_id":5,"to_stop_id":25,"geometry":"MULTILINESTRING((-10231592.429164 5263162.825633,-10772378.552464 3869178.646697))","attributes":{}},{"from_stop_id":5,"to_stop_id":26,"geometry":"MULTILINESTRING((-10231592.429164 5263162.825633,-10880707.756832 3537936.30054))","attributes":{}},{"from_stop_id":5,"to_stop_id":27,"geometry":"MULTILINESTRING((-10231592.429164 5263162.825633,-10833707.421041 3858913.061908))","attributes":{}},{"from_stop_id":5,"to_stop_id":28,"geometry":"MULTILINESTRING((-10231592.429164 5263162.825633,-11854070.979586 3731680.355971))","attributes":{}},{"from_stop_id":5,"to_stop_id":29,"geometry":"MULTILINESTRING((-10231592.429164 5263162.825633,-10810020.414512 3860273.155768))","attributes":{}},{"from_stop_id":5,"to_stop_id":30,"geometry":"MULTILINESTRING((-10231592.429164 5263162.825633,-10842115.538028 3223855.027765))","attributes":{}},{"from_stop_id":5,"to_stop_id":31,"geometry":"MULTILINESTRING((-10231592.429164 5263162.825633,-10024206.611186 4184220.871795))","attributes":{}},{"from_stop_id":5,"to_stop_id":32,"geometry":"MULTILINESTRING((-10231592.429164 5263162.825633,-9660800.025802 4323471.640479))","attributes":{}},{"from_stop_id":5,"to_stop_id":33,"geometry":"MULTILINESTRING((-10231592.429164 5263162.825633,-13656252.906822 5704308.111809))","attributes":{}},{"from_stop_id":5,"to_stop_id":34,"geometry":"MULTILINESTRING((-10231592.429164 5263162.825633,-10855479.064411 4227603.645556))","attributes":{}},{"from_stop_id":5,"to_stop_id":35,"geometry":"MULTILINESTRING((-10231592.429164 5263162.825633,-10685866.832833 4321829.740469))","attributes":{}},{"from_stop_id":5,"to_stop_id":36,"geometry":"MULTILINESTRING((-10231592.429164 5263162.825633,-8999415.69838 4194784.328974))","attributes":{}},{"from_stop_id":5,"to_stop_id":37,"geometry":"MULTILINESTRING((-10231592.429164 5263162.825633,-8754010.522829 4269307.276918))","attributes":{}},{"from_stop_id":5,"to_stop_id":38,"geometry":"MULTILINESTRING((-10231592.429164 5263162.825633,-11872350.229968 4175369.056032))","attributes":{}},{"from_stop_id":5,"to_stop_id":39,"geometry":"MULTILINESTRING((-10231592.429164 5263162.825633,-10026717.110606 3497261.357873))","attributes":{}},{"from_stop_id":5,"to_stop_id":40,"geometry":"MULTILINESTRING((-10231592.429164 5263162.825633,-9546587.619742 4615180.606067))","attributes":{}},{"from_stop_id":5,"to_stop_id":41,"geometry":"MULTILINESTRING((-10231592.429164 5263162.825633,-9394027.22984 3995147.831738))","attributes":{}},{"from_stop_id":5,"to_stop_id":42,"geometry":"MULTILINESTRING((-10231592.429164 5263162.825633,-9089865.489713 3546320.837278))","attributes":{}},{"from_stop_id":5,"to_stop_id":43,"geometry":"MULTILINESTRING((-10231592.429164 5263162.825633,-8930766.371033 2972967.227658))","attributes":{}},{"from_stop_id":5,"to_stop_id":44,"geometry":"MULTILINESTRING((-10231592.429164 5263162.825633,-9179091.022683 3242743.855783))","attributes":{}},{"from_stop_id":5,"to_stop_id":45,"geometry":"MULTILINESTRING((-10231592.429164 5263162.825633,-8457830.601699 4418626.389044))","attributes":{}},{"from_stop_id":5,"to_stop_id":46,"geometry":"MULTILINESTRING((-10231592.429164 5263162.825633,-8367194.717573 4859018.147241))","attributes":{}},{"from_stop_id":5,"to_stop_id":47,"geometry":"MULTILINESTRING((-10231592.429164 5263162.825633,-7910337.76851 5214822.776941))","attributes":{}},{"from_stop_id":5,"to_stop_id":48,"geometry":"MULTILINESTRING((-10231592.429164 5263162.825633,-8528429.901434 4763352.472613))","attributes":{}},{"from_stop_id":5,"to_stop_id":49,"geometry":"MULTILINESTRING((-10231592.429164 5263162.825633,-8575649.01342 4706658.354775))","attributes":{}},{"from_stop_id":5,"to_stop_id":50,"geometry":"MULTILINESTRING((-10231592.429164 5263162.825633,-9785703.878584 5317895.079942))","attributes":{}},{"from_stop_id":5,"to_stop_id":51,"geometry":"MULTILINESTRING((-10231592.429164 5263162.825633,-9239383.5068 4860302.011878))","attributes":{}},{"from_stop_id":5,"to_stop_id":52,"geometry":"MULTILINESTRING((-10231592.429164 5263162.825633,-9094291.307764 5086298.649398))","attributes":{}},{"from_stop_id":5,"to_stop_id":53,"geometry":"MULTILINESTRING((-10231592.429164 5263162.825633,-10528437.885002 4735966.621857))","attributes":{}},{"from_stop_id":5,"to_stop_id":54,"geometry":"MULTILINESTRING((-10231592.429164 5263162.825633,-10040951.745401 4668382.843839))","attributes":{}},{"from_stop_id":5,"to_stop_id":55,"geometry":"MULTILINESTRING((-10231592.429164 5263162.825633,-10835530.010536 4536037.906622))","attributes":{}},{"from_stop_id":5,"to_stop_id":56,"geometry":"MULTILINESTRING((-10231592.429164 5263162.825633,-9591072.880881 4832360.382466))","attributes":{}},{"from_stop_id":5,"to_stop_id":57,"geometry":"MULTILINESTRING((-10231592.429164 5263162.825633,-9754904.513941 5142738.902517))","attributes":{}},{"from_stop_id":5,"to_stop_id":58,"geometry":"MULTILINESTRING((-10231592.429164 5263162.825633,-10686447.174735 5049636.772523))","attributes":{}},{"from_stop_id":5,"to_stop_id":59,"geometry":"MULTILINESTRING((-10231592.429164 5263162.825633,-10382398.212384 5618898.147063))","attributes":{}},{"from_stop_id":5,"to_stop_id":60,"geometry":"MULTILINESTRING((-10231592.429164 5263162.825633,-9244611.02556 5210755.618708))","attributes":{}},{"from_stop_id":5,"to_stop_id":61,"geometry":"MULTILINESTRING((-10231592.429164 5263162.825633,-11686843.723571 4828108.878899))","attributes":{}},{"from_stop_id":5,"to_stop_id":62,"geometry":"MULTILINESTRING((-10231592.429164 5263162.825633,-11668660.797945 4697904.39345))","attributes":{}},{"from_stop_id":5,"to_stop_id":63,"geometry":"MULTILINESTRING((-10231592.429164 5263162.825633,-11669835.897621 4826701.608898))","attributes":{}},{"from_stop_id":63,"to_stop_id":64,"geometry":"MULTILINESTRING((-11669835.897621 4826701.608898,-13627666.99667 4547679.508982))","attributes":{}},{"from_stop_id":63,"to_stop_id":65,"geometry":"MULTILINESTRING((-11669835.897621 4826701.608898,-8427030.468951 4939371.088596))","attributes":{}},{"from_stop_id":63,"to_stop_id":66,"geometry":"MULTILINESTRING((-11669835.897621 4826701.608898,-11872350.229968 4175369.056032))","attributes":{}},{"from_stop_id":63,"to_stop_id":67,"geometry":"MULTILINESTRING((-11669835.897621 4826701.608898,-9089865.489713 3546320.837278))","attributes":{}},{"from_stop_id":63,"to_stop_id":68,"geometry":"MULTILINESTRING((-11669835.897621 4826701.608898,-10382398.212384 5618898.147063))","attributes":{}}]},"editable":false}