{"type":"FeatureCollection","features":[{"type":"Feature","geometry":{"type":"Point","coordinates":[4.4001668999963,51.2142031]},"properties":{"description":"","title":"Patrick","placename":"Aalmoezenierstraat, 2000 Antwerpen, Belgium","address":"Aalmoezenierstraat, Antwerpen"}},{"type":"Feature","geometry":{"type":"Point","coordinates":[4.4001668999963,51.2142031]},"properties":{"description":"","title":"Fabric","placename":"Aalmoezenierstraat, 2000 Antwerpen, Belgium","address":"Aalmoezenierstraat, Antwerpen"}},{"type":"Feature","geometry":{"type":"Point","coordinates":[3.1174990000041,50.943851000001]},"properties":{"description":"","title":"Supplier - Fabric","placename":"Roeselare, Belgium","address":"Roeselare, Belgium"}},{"type":"Feature","geometry":{"type":"Point","coordinates":[3.2644599999999,50.830530000003]},"properties":{"description":"","title":"Dyer\/Finisher - Fabric","placename":"Kortrijk, Belgium","address":"Kortijk, Belgium"}},{"type":"Feature","geometry":{"type":"Point","coordinates":[3.1174990000041,50.943851000001]},"properties":{"description":"","title":"Weaver - Fabric","placename":"Roeselare, Belgium","address":"Roeselare, Belgium"}},{"type":"Feature","geometry":{"type":"Point","coordinates":[9.615854699999,45.750859200002]},"properties":{"description":"","title":"Spinner - Fabric","placename":"24018 Villa d'Alm\u00e8 Bergamo, Italy","address":"Villa D'Alm\u00e8, Italy"}},{"type":"Feature","geometry":{"type":"Point","coordinates":[2.2137489999989,46.227638]},"properties":{"description":"","title":"Raw Linen - Fabric","placename":"France","address":"France"}},{"type":"Feature","geometry":{"type":"Point","coordinates":[4.4001668999963,51.2142031]},"properties":{"description":"","title":"Lining","placename":"Aalmoezenierstraat, 2000 Antwerpen, Belgium","address":"Aalmoezenierstraat, Antwerpen"}},{"type":"Feature","geometry":{"type":"Point","coordinates":[6.5853417000026,51.338760899998]},"properties":{"description":"","title":"Supplier - Lining","placename":"Krefeld, Germany","address":"Krefeld, Germany"}},{"type":"Feature","geometry":{"type":"Point","coordinates":[2.1699187000018,41.387916999998]},"properties":{"description":"","title":"Dyer\/Finisher - Lining","placename":"Barcelona, Spain","address":"Barcelona, Spain"}},{"type":"Feature","geometry":{"type":"Point","coordinates":[104.195397,35.861660000001]},"properties":{"description":"","title":"Weaver - Lining","placename":"China","address":"China"}},{"type":"Feature","geometry":{"type":"Point","coordinates":[104.195397,35.861660000001]},"properties":{"description":"","title":"Spinner - Lining","placename":"China","address":"China"}},{"type":"Feature","geometry":{"type":"Point","coordinates":[104.195397,35.861660000001]},"properties":{"description":"","title":"Raw Cotton - Lining","placename":"China","address":"China"}},{"type":"Feature","geometry":{"type":"Point","coordinates":[4.4001668999963,51.2142031]},"properties":{"description":"","title":"Bias tape","placename":"Aalmoezenierstraat, 2000 Antwerpen, Belgium","address":"Aalmoezenierstraat, Antwerpen"}},{"type":"Feature","geometry":{"type":"Point","coordinates":[5.9946950000002,51.192442000002]},"properties":{"description":"","title":"Supplier - Bias tape","placename":"Roermond, The Netherlands","address":"Roermond, the Netherlands"}},{"type":"Feature","geometry":{"type":"Point","coordinates":[4.4699360000043,50.503887000001]},"properties":{"description":"","title":"Cutting - Bias tape","placename":"Belgium","address":"Belgium"}},{"type":"Feature","geometry":{"type":"Point","coordinates":[5.9946950000002,51.192442000002]},"properties":{"description":"","title":"Production - Bias tape","placename":"Roermond, The Netherlands","address":"Roermond, the Netherlands"}},{"type":"Feature","geometry":{"type":"Point","coordinates":[35.243321999997,38.963745000001]},"properties":{"description":"","title":"Raw Cotton - Bias tape","placename":"Turkey","address":"Turkey"}},{"type":"Feature","geometry":{"type":"Point","coordinates":[4.4001668999963,51.2142031]},"properties":{"description":"","title":"Buttons","placename":"Aalmoezenierstraat, 2000 Antwerpen, Belgium","address":"Aalmoezenierstraat, Antwerpen"}},{"type":"Feature","geometry":{"type":"Point","coordinates":[8.5302966000037,52.021296499999]},"properties":{"description":"","title":"Supplier - Buttons","placename":"Bielefeld, Germany","address":"Bielefeld, Germany"}},{"type":"Feature","geometry":{"type":"Point","coordinates":[8.5302966000037,52.021296499999]},"properties":{"description":"","title":"Manufacturer - Buttons","placename":"Bielefeld, Germany","address":"Bielefeld, Germany"}},{"type":"Feature","geometry":{"type":"Point","coordinates":[-78.183406000002,-1.8312390000011]},"properties":{"description":"","title":"Raw Wood - Buttons","placename":"Ecuador","address":"Ecuador"}},{"type":"Feature","geometry":{"type":"Point","coordinates":[4.4001668999963,51.2142031]},"properties":{"description":"","title":"Elastic Waistband","placename":"Aalmoezenierstraat, 2000 Antwerpen, Belgium","address":"Aalmoezenierstraat, Antwerpen"}},{"type":"Feature","geometry":{"type":"Point","coordinates":[4.7930450999982,52.3914301]},"properties":{"description":"","title":"Supplier - Elastic Waistband","placename":"Jarmuiden, 1046 Amsterdam, The Netherlands","address":"Jarmuiden, The Netherlands"}},{"type":"Feature","geometry":{"type":"Point","coordinates":[12.567380000004,41.871939999999]},"properties":{"description":"","title":"Manufacturer - Elastic Waistband","placename":"Italy","address":"Italy"}},{"type":"Feature","geometry":{"type":"Point","coordinates":[4.4001668999963,51.2142031]},"properties":{"description":"","title":"Sewing Thread","placename":"Aalmoezenierstraat, 2000 Antwerpen, Belgium","address":"Aalmoezenierstraat, Antwerpen"}},{"type":"Feature","geometry":{"type":"Point","coordinates":[5.2991969999978,52.176351500002]},"properties":{"description":"","title":"Supplier - Sewing Thread","placename":"Soest, The Netherlands","address":"Soest, the Netherlands"}},{"type":"Feature","geometry":{"type":"Point","coordinates":[5.2991969999978,52.176351500002]},"properties":{"description":"","title":"Manufacturer - Sewing Thread","placename":"Soest, The Netherlands","address":"Soest, the Netherlands"}},{"type":"Feature","geometry":{"type":"Point","coordinates":[30.802498000002,26.820553000001]},"properties":{"description":"","title":"Raw Cotton - Sewing Thread","placename":"Egypt","address":"Egypt"}},{"type":"Feature","geometry":{"type":"Point","coordinates":[4.4001668999963,51.2142031]},"properties":{"description":"","title":"Fusible Interfacing","placename":"Aalmoezenierstraat, 2000 Antwerpen, Belgium","address":"Aalmoezenierstraat, Antwerpen"}},{"type":"Feature","geometry":{"type":"Point","coordinates":[8.660270299999,49.544964000001]},"properties":{"description":"","title":"Supplier - Fusible Interfacing","placename":"Weinheim, Germany","address":"Weinheim, Germany"}},{"type":"Feature","geometry":{"type":"Point","coordinates":[8.660270299999,49.544964000001]},"properties":{"description":"","title":"Manufacturer - Fusible Interfacing","placename":"Weinheim, Germany","address":"Weinheim, Germany"}},{"type":"Feature","geometry":{"type":"Point","coordinates":[4.4001668999963,51.2142031]},"properties":{"description":"","title":"Brand Label","placename":"Aalmoezenierstraat, 2000 Antwerpen, Belgium","address":"Aalmoezenierstraat, Antwerpen"}},{"type":"Feature","geometry":{"type":"Point","coordinates":[5.5758263000023,51.380971800003]},"properties":{"description":"","title":"Manufacturer \/ Supplier - Brand Label","placename":"5591 Heeze, The Netherlands","address":"Heeze, the Netherlands"}},{"type":"Feature","geometry":{"type":"Point","coordinates":[12.567380000004,41.871939999999]},"properties":{"description":"","title":"Raw Cotton - Brand Label","placename":"Italy","address":"Italy"}},{"type":"Feature","geometry":{"type":"Point","coordinates":[4.4001668999963,51.2142031]},"properties":{"description":"","title":"Size Label","placename":"Aalmoezenierstraat, 2000 Antwerpen, Belgium","address":"Aalmoezenierstraat, Antwerpen"}},{"type":"Feature","geometry":{"type":"Point","coordinates":[4.4478400000004,51.131278999998]},"properties":{"description":"","title":"Supplier - Size Label","placename":"Kontich, Belgium","address":"Kontich, Belgium"}},{"type":"Feature","geometry":{"type":"Point","coordinates":[104.195397,35.861660000001]},"properties":{"description":"","title":"Manufacturer - Size Label","placename":"China","address":"China"}},{"type":"Feature","geometry":{"type":"Point","coordinates":[104.195397,35.861660000001]},"properties":{"description":"","title":"Raw Cotton - Size Label","placename":"China","address":"China"}},{"type":"Feature","geometry":{"type":"Point","coordinates":[4.4001668999963,51.2142031]},"properties":{"description":"","title":"Care Label + Made in Label","placename":"Aalmoezenierstraat, 2000 Antwerpen, Belgium","address":"Aalmoezenierstraat, Antwerpen"}},{"type":"Feature","geometry":{"type":"Point","coordinates":[4.3776590000037,50.870524999998]},"properties":{"description":"","title":"Manufacturer \/ Supplier - Care Label + Made in Label","placename":"Schaerbeek, Belgium","address":"Schaarbeek, Belgium"}},{"type":"Feature","geometry":{"type":"Point","coordinates":[4.4001668999963,51.2142031]},"properties":{"description":"","title":"Security Seal","placename":"Aalmoezenierstraat, 2000 Antwerpen, Belgium","address":"Aalmoezenierstraat, Antwerpen"}},{"type":"Feature","geometry":{"type":"Point","coordinates":[12.567380000004,41.871939999999]},"properties":{"description":"","title":"Supplier - Security Seal","placename":"Italy","address":"Italy"}},{"type":"Feature","geometry":{"type":"Point","coordinates":[12.567380000004,41.871939999999]},"properties":{"description":"","title":"Manufacturer - Security Seal","placename":"Italy","address":"Italy"}},{"type":"Feature","geometry":{"type":"Point","coordinates":[12.567380000004,41.871939999999]},"properties":{"description":"","title":"Raw Cotton - Security Seal","placename":"Italy","address":"Italy"}},{"type":"Feature","geometry":{"type":"Point","coordinates":[4.4001668999963,51.2142031]},"properties":{"description":"","title":"Hang Tag","placename":"Aalmoezenierstraat, 2000 Antwerpen, Belgium","address":"Aalmoezenierstraat, Antwerpen"}},{"type":"Feature","geometry":{"type":"Point","coordinates":[3.4483709999974,51.087348999999]},"properties":{"description":"","title":"Supplier - Hang Tag","placename":"Aalter, Belgium","address":"Aalter, Belgium"}},{"type":"Feature","geometry":{"type":"Point","coordinates":[3.3408332999981,51.142777799998]},"properties":{"description":"","title":"Printer - Hang Tag","placename":"Beernem, Belgium","address":"Beernem, Belgium"}},{"type":"Feature","geometry":{"type":"Point","coordinates":[6.4811050000023,50.8029513]},"properties":{"description":"","title":"Manufacturer - Hang Tag","placename":"D\u00fcren, Germany","address":"D\u00fcren, Germany"}},{"type":"Feature","geometry":{"type":"Point","coordinates":[10.451526000003,51.165690999999]},"properties":{"description":"","title":"Raw Paper - Hang Tag","placename":"Germany","address":"Germany"}},{"type":"Feature","geometry":{"type":"Point","coordinates":[4.4001668999963,51.2142031]},"properties":{"description":"","title":"Button Bag","placename":"Aalmoezenierstraat, 2000 Antwerpen, Belgium","address":"Aalmoezenierstraat, Antwerpen"}},{"type":"Feature","geometry":{"type":"Point","coordinates":[3.4483709999974,51.087348999999]},"properties":{"description":"","title":"Supplier - Button Bag","placename":"Aalter, Belgium","address":"Aalter, Belgium"}},{"type":"Feature","geometry":{"type":"Point","coordinates":[3.3408332999981,51.142777799998]},"properties":{"description":"","title":"Printer - Button Bag","placename":"Beernem, Belgium","address":"Beernem, Belgium"}},{"type":"Feature","geometry":{"type":"Point","coordinates":[6.4811050000023,50.8029513]},"properties":{"description":"","title":"Manufacturer - Button Bag","placename":"D\u00fcren, Germany","address":"D\u00fcren, Germany"}},{"type":"Feature","geometry":{"type":"Point","coordinates":[10.451526000003,51.165690999999]},"properties":{"description":"","title":"Raw Paper - Button Bag","placename":"Germany","address":"Germany"}},{"type":"Feature","geometry":{"type":"Point","coordinates":[4.4001668999963,51.2142031]},"properties":{"description":"","title":"Cotton Thread","placename":"Aalmoezenierstraat, 2000 Antwerpen, Belgium","address":"Aalmoezenierstraat, Antwerpen"}},{"type":"Feature","geometry":{"type":"Point","coordinates":[5.5758263000023,51.380971800003]},"properties":{"description":"","title":"Supplier - Cotton Thread","placename":"5591 Heeze, The Netherlands","address":"Heeze, the Netherlands"}},{"type":"Feature","geometry":{"type":"Point","coordinates":[4.4001668999963,51.2142031]},"properties":{"description":"","title":"Safety Pin","placename":"Aalmoezenierstraat, 2000 Antwerpen, Belgium","address":"Aalmoezenierstraat, Antwerpen"}},{"type":"Feature","geometry":{"type":"Point","coordinates":[4.4028818000003,51.219215900001]},"properties":{"description":"","title":"Supplier - Safety Pin","placename":"Antwerpen, Belgium","address":"Antwerp, Belgium"}},{"type":"Feature","geometry":{"type":"Point","coordinates":[15.472962000003,49.817492]},"properties":{"description":"","title":"Manufacturer - Safety Pin","placename":"Czech Republic","address":"Czech Republic"}},{"type":"Feature","geometry":{"type":"LineString","coordinates":[[4.4001668999963,51.2142031],[4.4001668999963,51.2142031]]},"properties":{"title":"Fabric to Patrick","distance":"0"}},{"type":"Feature","geometry":{"type":"LineString","coordinates":[[3.1174990000041,50.943851000001],[4.4001668999963,51.2142031]]},"properties":{"title":"Supplier - Fabric to Fabric","distance":"94.511407"}},{"type":"Feature","geometry":{"type":"LineString","coordinates":[[3.2644599999999,50.830530000003],[3.1174990000041,50.943851000001]]},"properties":{"title":"Dyer\/Finisher - Fabric to Supplier - Fabric","distance":"16.280403"}},{"type":"Feature","geometry":{"type":"LineString","coordinates":[[3.1174990000041,50.943851000001],[3.2644599999999,50.830530000003]]},"properties":{"title":"Weaver - Fabric to Dyer\/Finisher - Fabric","distance":"16.280403"}},{"type":"Feature","geometry":{"type":"LineString","coordinates":[[9.615854699999,45.750859200002],[3.1174990000041,50.943851000001]]},"properties":{"title":"Spinner - Fabric to Weaver - Fabric","distance":"750.443150"}},{"type":"Feature","geometry":{"type":"LineString","coordinates":[[2.2137489999989,46.227638],[9.615854699999,45.750859200002]]},"properties":{"title":"Raw Linen - Fabric to Spinner - Fabric","distance":"574.108393"}},{"type":"Feature","geometry":{"type":"LineString","coordinates":[[4.4001668999963,51.2142031],[4.4001668999963,51.2142031]]},"properties":{"title":"Lining to Patrick","distance":"0"}},{"type":"Feature","geometry":{"type":"LineString","coordinates":[[6.5853417000026,51.338760899998],[4.4001668999963,51.2142031]]},"properties":{"title":"Supplier - Lining to Lining","distance":"152.623462"}},{"type":"Feature","geometry":{"type":"LineString","coordinates":[[2.1699187000018,41.387916999998],[6.5853417000026,51.338760899998]]},"properties":{"title":"Dyer\/Finisher - Lining to Supplier - Lining","distance":"1156.644267"}},{"type":"Feature","geometry":{"type":"LineString","coordinates":[[104.195397,35.861660000001],[2.1699187000018,41.387916999998]]},"properties":{"title":"Weaver - Lining to Dyer\/Finisher - Lining","distance":"8327.585467"}},{"type":"Feature","geometry":{"type":"LineString","coordinates":[[104.195397,35.861660000001],[104.195397,35.861660000001]]},"properties":{"title":"Spinner - Lining to Weaver - Lining","distance":"0"}},{"type":"Feature","geometry":{"type":"LineString","coordinates":[[104.195397,35.861660000001],[104.195397,35.861660000001]]},"properties":{"title":"Raw Cotton - Lining to Spinner - Lining","distance":"0"}},{"type":"Feature","geometry":{"type":"LineString","coordinates":[[4.4001668999963,51.2142031],[4.4001668999963,51.2142031]]},"properties":{"title":"Bias tape to Patrick","distance":"0"}},{"type":"Feature","geometry":{"type":"LineString","coordinates":[[5.9946950000002,51.192442000002],[4.4001668999963,51.2142031]]},"properties":{"title":"Supplier - Bias tape to Bias tape","distance":"111.115164"}},{"type":"Feature","geometry":{"type":"LineString","coordinates":[[4.4699360000043,50.503887000001],[5.9946950000002,51.192442000002]]},"properties":{"title":"Cutting - Bias tape to Supplier - Bias tape","distance":"131.605306"}},{"type":"Feature","geometry":{"type":"LineString","coordinates":[[5.9946950000002,51.192442000002],[4.4699360000043,50.503887000001]]},"properties":{"title":"Production - Bias tape to Cutting - Bias tape","distance":"131.605306"}},{"type":"Feature","geometry":{"type":"LineString","coordinates":[[35.243321999997,38.963745000001],[5.9946950000002,51.192442000002]]},"properties":{"title":"Raw Cotton - Bias tape to Production - Bias tape","distance":"2642.895977"}},{"type":"Feature","geometry":{"type":"LineString","coordinates":[[4.4001668999963,51.2142031],[4.4001668999963,51.2142031]]},"properties":{"title":"Buttons to Patrick","distance":"0"}},{"type":"Feature","geometry":{"type":"LineString","coordinates":[[8.5302966000037,52.021296499999],[4.4001668999963,51.2142031]]},"properties":{"title":"Supplier - Buttons to Buttons","distance":"298.890248"}},{"type":"Feature","geometry":{"type":"LineString","coordinates":[[8.5302966000037,52.021296499999],[8.5302966000037,52.021296499999]]},"properties":{"title":"Manufacturer - Buttons to Supplier - Buttons","distance":"0"}},{"type":"Feature","geometry":{"type":"LineString","coordinates":[[-78.183406000002,-1.8312390000011],[8.5302966000037,52.021296499999]]},"properties":{"title":"Raw Wood - Buttons to Manufacturer - Buttons","distance":"9943.390193"}},{"type":"Feature","geometry":{"type":"LineString","coordinates":[[4.4001668999963,51.2142031],[4.4001668999963,51.2142031]]},"properties":{"title":"Elastic Waistband to Patrick","distance":"0"}},{"type":"Feature","geometry":{"type":"LineString","coordinates":[[4.7930450999982,52.3914301],[4.4001668999963,51.2142031]]},"properties":{"title":"Supplier - Elastic Waistband to Elastic Waistband","distance":"133.659489"}},{"type":"Feature","geometry":{"type":"LineString","coordinates":[[12.567380000004,41.871939999999],[4.7930450999982,52.3914301]]},"properties":{"title":"Manufacturer - Elastic Waistband to Supplier - Elastic Waistband","distance":"1307.461483"}},{"type":"Feature","geometry":{"type":"LineString","coordinates":[[4.4001668999963,51.2142031],[4.4001668999963,51.2142031]]},"properties":{"title":"Sewing Thread to Patrick","distance":"0"}},{"type":"Feature","geometry":{"type":"LineString","coordinates":[[5.2991969999978,52.176351500002],[4.4001668999963,51.2142031]]},"properties":{"title":"Supplier - Sewing Thread to Sewing Thread","distance":"123.632553"}},{"type":"Feature","geometry":{"type":"LineString","coordinates":[[5.2991969999978,52.176351500002],[5.2991969999978,52.176351500002]]},"properties":{"title":"Manufacturer - Sewing Thread to Supplier - Sewing Thread","distance":"0"}},{"type":"Feature","geometry":{"type":"LineString","coordinates":[[30.802498000002,26.820553000001],[5.2991969999978,52.176351500002]]},"properties":{"title":"Raw Cotton - Sewing Thread to Manufacturer - Sewing Thread","distance":"3530.577349"}},{"type":"Feature","geometry":{"type":"LineString","coordinates":[[4.4001668999963,51.2142031],[4.4001668999963,51.2142031]]},"properties":{"title":"Fusible Interfacing to Patrick","distance":"0"}},{"type":"Feature","geometry":{"type":"LineString","coordinates":[[8.660270299999,49.544964000001],[4.4001668999963,51.2142031]]},"properties":{"title":"Supplier - Fusible Interfacing to Fusible Interfacing","distance":"354.462236"}},{"type":"Feature","geometry":{"type":"LineString","coordinates":[[8.660270299999,49.544964000001],[8.660270299999,49.544964000001]]},"properties":{"title":"Manufacturer - Fusible Interfacing to Supplier - Fusible Interfacing","distance":"0"}},{"type":"Feature","geometry":{"type":"LineString","coordinates":[[4.4001668999963,51.2142031],[4.4001668999963,51.2142031]]},"properties":{"title":"Brand Label to Patrick","distance":"0"}},{"type":"Feature","geometry":{"type":"LineString","coordinates":[[5.5758263000023,51.380971800003],[4.4001668999963,51.2142031]]},"properties":{"title":"Manufacturer \/ Supplier - Brand Label to Brand Label","distance":"83.816662"}},{"type":"Feature","geometry":{"type":"LineString","coordinates":[[12.567380000004,41.871939999999],[5.5758263000023,51.380971800003]]},"properties":{"title":"Raw Cotton - Brand Label to Manufacturer \/ Supplier - Brand Label","distance":"1183.217757"}},{"type":"Feature","geometry":{"type":"LineString","coordinates":[[4.4001668999963,51.2142031],[4.4001668999963,51.2142031]]},"properties":{"title":"Size Label to Patrick","distance":"0"}},{"type":"Feature","geometry":{"type":"LineString","coordinates":[[4.4478400000004,51.131278999998],[4.4001668999963,51.2142031]]},"properties":{"title":"Supplier - Size Label to Size Label","distance":"9.801444"}},{"type":"Feature","geometry":{"type":"LineString","coordinates":[[104.195397,35.861660000001],[4.4478400000004,51.131278999998]]},"properties":{"title":"Manufacturer - Size Label to Supplier - Size Label","distance":"7592.787716"}},{"type":"Feature","geometry":{"type":"LineString","coordinates":[[104.195397,35.861660000001],[104.195397,35.861660000001]]},"properties":{"title":"Raw Cotton - Size Label to Manufacturer - Size Label","distance":"0"}},{"type":"Feature","geometry":{"type":"LineString","coordinates":[[4.4001668999963,51.2142031],[4.4001668999963,51.2142031]]},"properties":{"title":"Care Label + Made in Label to Patrick","distance":"0"}},{"type":"Feature","geometry":{"type":"LineString","coordinates":[[4.3776590000037,50.870524999998],[4.4001668999963,51.2142031]]},"properties":{"title":"Manufacturer \/ Supplier - Care Label + Made in Label to Care Label + Made in Label","distance":"38.247645"}},{"type":"Feature","geometry":{"type":"LineString","coordinates":[[4.4001668999963,51.2142031],[4.4001668999963,51.2142031]]},"properties":{"title":"Security Seal to Patrick","distance":"0"}},{"type":"Feature","geometry":{"type":"LineString","coordinates":[[12.567380000004,41.871939999999],[4.4001668999963,51.2142031]]},"properties":{"title":"Supplier - Security Seal to Security Seal","distance":"1210.451800"}},{"type":"Feature","geometry":{"type":"LineString","coordinates":[[12.567380000004,41.871939999999],[12.567380000004,41.871939999999]]},"properties":{"title":"Manufacturer - Security Seal to Supplier - Security Seal","distance":"0"}},{"type":"Feature","geometry":{"type":"LineString","coordinates":[[12.567380000004,41.871939999999],[12.567380000004,41.871939999999]]},"properties":{"title":"Raw Cotton - Security Seal to Manufacturer - Security Seal","distance":"0"}},{"type":"Feature","geometry":{"type":"LineString","coordinates":[[4.4001668999963,51.2142031],[4.4001668999963,51.2142031]]},"properties":{"title":"Hang Tag to Patrick","distance":"0"}},{"type":"Feature","geometry":{"type":"LineString","coordinates":[[3.4483709999974,51.087348999999],[4.4001668999963,51.2142031]]},"properties":{"title":"Supplier - Hang Tag to Hang Tag","distance":"67.868827"}},{"type":"Feature","geometry":{"type":"LineString","coordinates":[[3.3408332999981,51.142777799998],[3.4483709999974,51.087348999999]]},"properties":{"title":"Printer - Hang Tag to Supplier - Hang Tag","distance":"9.712632"}},{"type":"Feature","geometry":{"type":"LineString","coordinates":[[6.4811050000023,50.8029513],[3.3408332999981,51.142777799998]]},"properties":{"title":"Manufacturer - Hang Tag to Printer - Hang Tag","distance":"223.081217"}},{"type":"Feature","geometry":{"type":"LineString","coordinates":[[10.451526000003,51.165690999999],[6.4811050000023,50.8029513]]},"properties":{"title":"Raw Paper - Hang Tag to Manufacturer - Hang Tag","distance":"280.808704"}},{"type":"Feature","geometry":{"type":"LineString","coordinates":[[4.4001668999963,51.2142031],[4.4001668999963,51.2142031]]},"properties":{"title":"Button Bag to Patrick","distance":"0"}},{"type":"Feature","geometry":{"type":"LineString","coordinates":[[3.4483709999974,51.087348999999],[4.4001668999963,51.2142031]]},"properties":{"title":"Supplier - Button Bag to Button Bag","distance":"67.868827"}},{"type":"Feature","geometry":{"type":"LineString","coordinates":[[3.3408332999981,51.142777799998],[3.4483709999974,51.087348999999]]},"properties":{"title":"Printer - Button Bag to Supplier - Button Bag","distance":"9.712632"}},{"type":"Feature","geometry":{"type":"LineString","coordinates":[[6.4811050000023,50.8029513],[3.3408332999981,51.142777799998]]},"properties":{"title":"Manufacturer - Button Bag to Printer - Button Bag","distance":"223.081217"}},{"type":"Feature","geometry":{"type":"LineString","coordinates":[[10.451526000003,51.165690999999],[6.4811050000023,50.8029513]]},"properties":{"title":"Raw Paper - Button Bag to Manufacturer - Button Bag","distance":"280.808704"}},{"type":"Feature","geometry":{"type":"LineString","coordinates":[[4.4001668999963,51.2142031],[4.4001668999963,51.2142031]]},"properties":{"title":"Cotton Thread to Patrick","distance":"0"}},{"type":"Feature","geometry":{"type":"LineString","coordinates":[[5.5758263000023,51.380971800003],[4.4001668999963,51.2142031]]},"properties":{"title":"Supplier - Cotton Thread to Cotton Thread","distance":"83.816662"}},{"type":"Feature","geometry":{"type":"LineString","coordinates":[[4.4001668999963,51.2142031],[4.4001668999963,51.2142031]]},"properties":{"title":"Safety Pin to Patrick","distance":"0"}},{"type":"Feature","geometry":{"type":"LineString","coordinates":[[4.4028818000003,51.219215900001],[4.4001668999963,51.2142031]]},"properties":{"title":"Supplier - Safety Pin to Safety Pin","distance":"0.588599"}},{"type":"Feature","geometry":{"type":"LineString","coordinates":[[15.472962000003,49.817492],[4.4028818000003,51.219215900001]]},"properties":{"title":"Manufacturer - Safety Pin to Supplier - Safety Pin","distance":"797.220816"}}],"properties":{"description":"","tags":"","title":"patrick3"}}