{"supplychain":{"category":null,"created":1334235302,"enable_comments":true,"flags":0,"id":2568,"modified":1334236829,"other_perms":1,"passcode":null,"user_featured":false,"usergroup_id":null,"usergroup_perms":0,"user_id":1394,"owner":{"id":1394,"name":"saemundur","avatar":"http:\/\/free.sourcemap.com\/assets\/images\/default-user.png","banner_url":null,"display_name":null},"taxonomy":null,"attributes":{"description":"","tags":"","title":"patrick3"},"stops":[{"local_stop_id":65,"id":65,"geometry":"POINT(489824.338713 6659271.593905)","attributes":{"description":"","title":"Patrick","placename":"Aalmoezenierstraat, 2000 Antwerpen, Belgium","address":"Aalmoezenierstraat, Antwerpen"}},{"local_stop_id":64,"id":64,"geometry":"POINT(489824.338713 6659271.593905)","attributes":{"description":"","title":"Fabric","placename":"Aalmoezenierstraat, 2000 Antwerpen, Belgium","address":"Aalmoezenierstraat, Antwerpen"}},{"local_stop_id":63,"id":63,"geometry":"POINT(347038.401229 6611367.618134)","attributes":{"description":"","title":"Supplier - Fabric","placename":"Roeselare, Belgium","address":"Roeselare, Belgium"}},{"local_stop_id":62,"id":62,"geometry":"POINT(363398.024915 6591371.0128)","attributes":{"description":"","title":"Dyer\/Finisher - Fabric","placename":"Kortrijk, Belgium","address":"Kortijk, Belgium"}},{"local_stop_id":61,"id":61,"geometry":"POINT(347038.401229 6611367.618134)","attributes":{"description":"","title":"Weaver - Fabric","placename":"Roeselare, Belgium","address":"Roeselare, Belgium"}},{"local_stop_id":60,"id":60,"geometry":"POINT(1070432.048746 5740513.725993)","attributes":{"description":"","title":"Spinner - Fabric","placename":"24018 Villa d'Alm\u00e8 Bergamo, Italy","address":"Villa D'Alm\u00e8, Italy"}},{"local_stop_id":59,"id":59,"geometry":"POINT(246433.411424 5816903.713427)","attributes":{"description":"","title":"Raw Linen - Fabric","placename":"France","address":"France"}},{"local_stop_id":58,"id":58,"geometry":"POINT(489824.338713 6659271.593905)","attributes":{"description":"","title":"Lining","placename":"Aalmoezenierstraat, 2000 Antwerpen, Belgium","address":"Aalmoezenierstraat, Antwerpen"}},{"local_stop_id":57,"id":57,"geometry":"POINT(733076.884744 6681436.78483)","attributes":{"description":"","title":"Supplier - Lining","placename":"Krefeld, Germany","address":"Krefeld, Germany"}},{"local_stop_id":56,"id":56,"geometry":"POINT(241554.244747 5069728.812432)","attributes":{"description":"","title":"Dyer\/Finisher - Lining","placename":"Barcelona, Spain","address":"Barcelona, Spain"}},{"local_stop_id":55,"id":55,"geometry":"POINT(11598978.537043 4281602.659627)","attributes":{"description":"","title":"Weaver - Lining","placename":"China","address":"China"}},{"local_stop_id":54,"id":54,"geometry":"POINT(11598978.537043 4281602.659627)","attributes":{"description":"","title":"Spinner - Lining","placename":"China","address":"China"}},{"local_stop_id":53,"id":53,"geometry":"POINT(11598978.537043 4281602.659627)","attributes":{"description":"","title":"Raw Cotton - Lining","placename":"China","address":"China"}},{"local_stop_id":52,"id":52,"geometry":"POINT(489824.338713 6659271.593905)","attributes":{"description":"","title":"Bias tape","placename":"Aalmoezenierstraat, 2000 Antwerpen, Belgium","address":"Aalmoezenierstraat, Antwerpen"}},{"local_stop_id":51,"id":51,"geometry":"POINT(667326.394861 6655405.34011)","attributes":{"description":"","title":"Supplier - Bias tape","placename":"Roermond, The Netherlands","address":"Roermond, the Netherlands"}},{"local_stop_id":50,"id":50,"geometry":"POINT(497590.999399 6534001.856289)","attributes":{"description":"","title":"Cutting - Bias tape","placename":"Belgium","address":"Belgium"}},{"local_stop_id":49,"id":49,"geometry":"POINT(667326.394861 6655405.34011)","attributes":{"description":"","title":"Production - Bias tape","placename":"Roermond, The Netherlands","address":"Roermond, the Netherlands"}},{"local_stop_id":48,"id":48,"geometry":"POINT(3923268.658903 4716479.684629)","attributes":{"description":"","title":"Raw Cotton - Bias tape","placename":"Turkey","address":"Turkey"}},{"local_stop_id":47,"id":47,"geometry":"POINT(489824.338713 6659271.593905)","attributes":{"description":"","title":"Buttons","placename":"Aalmoezenierstraat, 2000 Antwerpen, Belgium","address":"Aalmoezenierstraat, Antwerpen"}},{"local_stop_id":46,"id":46,"geometry":"POINT(949588.273828 6803977.051085)","attributes":{"description":"","title":"Supplier - Buttons","placename":"Bielefeld, Germany","address":"Bielefeld, Germany"}},{"local_stop_id":45,"id":45,"geometry":"POINT(949588.273828 6803977.051085)","attributes":{"description":"","title":"Manufacturer - Buttons","placename":"Bielefeld, Germany","address":"Bielefeld, Germany"}},{"local_stop_id":44,"id":44,"geometry":"POINT(-8703336.944404 -203887.308284)","attributes":{"description":"","title":"Raw Wood - Buttons","placename":"Ecuador","address":"Ecuador"}},{"local_stop_id":43,"id":43,"geometry":"POINT(489824.338713 6659271.593905)","attributes":{"description":"","title":"Elastic Waistband","placename":"Aalmoezenierstraat, 2000 Antwerpen, Belgium","address":"Aalmoezenierstraat, Antwerpen"}},{"local_stop_id":42,"id":42,"geometry":"POINT(533559.339881 6871212.848223)","attributes":{"description":"","title":"Supplier - Elastic Waistband","placename":"Jarmuiden, 1046 Amsterdam, The Netherlands","address":"Jarmuiden, The Netherlands"}},{"local_stop_id":41,"id":41,"geometry":"POINT(1398994.342206 5141815.937641)","attributes":{"description":"","title":"Manufacturer - Elastic Waistband","placename":"Italy","address":"Italy"}},{"local_stop_id":40,"id":40,"geometry":"POINT(489824.338713 6659271.593905)","attributes":{"description":"","title":"Sewing Thread","placename":"Aalmoezenierstraat, 2000 Antwerpen, Belgium","address":"Aalmoezenierstraat, Antwerpen"}},{"local_stop_id":39,"id":39,"geometry":"POINT(589903.911653 6832075.092871)","attributes":{"description":"","title":"Supplier - Sewing Thread","placename":"Soest, The Netherlands","address":"Soest, the Netherlands"}},{"local_stop_id":38,"id":38,"geometry":"POINT(589903.911653 6832075.092871)","attributes":{"description":"","title":"Manufacturer - Sewing Thread","placename":"Soest, The Netherlands","address":"Soest, the Netherlands"}},{"local_stop_id":37,"id":37,"geometry":"POINT(3428918.392521 3101070.050794)","attributes":{"description":"","title":"Raw Cotton - Sewing Thread","placename":"Egypt","address":"Egypt"}},{"local_stop_id":36,"id":36,"geometry":"POINT(489824.338713 6659271.593905)","attributes":{"description":"","title":"Fusible Interfacing","placename":"Aalmoezenierstraat, 2000 Antwerpen, Belgium","address":"Aalmoezenierstraat, Antwerpen"}},{"local_stop_id":35,"id":35,"geometry":"POINT(964056.879928 6367841.39785)","attributes":{"description":"","title":"Supplier - Fusible Interfacing","placename":"Weinheim, Germany","address":"Weinheim, Germany"}},{"local_stop_id":34,"id":34,"geometry":"POINT(964056.879928 6367841.39785)","attributes":{"description":"","title":"Manufacturer - Fusible Interfacing","placename":"Weinheim, Germany","address":"Weinheim, Germany"}},{"local_stop_id":33,"id":33,"geometry":"POINT(489824.338713 6659271.593905)","attributes":{"description":"","title":"Brand Label","placename":"Aalmoezenierstraat, 2000 Antwerpen, Belgium","address":"Aalmoezenierstraat, Antwerpen"}},{"local_stop_id":32,"id":32,"geometry":"POINT(620698.144468 6688961.919562)","attributes":{"description":"","title":"Manufacturer \/ Supplier - Brand Label","placename":"5591 Heeze, The Netherlands","address":"Heeze, the Netherlands"}},{"local_stop_id":31,"id":31,"geometry":"POINT(1398994.342206 5141815.937641)","attributes":{"description":"","title":"Raw Cotton - Brand Label","placename":"Italy","address":"Italy"}},{"local_stop_id":30,"id":30,"geometry":"POINT(489824.338713 6659271.593905)","attributes":{"description":"","title":"Size Label","placename":"Aalmoezenierstraat, 2000 Antwerpen, Belgium","address":"Aalmoezenierstraat, Antwerpen"}},{"local_stop_id":29,"id":29,"geometry":"POINT(495131.28393 6644548.392835)","attributes":{"description":"","title":"Supplier - Size Label","placename":"Kontich, Belgium","address":"Kontich, Belgium"}},{"local_stop_id":28,"id":28,"geometry":"POINT(11598978.537043 4281602.659627)","attributes":{"description":"","title":"Manufacturer - Size Label","placename":"China","address":"China"}},{"local_stop_id":27,"id":27,"geometry":"POINT(11598978.537043 4281602.659627)","attributes":{"description":"","title":"Raw Cotton - Size Label","placename":"China","address":"China"}},{"local_stop_id":26,"id":26,"geometry":"POINT(489824.338713 6659271.593905)","attributes":{"description":"","title":"Care Label + Made in Label","placename":"Aalmoezenierstraat, 2000 Antwerpen, Belgium","address":"Aalmoezenierstraat, Antwerpen"}},{"local_stop_id":25,"id":25,"geometry":"POINT(487318.770747 6598422.971353)","attributes":{"description":"","title":"Manufacturer \/ Supplier - Care Label + Made in Label","placename":"Schaerbeek, Belgium","address":"Schaarbeek, Belgium"}},{"local_stop_id":24,"id":24,"geometry":"POINT(489824.338713 6659271.593905)","attributes":{"description":"","title":"Security Seal","placename":"Aalmoezenierstraat, 2000 Antwerpen, Belgium","address":"Aalmoezenierstraat, Antwerpen"}},{"local_stop_id":23,"id":23,"geometry":"POINT(1398994.342206 5141815.937641)","attributes":{"description":"","title":"Supplier - Security Seal","placename":"Italy","address":"Italy"}},{"local_stop_id":22,"id":22,"geometry":"POINT(1398994.342206 5141815.937641)","attributes":{"description":"","title":"Manufacturer - Security Seal","placename":"Italy","address":"Italy"}},{"local_stop_id":21,"id":21,"geometry":"POINT(1398994.342206 5141815.937641)","attributes":{"description":"","title":"Raw Cotton - Security Seal","placename":"Italy","address":"Italy"}},{"local_stop_id":20,"id":20,"geometry":"POINT(489824.338713 6659271.593905)","attributes":{"description":"","title":"Hang Tag","placename":"Aalmoezenierstraat, 2000 Antwerpen, Belgium","address":"Aalmoezenierstraat, Antwerpen"}},{"local_stop_id":19,"id":19,"geometry":"POINT(383870.903786 6636759.318098)","attributes":{"description":"","title":"Supplier - Hang Tag","placename":"Aalter, Belgium","address":"Aalter, Belgium"}},{"local_stop_id":18,"id":18,"geometry":"POINT(371899.861781 6646588.428254)","attributes":{"description":"","title":"Printer - Hang Tag","placename":"Beernem, Belgium","address":"Beernem, Belgium"}},{"local_stop_id":17,"id":17,"geometry":"POINT(721473.308378 6586511.827777)","attributes":{"description":"","title":"Manufacturer - Hang Tag","placename":"D\u00fcren, Germany","address":"D\u00fcren, Germany"}},{"local_stop_id":16,"id":16,"geometry":"POINT(1163458.552333 6650655.041174)","attributes":{"description":"","title":"Raw Paper - Hang Tag","placename":"Germany","address":"Germany"}},{"local_stop_id":15,"id":15,"geometry":"POINT(489824.338713 6659271.593905)","attributes":{"description":"","title":"Button Bag","placename":"Aalmoezenierstraat, 2000 Antwerpen, Belgium","address":"Aalmoezenierstraat, Antwerpen"}},{"local_stop_id":14,"id":14,"geometry":"POINT(383870.903786 6636759.318098)","attributes":{"description":"","title":"Supplier - Button Bag","placename":"Aalter, Belgium","address":"Aalter, Belgium"}},{"local_stop_id":13,"id":13,"geometry":"POINT(371899.861781 6646588.428254)","attributes":{"description":"","title":"Printer - Button Bag","placename":"Beernem, Belgium","address":"Beernem, Belgium"}},{"local_stop_id":12,"id":12,"geometry":"POINT(721473.308378 6586511.827777)","attributes":{"description":"","title":"Manufacturer - Button Bag","placename":"D\u00fcren, Germany","address":"D\u00fcren, Germany"}},{"local_stop_id":11,"id":11,"geometry":"POINT(1163458.552333 6650655.041174)","attributes":{"description":"","title":"Raw Paper - Button Bag","placename":"Germany","address":"Germany"}},{"local_stop_id":10,"id":10,"geometry":"POINT(489824.338713 6659271.593905)","attributes":{"description":"","title":"Cotton Thread","placename":"Aalmoezenierstraat, 2000 Antwerpen, Belgium","address":"Aalmoezenierstraat, Antwerpen"}},{"local_stop_id":9,"id":9,"geometry":"POINT(620698.144468 6688961.919562)","attributes":{"description":"","title":"Supplier - Cotton Thread","placename":"5591 Heeze, The Netherlands","address":"Heeze, the Netherlands"}},{"local_stop_id":8,"id":8,"geometry":"POINT(489824.338713 6659271.593905)","attributes":{"description":"","title":"Safety Pin","placename":"Aalmoezenierstraat, 2000 Antwerpen, Belgium","address":"Aalmoezenierstraat, Antwerpen"}},{"local_stop_id":7,"id":7,"geometry":"POINT(490126.559999 6660162.467593)","attributes":{"description":"","title":"Supplier - Safety Pin","placename":"Antwerpen, Belgium","address":"Antwerp, Belgium"}},{"local_stop_id":6,"id":6,"geometry":"POINT(1722442.250904 6414728.45895)","attributes":{"description":"","title":"Manufacturer - Safety Pin","placename":"Czech Republic","address":"Czech Republic"}}],"hops":[{"from_stop_id":64,"to_stop_id":65,"geometry":"MULTILINESTRING((489824.338713 6659271.593905,489824.338713 6659271.593905))","attributes":{"title":"Fabric to Patrick","distance":"0"}},{"from_stop_id":63,"to_stop_id":64,"geometry":"MULTILINESTRING((347038.401229 6611367.618134,489824.338713 6659271.593905))","attributes":{"title":"Supplier - Fabric to Fabric","distance":"94.511407"}},{"from_stop_id":62,"to_stop_id":63,"geometry":"MULTILINESTRING((363398.024915 6591371.0128,347038.401229 6611367.618134))","attributes":{"title":"Dyer\/Finisher - Fabric to Supplier - Fabric","distance":"16.280403"}},{"from_stop_id":61,"to_stop_id":62,"geometry":"MULTILINESTRING((347038.401229 6611367.618134,363398.024915 6591371.0128))","attributes":{"title":"Weaver - Fabric to Dyer\/Finisher - Fabric","distance":"16.280403"}},{"from_stop_id":60,"to_stop_id":61,"geometry":"MULTILINESTRING((1070432.048746 5740513.725993,347038.401229 6611367.618134))","attributes":{"title":"Spinner - Fabric to Weaver - Fabric","distance":"750.443150"}},{"from_stop_id":59,"to_stop_id":60,"geometry":"MULTILINESTRING((246433.411424 5816903.713427,1070432.048746 5740513.725993))","attributes":{"title":"Raw Linen - Fabric to Spinner - Fabric","distance":"574.108393"}},{"from_stop_id":58,"to_stop_id":65,"geometry":"MULTILINESTRING((489824.338713 6659271.593905,489824.338713 6659271.593905))","attributes":{"title":"Lining to Patrick","distance":"0"}},{"from_stop_id":57,"to_stop_id":58,"geometry":"MULTILINESTRING((733076.884744 6681436.78483,489824.338713 6659271.593905))","attributes":{"title":"Supplier - Lining to Lining","distance":"152.623462"}},{"from_stop_id":56,"to_stop_id":57,"geometry":"MULTILINESTRING((241554.244747 5069728.812432,733076.884744 6681436.78483))","attributes":{"title":"Dyer\/Finisher - Lining to Supplier - Lining","distance":"1156.644267"}},{"from_stop_id":55,"to_stop_id":56,"geometry":"MULTILINESTRING((11598978.537043 4281602.659627,241554.244747 5069728.812432))","attributes":{"title":"Weaver - Lining to Dyer\/Finisher - Lining","distance":"8327.585467"}},{"from_stop_id":54,"to_stop_id":55,"geometry":"MULTILINESTRING((11598978.537043 4281602.659627,11598978.537043 4281602.659627))","attributes":{"title":"Spinner - Lining to Weaver - Lining","distance":"0"}},{"from_stop_id":53,"to_stop_id":54,"geometry":"MULTILINESTRING((11598978.537043 4281602.659627,11598978.537043 4281602.659627))","attributes":{"title":"Raw Cotton - Lining to Spinner - Lining","distance":"0"}},{"from_stop_id":52,"to_stop_id":65,"geometry":"MULTILINESTRING((489824.338713 6659271.593905,489824.338713 6659271.593905))","attributes":{"title":"Bias tape to Patrick","distance":"0"}},{"from_stop_id":51,"to_stop_id":52,"geometry":"MULTILINESTRING((667326.394861 6655405.34011,489824.338713 6659271.593905))","attributes":{"title":"Supplier - Bias tape to Bias tape","distance":"111.115164"}},{"from_stop_id":50,"to_stop_id":51,"geometry":"MULTILINESTRING((497590.999399 6534001.856289,667326.394861 6655405.34011))","attributes":{"title":"Cutting - Bias tape to Supplier - Bias tape","distance":"131.605306"}},{"from_stop_id":49,"to_stop_id":50,"geometry":"MULTILINESTRING((667326.394861 6655405.34011,497590.999399 6534001.856289))","attributes":{"title":"Production - Bias tape to Cutting - Bias tape","distance":"131.605306"}},{"from_stop_id":48,"to_stop_id":49,"geometry":"MULTILINESTRING((3923268.658903 4716479.684629,667326.394861 6655405.34011))","attributes":{"title":"Raw Cotton - Bias tape to Production - Bias tape","distance":"2642.895977"}},{"from_stop_id":47,"to_stop_id":65,"geometry":"MULTILINESTRING((489824.338713 6659271.593905,489824.338713 6659271.593905))","attributes":{"title":"Buttons to Patrick","distance":"0"}},{"from_stop_id":46,"to_stop_id":47,"geometry":"MULTILINESTRING((949588.273828 6803977.051085,489824.338713 6659271.593905))","attributes":{"title":"Supplier - Buttons to Buttons","distance":"298.890248"}},{"from_stop_id":45,"to_stop_id":46,"geometry":"MULTILINESTRING((949588.273828 6803977.051085,949588.273828 6803977.051085))","attributes":{"title":"Manufacturer - Buttons to Supplier - Buttons","distance":"0"}},{"from_stop_id":44,"to_stop_id":45,"geometry":"MULTILINESTRING((-8703336.944404 -203887.308284,949588.273828 6803977.051085))","attributes":{"title":"Raw Wood - Buttons to Manufacturer - Buttons","distance":"9943.390193"}},{"from_stop_id":43,"to_stop_id":65,"geometry":"MULTILINESTRING((489824.338713 6659271.593905,489824.338713 6659271.593905))","attributes":{"title":"Elastic Waistband to Patrick","distance":"0"}},{"from_stop_id":42,"to_stop_id":43,"geometry":"MULTILINESTRING((533559.339881 6871212.848223,489824.338713 6659271.593905))","attributes":{"title":"Supplier - Elastic Waistband to Elastic Waistband","distance":"133.659489"}},{"from_stop_id":41,"to_stop_id":42,"geometry":"MULTILINESTRING((1398994.342206 5141815.937641,533559.339881 6871212.848223))","attributes":{"title":"Manufacturer - Elastic Waistband to Supplier - Elastic Waistband","distance":"1307.461483"}},{"from_stop_id":40,"to_stop_id":65,"geometry":"MULTILINESTRING((489824.338713 6659271.593905,489824.338713 6659271.593905))","attributes":{"title":"Sewing Thread to Patrick","distance":"0"}},{"from_stop_id":39,"to_stop_id":40,"geometry":"MULTILINESTRING((589903.911653 6832075.092871,489824.338713 6659271.593905))","attributes":{"title":"Supplier - Sewing Thread to Sewing Thread","distance":"123.632553"}},{"from_stop_id":38,"to_stop_id":39,"geometry":"MULTILINESTRING((589903.911653 6832075.092871,589903.911653 6832075.092871))","attributes":{"title":"Manufacturer - Sewing Thread to Supplier - Sewing Thread","distance":"0"}},{"from_stop_id":37,"to_stop_id":38,"geometry":"MULTILINESTRING((3428918.392521 3101070.050794,589903.911653 6832075.092871))","attributes":{"title":"Raw Cotton - Sewing Thread to Manufacturer - Sewing Thread","distance":"3530.577349"}},{"from_stop_id":36,"to_stop_id":65,"geometry":"MULTILINESTRING((489824.338713 6659271.593905,489824.338713 6659271.593905))","attributes":{"title":"Fusible Interfacing to Patrick","distance":"0"}},{"from_stop_id":35,"to_stop_id":36,"geometry":"MULTILINESTRING((964056.879928 6367841.39785,489824.338713 6659271.593905))","attributes":{"title":"Supplier - Fusible Interfacing to Fusible Interfacing","distance":"354.462236"}},{"from_stop_id":34,"to_stop_id":35,"geometry":"MULTILINESTRING((964056.879928 6367841.39785,964056.879928 6367841.39785))","attributes":{"title":"Manufacturer - Fusible Interfacing to Supplier - Fusible Interfacing","distance":"0"}},{"from_stop_id":33,"to_stop_id":65,"geometry":"MULTILINESTRING((489824.338713 6659271.593905,489824.338713 6659271.593905))","attributes":{"title":"Brand Label to Patrick","distance":"0"}},{"from_stop_id":32,"to_stop_id":33,"geometry":"MULTILINESTRING((620698.144468 6688961.919562,489824.338713 6659271.593905))","attributes":{"title":"Manufacturer \/ Supplier - Brand Label to Brand Label","distance":"83.816662"}},{"from_stop_id":31,"to_stop_id":32,"geometry":"MULTILINESTRING((1398994.342206 5141815.937641,620698.144468 6688961.919562))","attributes":{"title":"Raw Cotton - Brand Label to Manufacturer \/ Supplier - Brand Label","distance":"1183.217757"}},{"from_stop_id":30,"to_stop_id":65,"geometry":"MULTILINESTRING((489824.338713 6659271.593905,489824.338713 6659271.593905))","attributes":{"title":"Size Label to Patrick","distance":"0"}},{"from_stop_id":29,"to_stop_id":30,"geometry":"MULTILINESTRING((495131.28393 6644548.392835,489824.338713 6659271.593905))","attributes":{"title":"Supplier - Size Label to Size Label","distance":"9.801444"}},{"from_stop_id":28,"to_stop_id":29,"geometry":"MULTILINESTRING((11598978.537043 4281602.659627,495131.28393 6644548.392835))","attributes":{"title":"Manufacturer - Size Label to Supplier - Size Label","distance":"7592.787716"}},{"from_stop_id":27,"to_stop_id":28,"geometry":"MULTILINESTRING((11598978.537043 4281602.659627,11598978.537043 4281602.659627))","attributes":{"title":"Raw Cotton - Size Label to Manufacturer - Size Label","distance":"0"}},{"from_stop_id":26,"to_stop_id":65,"geometry":"MULTILINESTRING((489824.338713 6659271.593905,489824.338713 6659271.593905))","attributes":{"title":"Care Label + Made in Label to Patrick","distance":"0"}},{"from_stop_id":25,"to_stop_id":26,"geometry":"MULTILINESTRING((487318.770747 6598422.971353,489824.338713 6659271.593905))","attributes":{"title":"Manufacturer \/ Supplier - Care Label + Made in Label to Care Label + Made in Label","distance":"38.247645"}},{"from_stop_id":24,"to_stop_id":65,"geometry":"MULTILINESTRING((489824.338713 6659271.593905,489824.338713 6659271.593905))","attributes":{"title":"Security Seal to Patrick","distance":"0"}},{"from_stop_id":23,"to_stop_id":24,"geometry":"MULTILINESTRING((1398994.342206 5141815.937641,489824.338713 6659271.593905))","attributes":{"title":"Supplier - Security Seal to Security Seal","distance":"1210.451800"}},{"from_stop_id":22,"to_stop_id":23,"geometry":"MULTILINESTRING((1398994.342206 5141815.937641,1398994.342206 5141815.937641))","attributes":{"title":"Manufacturer - Security Seal to Supplier - Security Seal","distance":"0"}},{"from_stop_id":21,"to_stop_id":22,"geometry":"MULTILINESTRING((1398994.342206 5141815.937641,1398994.342206 5141815.937641))","attributes":{"title":"Raw Cotton - Security Seal to Manufacturer - Security Seal","distance":"0"}},{"from_stop_id":20,"to_stop_id":65,"geometry":"MULTILINESTRING((489824.338713 6659271.593905,489824.338713 6659271.593905))","attributes":{"title":"Hang Tag to Patrick","distance":"0"}},{"from_stop_id":19,"to_stop_id":20,"geometry":"MULTILINESTRING((383870.903786 6636759.318098,489824.338713 6659271.593905))","attributes":{"title":"Supplier - Hang Tag to Hang Tag","distance":"67.868827"}},{"from_stop_id":18,"to_stop_id":19,"geometry":"MULTILINESTRING((371899.861781 6646588.428254,383870.903786 6636759.318098))","attributes":{"title":"Printer - Hang Tag to Supplier - Hang Tag","distance":"9.712632"}},{"from_stop_id":17,"to_stop_id":18,"geometry":"MULTILINESTRING((721473.308378 6586511.827777,371899.861781 6646588.428254))","attributes":{"title":"Manufacturer - Hang Tag to Printer - Hang Tag","distance":"223.081217"}},{"from_stop_id":16,"to_stop_id":17,"geometry":"MULTILINESTRING((1163458.552333 6650655.041174,721473.308378 6586511.827777))","attributes":{"title":"Raw Paper - Hang Tag to Manufacturer - Hang Tag","distance":"280.808704"}},{"from_stop_id":15,"to_stop_id":65,"geometry":"MULTILINESTRING((489824.338713 6659271.593905,489824.338713 6659271.593905))","attributes":{"title":"Button Bag to Patrick","distance":"0"}},{"from_stop_id":14,"to_stop_id":15,"geometry":"MULTILINESTRING((383870.903786 6636759.318098,489824.338713 6659271.593905))","attributes":{"title":"Supplier - Button Bag to Button Bag","distance":"67.868827"}},{"from_stop_id":13,"to_stop_id":14,"geometry":"MULTILINESTRING((371899.861781 6646588.428254,383870.903786 6636759.318098))","attributes":{"title":"Printer - Button Bag to Supplier - Button Bag","distance":"9.712632"}},{"from_stop_id":12,"to_stop_id":13,"geometry":"MULTILINESTRING((721473.308378 6586511.827777,371899.861781 6646588.428254))","attributes":{"title":"Manufacturer - Button Bag to Printer - Button Bag","distance":"223.081217"}},{"from_stop_id":11,"to_stop_id":12,"geometry":"MULTILINESTRING((1163458.552333 6650655.041174,721473.308378 6586511.827777))","attributes":{"title":"Raw Paper - Button Bag to Manufacturer - Button Bag","distance":"280.808704"}},{"from_stop_id":10,"to_stop_id":65,"geometry":"MULTILINESTRING((489824.338713 6659271.593905,489824.338713 6659271.593905))","attributes":{"title":"Cotton Thread to Patrick","distance":"0"}},{"from_stop_id":9,"to_stop_id":10,"geometry":"MULTILINESTRING((620698.144468 6688961.919562,489824.338713 6659271.593905))","attributes":{"title":"Supplier - Cotton Thread to Cotton Thread","distance":"83.816662"}},{"from_stop_id":8,"to_stop_id":65,"geometry":"MULTILINESTRING((489824.338713 6659271.593905,489824.338713 6659271.593905))","attributes":{"title":"Safety Pin to Patrick","distance":"0"}},{"from_stop_id":7,"to_stop_id":8,"geometry":"MULTILINESTRING((490126.559999 6660162.467593,489824.338713 6659271.593905))","attributes":{"title":"Supplier - Safety Pin to Safety Pin","distance":"0.588599"}},{"from_stop_id":6,"to_stop_id":7,"geometry":"MULTILINESTRING((1722442.250904 6414728.45895,490126.559999 6660162.467593))","attributes":{"title":"Manufacturer - Safety Pin to Supplier - Safety Pin","distance":"797.220816"}}]},"editable":false}