{"type":"FeatureCollection","features":[{"type":"Feature","geometry":{"type":"Point","coordinates":[2.3522219000019,48.856613999999]},"properties":{"address":"Paris, France","placename":"Paris, France","title":"Store 6"}},{"type":"Feature","geometry":{"type":"Point","coordinates":[12.494248600004,41.890519800003]},"properties":{"address":"Rom, Italy","placename":"Rome, Italy","title":"Store 5"}},{"type":"Feature","geometry":{"type":"Point","coordinates":[13.406091199998,52.519171000002]},"properties":{"address":"Berlin, Germany","placename":"Berlin, Germany","title":"Store 4"}},{"type":"Feature","geometry":{"type":"Point","coordinates":[-1.5536210000024,47.218370999998]},"properties":{"address":"Nante","placename":"Nantes, France","title":"Warehouse EU"}},{"type":"Feature","geometry":{"type":"Point","coordinates":[-2.9901160000016,53.411539999998]},"properties":{"address":"Liverpool, UK","placename":"Liverpool, Merseyside, UK","title":"Store 3"}},{"type":"Feature","geometry":{"type":"Point","coordinates":[-1.4700850000015,53.381128999999]},"properties":{"address":"Sheffield, UK","placename":"Sheffield, South Yorkshire, UK","title":"Store 2"}},{"type":"Feature","geometry":{"type":"Point","coordinates":[-0.12800500000006,51.508128899997]},"properties":{"address":"London, UK","placename":"London, UK","title":"Store 1"}},{"type":"Feature","geometry":{"type":"Point","coordinates":[-2.2479260000004,53.479250999999]},"properties":{"address":"Manchester, UK","placename":"Manchester, UK","title":"Retailer"}},{"type":"Feature","geometry":{"type":"Point","coordinates":[-3.4359729999961,55.378051000001]},"properties":{"address":"GB","placename":"United Kingdom","title":"Aid Agencies"}},{"type":"Feature","geometry":{"type":"Point","coordinates":[104.195397,35.861660000001]},"properties":{"address":"china","placename":"China","title":"Lid"}},{"type":"Feature","geometry":{"type":"Point","coordinates":[104.195397,35.861660000001]},"properties":{"address":"china","placename":"China","title":"Metal"}},{"type":"Feature","geometry":{"type":"Point","coordinates":[-1.4700850000015,53.381128999999]},"properties":{"address":"Sheffield, UK","placename":"Sheffield, South Yorkshire, UK","title":"Thermal Flask"}},{"type":"Feature","geometry":{"type":"LineString","coordinates":[[104.195397,35.861660000001],[-1.4700850000015,53.381128999999]]},"properties":[]},{"type":"Feature","geometry":{"type":"LineString","coordinates":[[104.195397,35.861660000001],[-1.4700850000015,53.381128999999]]},"properties":[]},{"type":"Feature","geometry":{"type":"LineString","coordinates":[[-1.4700850000015,53.381128999999],[-3.4359729999961,55.378051000001]]},"properties":[]},{"type":"Feature","geometry":{"type":"LineString","coordinates":[[-1.4700850000015,53.381128999999],[-2.2479260000004,53.479250999999]]},"properties":[]},{"type":"Feature","geometry":{"type":"LineString","coordinates":[[-2.2479260000004,53.479250999999],[-0.12800500000006,51.508128899997]]},"properties":[]},{"type":"Feature","geometry":{"type":"LineString","coordinates":[[-2.2479260000004,53.479250999999],[-1.4700850000015,53.381128999999]]},"properties":[]},{"type":"Feature","geometry":{"type":"LineString","coordinates":[[-2.2479260000004,53.479250999999],[-2.9901160000016,53.411539999998]]},"properties":[]},{"type":"Feature","geometry":{"type":"LineString","coordinates":[[-2.2479260000004,53.479250999999],[-1.5536210000024,47.218370999998]]},"properties":[]},{"type":"Feature","geometry":{"type":"LineString","coordinates":[[-1.5536210000024,47.218370999998],[13.406091199998,52.519171000002]]},"properties":[]},{"type":"Feature","geometry":{"type":"LineString","coordinates":[[-1.5536210000024,47.218370999998],[12.494248600004,41.890519800003]]},"properties":[]},{"type":"Feature","geometry":{"type":"LineString","coordinates":[[-1.5536210000024,47.218370999998],[2.3522219000019,48.856613999999]]},"properties":[]}],"properties":{"title":"Thermo Flask","description":"","tags":""}}