{"type":"FeatureCollection","features":[{"type":"Feature","geometry":{"type":"Point","coordinates":[-0.53075500000014,45.012824999998]},"properties":{"description":"","title":"AN","placename":"Amb\u00e8s, France","address":"AMBES, France"}},{"type":"Feature","geometry":{"type":"Point","coordinates":[5.1125439999981,47.521958]},"properties":{"title":"21120 IS SUR TILLE, France","placename":"21120 Is-sur-Tille, France","address":"21120 IS SUR TILLE, France","description":"1316"}},{"type":"Feature","geometry":{"type":"Point","coordinates":[-4.0474860000009,47.957880399997]},"properties":{"title":"29000 CONCARNEAU, France","placename":"Route de Concarneau, 29000 Quimper, France","address":"29000 CONCARNEAU, France","description":"3943.6"}},{"type":"Feature","geometry":{"type":"Point","coordinates":[-0.0029890000001698,46.661168000003]},"properties":{"title":"86190 CHALANDRAY, France","placename":"Chalandray, France","address":"86190 CHALANDRAY, France","description":"1212.2"}},{"type":"Feature","geometry":{"type":"Point","coordinates":[0.62299300000203,46.920554799998]},"properties":{"title":"86220 LES ORMES SUR VIENNE, France","placename":"86220 Les Ormes, France","address":"86220 LES ORMES SUR VIENNE, France","description":"1314.3"}},{"type":"Feature","geometry":{"type":"Point","coordinates":[3.8118541999982,50.466816200003]},"properties":{"description":"","title":"AN","placename":"Tertre, 7333 Saint-Ghislain, Belgium","address":"TERTRE, Belgium"}},{"type":"Feature","geometry":{"type":"Point","coordinates":[5.1125439999981,47.521958]},"properties":{"title":"21120 IS SUR TILLE, France","placename":"21120 Is-sur-Tille, France","address":"21120 IS SUR TILLE, France","description":"1300.95"}},{"type":"Feature","geometry":{"type":"Point","coordinates":[12.2835396,54.130719500002]},"properties":{"description":"","title":"CAN","placename":"Poppendorf, Germany","address":"POPPENDORF, Germany"}},{"type":"Feature","geometry":{"type":"Point","coordinates":[12.044413999997,51.854120999999]},"properties":{"title":"06385 AKEN, Germany","placename":"Aken, Germany","address":"06385 AKEN, Germany","description":"1289.87"}},{"type":"Feature","geometry":{"type":"Point","coordinates":[12.084038000004,54.111181999998]},"properties":{"title":"18069 ROSTOCK-FISCHEREIHAFEN, Germany","placename":"Am Fischereihafen, 18069 Rostock, Germany","address":"18069 ROSTOCK-FISCHEREIHAFEN, Germany","description":"859.28"}},{"type":"Feature","geometry":{"type":"Point","coordinates":[14.761463200003,49.765205400002]},"properties":{"youtube:link":"","water":"0","energy":"0","co2e":"0","weight":"322.29","title":"256 01 STRUHAROV, Czech Republic","placename":"256 01 Struha\u0159ov, Czech Republic","address":"256 01 STRUHAROV, Czech Republic","description":"322.29"}},{"type":"Feature","geometry":{"type":"Point","coordinates":[15.013499900001,49.711599899998]},"properties":{"youtube:link":"","water":"0","energy":"0","co2e":"0","weight":"645.58","title":"257 63 TRHOVY STEPANOV, Czech Republic","placename":"257 63 Trhov\u00fd \u0160t\u011bp\u00e1nov, Czech Republic","address":"257 63 TRHOVY STEPANOV, Czech Republic","description":"645.58"}},{"type":"Feature","geometry":{"type":"Point","coordinates":[14.035228499998,49.946401100002]},"properties":{"title":"267 01 KRALUV DVUR, Czech Republic","placename":"267 01 Kr\u00e1l\u016fv Dv\u016fr, Czech Republic","address":"267 01 KRALUV DVUR, Czech Republic","description":"805.37"}},{"type":"Feature","geometry":{"type":"Point","coordinates":[7.4679017999985,53.235656999999]},"properties":{"title":"26789 LEER \/ OFRL., Germany","placename":"Leer, Germany","address":"26789 LEER \/ OFRL., Germany","description":"90.93"}},{"type":"Feature","geometry":{"type":"Point","coordinates":[9.1578100000041,53.483179999998]},"properties":{"title":"27421 BREMERV\u00d6RDE, Germany","placename":"Bremerv\u00f6rde, 27432 Bremerv\u00f6rde, Germany","address":"27421 BREMERV\u00d6RDE, Germany","description":"108.39"}},{"type":"Feature","geometry":{"type":"Point","coordinates":[15.201166500002,50.028007500003]},"properties":{"youtube:link":"","water":"0","energy":"0","co2e":"0","weight":"967.06","title":"280 02 KOLIN, Czech Republic","placename":"280 02 Kol\u00edn District, Czech Republic","address":"280 02 KOLIN, Czech Republic","description":"967.06"}},{"type":"Feature","geometry":{"type":"Point","coordinates":[14.962450999997,50.367210400001]},"properties":{"youtube:link":"","water":"0","energy":"0","co2e":"0","weight":"161.31","title":"294 41 DOBROVICE, Czech Republic","placename":"Dobrovice, Czech Republic","address":"294 41 DOBROVICE, Czech Republic","description":"161.31"}},{"type":"Feature","geometry":{"type":"Point","coordinates":[10.558030400001,52.965819899998]},"properties":{"title":"29525 UELZEN, Germany","placename":"Uelzen, Germany","address":"29525 UELZEN, Germany","description":"859.14"}},{"type":"Feature","geometry":{"type":"Point","coordinates":[9.841440000004,52.98673]},"properties":{"title":"29601 SOLTAU, Germany","placename":"Soltau, 29614 Soltau, Germany","address":"29601 SOLTAU, Germany","description":"1988.81"}},{"type":"Feature","geometry":{"type":"Point","coordinates":[14.304407100003,48.905033099999]},"properties":{"title":"382 03 KREMZE, Czech Republic","placename":"382 03 K\u0159em\u017ee, Czech Republic","address":"382 03 KREMZE, Czech Republic","description":"806.33"}},{"type":"Feature","geometry":{"type":"Point","coordinates":[14.462614499996,48.779666100003]},"properties":{"title":"382 42 NETREBICE, Czech Republic","placename":"Net\u0159ebice, 382 42 St\u0159\u00edte\u017e, Czech Republic","address":"382 42 NETREBICE, Czech Republic","description":"2901.9"}},{"type":"Feature","geometry":{"type":"Point","coordinates":[14.063929100003,49.0807902]},"properties":{"title":"384 26 STRUNKOVICE NAD BLANICI, Czech Republic","placename":"384 26 Strunkovice nad Blanic\u00ed, Czech Republic","address":"384 26 STRUNKOVICE NAD BLANICI, Czech Republic","description":"160.8"}},{"type":"Feature","geometry":{"type":"Point","coordinates":[8.3159898999999,52.365972700001]},"properties":{"title":"49163 BOHMTE, Germany","placename":"Bohmte, Germany","address":"49163 BOHMTE, Germany","description":"537.87"}},{"type":"Feature","geometry":{"type":"Point","coordinates":[16.611627699996,49.911973799999]},"properties":{"youtube:link":"","water":"0","energy":"0","co2e":"0","weight":"107.37","title":"563 01 LANSKROUN, Czech Republic","placename":"563 01 Lan\u0161kroun, Czech Republic","address":"563 01 LANSKROUN, Czech Republic","description":"107.37"}},{"type":"Feature","geometry":{"type":"Point","coordinates":[16.2193811,49.8960981]},"properties":{"youtube:link":"","water":"0","energy":"0","co2e":"0","weight":"3386.65","title":"569 53 CEREKVICE, Czech Republic","placename":"569 53 Cerekvice nad Lou\u010dnou, Czech Republic","address":"569 53 CEREKVICE, Czech Republic","description":"3386.65"}},{"type":"Feature","geometry":{"type":"Point","coordinates":[16.724930500001,49.7095545]},"properties":{"youtube:link":"","water":"0","energy":"0","co2e":"0","weight":"1556.69","title":"571 01 MESTECKO TRNAVKA, Czech Republic","placename":"M\u011bste\u010dko Trn\u00e1vka, Czech Republic","address":"571 01 MESTECKO TRNAVKA, Czech Republic","description":"1556.69"}},{"type":"Feature","geometry":{"type":"Point","coordinates":[15.590954099997,49.395473199999]},"properties":{"youtube:link":"","water":"0","energy":"0","co2e":"0","weight":"3062.19","title":"586 01 JIHLAVA, Czech Republic","placename":"Jihlava, Czech Republic","address":"586 01 JIHLAVA, Czech Republic","description":"3062.19"}},{"type":"Feature","geometry":{"type":"Point","coordinates":[8.9216450999973,50.126822200002]},"properties":{"title":"63450 HANAU, Germany","placename":"63450 Hanau, Germany","address":"63450 HANAU, Germany","description":"1022.03"}},{"type":"Feature","geometry":{"type":"Point","coordinates":[8.9311399999961,50.122169999997]},"properties":{"title":"HANAU 1, Germany","placename":"Agentur f\u00fcr Arbeit Hanau, Am Hauptbahnhof 1, 63450 Hanau, Germany","address":"HANAU 1, Germany","description":"2040.05"}},{"type":"Feature","geometry":{"type":"Point","coordinates":[17.127050300002,48.851081899999]},"properties":{"youtube:link":"","water":"0","energy":"0","co2e":"0","weight":"806.9","title":"695 01 HODONIN, Czech Republic","placename":"695 01 Hodon\u00edn, Czech Republic","address":"695 01 HODONIN, Czech Republic","description":"806.9"}},{"type":"Feature","geometry":{"type":"Point","coordinates":[14.552811599996,53.428543800001]},"properties":{"title":"70-651 SZCZECIN, Poland","placename":"Szczecin, Poland","address":"70-651 SZCZECIN, Poland","description":"2040.82"}},{"type":"Feature","geometry":{"type":"Point","coordinates":[17.777053800003,50.018085100001]},"properties":{"youtube:link":"","water":"0","energy":"0","co2e":"0","weight":"5887.1","title":"747 71 SKROCHOVICE, Czech Republic","placename":"Skrochovice 747 71 Brumovice-Skrochovice, Czech Republic","address":"747 71 SKROCHOVICE, Czech Republic","description":"5887.1"}},{"type":"Feature","geometry":{"type":"Point","coordinates":[17.076519000003,49.701366399997]},"properties":{"youtube:link":"","water":"0","energy":"0","co2e":"0","weight":"1022.31","title":"784 01 LITOVEL, Czech Republic","placename":"Litovel, Czech Republic","address":"784 01 LITOVEL, Czech Republic","description":"1022.31"}},{"type":"Feature","geometry":{"type":"Point","coordinates":[11.530339400003,48.766675000001]},"properties":{"title":"85098 GROSSMEHRING, Germany","placename":"Gro\u00dfmehring, Germany","address":"85098 GROSSMEHRING, Germany","description":"2042.72"}},{"type":"Feature","geometry":{"type":"Point","coordinates":[11.050270900002,49.4025357]},"properties":{"title":"90451 NUERNBERG, Germany","placename":"90451 Nuremberg, Germany","address":"90451 NUERNBERG, Germany","description":"7189.99"}},{"type":"Feature","geometry":{"type":"Point","coordinates":[10.754167000002,49.114721999998]},"properties":{"title":"91710 GUNZENHAUSEN, Germany","placename":"Gunzenhausen, Germany","address":"91710 GUNZENHAUSEN, Germany","description":"1880.26"}},{"type":"Feature","geometry":{"type":"Point","coordinates":[11.886562999999,48.918411800001]},"properties":{"title":"93309 KELHEIM, Germany","placename":"Kelheim, Germany","address":"93309 KELHEIM, Germany","description":"5262.73"}},{"type":"Feature","geometry":{"type":"Point","coordinates":[12.977928300003,48.845679899998]},"properties":{"title":"94469 DEGGENDORF, Germany","placename":"94469 Deggendorf, Germany","address":"94469 DEGGENDORF, Germany","description":"3059.49"}},{"type":"Feature","geometry":{"type":"Point","coordinates":[9.9102608000041,49.815826799999]},"properties":{"title":"97080 WUERZBURG, Germany","placename":"97080 W\u00fcrzburg, Germany","address":"97080 WUERZBURG, Germany","description":"2066.68"}},{"type":"Feature","geometry":{"type":"Point","coordinates":[18.946660700001,53.276579800001]},"properties":{"youtube:link":"","water":"0","energy":"0","co2e":"0","weight":"3060","title":"87-200 WABRZEZNO, Poland","placename":"87-200, Poland","address":"87-200 WABRZEZNO, Poland","description":"3060.94"}},{"type":"Feature","geometry":{"type":"Point","coordinates":[10.368469400003,48.482476499998]},"properties":{"title":"89362 OFFINGEN, Germany","placename":"Offingen, Germany","address":"89362 OFFINGEN, Germany","description":"1019.52"}},{"type":"Feature","geometry":{"type":"Point","coordinates":[16.043819499998,50.3947163]},"properties":{"youtube:link":"","water":"0","energy":"0","co2e":"0","weight":"1018.09","title":"552 03 CESKA SKALICE, Czech Republic","placename":"552 03 \u010cesk\u00e1 Skalice, Czech Republic","address":"552 03 CESKA SKALICE, Czech Republic","description":"1018.09"}},{"type":"Feature","geometry":{"type":"Point","coordinates":[10.777804100003,48.718582600002]},"properties":{"title":"86609 DONAUW\u00d6RTH, Germany","placename":"Donauw\u00f6rth, Germany","address":"86609 DONAUW\u00d6RTH, Germany","description":"3544.68"}},{"type":"Feature","geometry":{"type":"Point","coordinates":[17.890167000003,47.090599200002]},"properties":{"youtube:link":"","water":"0","energy":"0","co2e":"0","weight":"3540.69","title":"8200 VESZPR\u00c9M, Hungary","placename":"8200 Veszpr\u00e9m, Hungary","address":"8200 VESZPR\u00c9M, Hungary","description":"3540.69"}},{"type":"Feature","geometry":{"type":"Point","coordinates":[17.8303084,47.733267100003]},"properties":{"youtube:link":"","water":"0","energy":"0","co2e":"0","weight":"18351.28","title":"9071 GONYU-KAROLYHAZA KIKATA I, Hungary","placename":"9071 G\u00f6ny\u0171, Hungary","address":"9071 GONYU-KAROLYHAZA KIKATA I, Hungary","description":"18351.28"}},{"type":"Feature","geometry":{"type":"Point","coordinates":[10.936355099996,51.066145399998]},"properties":{"title":"99189 WALSCHLEBEN, Germany","placename":"Walschleben, Germany","address":"99189 WALSCHLEBEN, Germany","description":"6122.41"}},{"type":"Feature","geometry":{"type":"Point","coordinates":[12.084038000004,54.111181999998]},"properties":{"description":"","title":"CAN","placename":"Am Fischereihafen, 18069 Rostock, Germany","address":"ROSTOCK-FISCHEREIHAFEN, Germany"}},{"type":"Feature","geometry":{"type":"Point","coordinates":[7.6620564999974,47.5382226]},"properties":{"title":"4132 AUHAFEN-MUTTENZ, Switzerland","placename":"Auhafenstrasse, 4132 Muttenz, Switzerland","address":"4132 AUHAFEN-MUTTENZ, Switzerland","description":"1058.59"}},{"type":"Feature","geometry":{"type":"Point","coordinates":[-2.1504309999994,47.327051999999]},"properties":{"description":"","title":"NP PRILLED","placename":"Montoir-de-Bretagne, France","address":"MONTOIR DE BRETAGNE, France"}},{"type":"Feature","geometry":{"type":"Point","coordinates":[12.196588800001,44.415730400003]},"properties":{"description":"","title":"NPK PRILLED\/GRANULAT","placename":"Ravenna, Italy","address":"RAVENNA, Italy"}},{"type":"Feature","geometry":{"type":"Point","coordinates":[15.020675700001,37.654062199997]},"properties":{"title":"95030 CATANIA, Italy","placename":"95030 Maniace Catania, Italy","address":"95030 CATANIA, Italy","description":"702.05"}},{"type":"Feature","geometry":{"type":"Point","coordinates":[22.176642400004,48.402723299999]},"properties":{"youtube:link":"","water":"0","energy":"0","co2e":"0","weight":"2015.45","title":"4625 Z\u00c1HONY, Hungary","placename":"4625 Z\u00e1hony, Hungary","address":"4625 Z\u00c1HONY, Hungary","description":"2015.45"}},{"type":"Feature","geometry":{"type":"Point","coordinates":[3.8366881000035,51.277702900002]},"properties":{"description":"","title":"UREA AMMONIUM NITRAT","placename":"4541 Sluiskil, The Netherlands","address":"SLUISKIL, Netherlands"}},{"type":"Feature","geometry":{"type":"Point","coordinates":[3.9911069999958,48.755058000002]},"properties":{"title":"51230 FERE CHAMPENOISE, France","placename":"F\u00e8re-Champenoise, France","address":"51230 FERE CHAMPENOISE, France","description":"1109.66"}},{"type":"Feature","geometry":{"type":"Point","coordinates":[4.5175239999965,48.781056899998]},"properties":{"title":"51300 PRINGY, France","placename":"Pringy, France","address":"51300 PRINGY, France","description":"2237.49"}},{"type":"Feature","geometry":{"type":"Point","coordinates":[4.3561299999973,48.925293999999]},"properties":{"title":"51510 COOLUS, France","placename":"Coolus, France","address":"51510 COOLUS, France","description":"1066.64"}},{"type":"Feature","geometry":{"type":"Point","coordinates":[4.5308149000038,49.130729000002]},"properties":{"title":"51600 SUIPPES, France","placename":"Suippes, France","address":"51600 SUIPPES, France","description":"1128.65"}},{"type":"Feature","geometry":{"type":"Point","coordinates":[4.7741099999993,49.083987999999]},"properties":{"title":"51800 VALMY, France","placename":"51800 Valmy, France","address":"51800 VALMY, France","description":"2303.6"}},{"type":"Feature","geometry":{"type":"Point","coordinates":[4.987391999996,48.828220999997]},"properties":{"title":"55800 REVIGNY SUR ORNAIN, France","placename":"Revigny-sur-Ornain, France","address":"55800 REVIGNY SUR ORNAIN, France","description":"1297.8"}},{"type":"Feature","geometry":{"type":"Point","coordinates":[5.1411959999963,48.202075999999]},"properties":{"title":"52310 BOLOGNE, France","placename":"Bologne, France","address":"52310 BOLOGNE, France","description":"1249.984"}},{"type":"Feature","geometry":{"type":"LineString","coordinates":[[-0.53075500000014,45.012824999998],[5.1125439999981,47.521958]]},"properties":{"title":"AN to 21120 IS SUR TILLE, France","distance":"515.566918"}},{"type":"Feature","geometry":{"type":"LineString","coordinates":[[-0.53075500000014,45.012824999998],[-4.0474860000009,47.957880399997]]},"properties":{"title":"AN to 29000 CONCARNEAU, France","distance":"423.855770"}},{"type":"Feature","geometry":{"type":"LineString","coordinates":[[-0.53075500000014,45.012824999998],[-0.0029890000001698,46.661168000003]]},"properties":{"title":"AN to 86190 CHALANDRAY, France","distance":"187.790924"}},{"type":"Feature","geometry":{"type":"LineString","coordinates":[[-0.53075500000014,45.012824999998],[0.62299300000203,46.920554799998]]},"properties":{"title":"AN to 86220 LES ORMES SUR VIENNE, France","distance":"230.103234"}},{"type":"Feature","geometry":{"type":"LineString","coordinates":[[3.8118541999982,50.466816200003],[5.1125439999981,47.521958]]},"properties":{"title":"AN to 21120 IS SUR TILLE, France","distance":"340.911935"}},{"type":"Feature","geometry":{"type":"LineString","coordinates":[[12.2835396,54.130719500002],[12.044413999997,51.854120999999]]},"properties":{"title":"CAN to 06385 AKEN, Germany","distance":"253.651221"}},{"type":"Feature","geometry":{"type":"LineString","coordinates":[[12.2835396,54.130719500002],[12.084038000004,54.111181999998]]},"properties":{"title":"CAN to 18069 ROSTOCK-FISCHEREIHAFEN, Germany","distance":"13.181511"}},{"type":"Feature","geometry":{"type":"LineString","coordinates":[[12.2835396,54.130719500002],[14.761463200003,49.765205400002]]},"properties":{"title":"CAN to 256 01 STRUHAROV, Czech Republic","distance":"514.191877"}},{"type":"Feature","geometry":{"type":"LineString","coordinates":[[12.2835396,54.130719500002],[15.013499900001,49.711599899998]]},"properties":{"title":"CAN to 257 63 TRHOVY STEPANOV, Czech Republic","distance":"525.739462"}},{"type":"Feature","geometry":{"type":"LineString","coordinates":[[12.2835396,54.130719500002],[14.035228499998,49.946401100002]]},"properties":{"title":"CAN to 267 01 KRALUV DVUR, Czech Republic","distance":"480.414194"}},{"type":"Feature","geometry":{"type":"LineString","coordinates":[[12.2835396,54.130719500002],[7.4679017999985,53.235656999999]]},"properties":{"title":"CAN to 26789 LEER \/ OFRL., Germany","distance":"332.307084"}},{"type":"Feature","geometry":{"type":"LineString","coordinates":[[12.2835396,54.130719500002],[9.1578100000041,53.483179999998]]},"properties":{"title":"CAN to 27421 BREMERV\u00d6RDE, Germany","distance":"217.481354"}},{"type":"Feature","geometry":{"type":"LineString","coordinates":[[12.2835396,54.130719500002],[15.201166500002,50.028007500003]]},"properties":{"title":"CAN to 280 02 KOLIN, Czech Republic","distance":"497.760923"}},{"type":"Feature","geometry":{"type":"LineString","coordinates":[[12.2835396,54.130719500002],[14.962450999997,50.367210400001]]},"properties":{"title":"CAN to 294 41 DOBROVICE, Czech Republic","distance":"456.412313"}},{"type":"Feature","geometry":{"type":"LineString","coordinates":[[12.2835396,54.130719500002],[10.558030400001,52.965819899998]]},"properties":{"title":"CAN to 29525 UELZEN, Germany","distance":"172.540210"}},{"type":"Feature","geometry":{"type":"LineString","coordinates":[[12.2835396,54.130719500002],[9.841440000004,52.98673]]},"properties":{"title":"CAN to 29601 SOLTAU, Germany","distance":"205.403916"}},{"type":"Feature","geometry":{"type":"LineString","coordinates":[[12.2835396,54.130719500002],[14.304407100003,48.905033099999]]},"properties":{"title":"CAN to 382 03 KREMZE, Czech Republic","distance":"597.591431"}},{"type":"Feature","geometry":{"type":"LineString","coordinates":[[12.2835396,54.130719500002],[14.462614499996,48.779666100003]]},"properties":{"title":"CAN to 382 42 NETREBICE, Czech Republic","distance":"613.788798"}},{"type":"Feature","geometry":{"type":"LineString","coordinates":[[12.2835396,54.130719500002],[14.063929100003,49.0807902]]},"properties":{"title":"CAN to 384 26 STRUNKOVICE NAD BLANICI, Czech Republic","distance":"574.780136"}},{"type":"Feature","geometry":{"type":"LineString","coordinates":[[12.2835396,54.130719500002],[8.3159898999999,52.365972700001]]},"properties":{"title":"CAN to 49163 BOHMTE, Germany","distance":"328.840032"}},{"type":"Feature","geometry":{"type":"LineString","coordinates":[[12.2835396,54.130719500002],[16.611627699996,49.911973799999]]},"properties":{"title":"CAN to 563 01 LANSKROUN, Czech Republic","distance":"554.530052"}},{"type":"Feature","geometry":{"type":"LineString","coordinates":[[12.2835396,54.130719500002],[16.2193811,49.8960981]]},"properties":{"title":"CAN to 569 53 CEREKVICE, Czech Republic","distance":"542.272104"}},{"type":"Feature","geometry":{"type":"LineString","coordinates":[[12.2835396,54.130719500002],[16.724930500001,49.7095545]]},"properties":{"title":"CAN to 571 01 MESTECKO TRNAVKA, Czech Republic","distance":"578.064373"}},{"type":"Feature","geometry":{"type":"LineString","coordinates":[[12.2835396,54.130719500002],[15.590954099997,49.395473199999]]},"properties":{"title":"CAN to 586 01 JIHLAVA, Czech Republic","distance":"573.470095"}},{"type":"Feature","geometry":{"type":"LineString","coordinates":[[12.2835396,54.130719500002],[8.9216450999973,50.126822200002]]},"properties":{"title":"CAN to 63450 HANAU, Germany","distance":"500.741392"}},{"type":"Feature","geometry":{"type":"LineString","coordinates":[[12.2835396,54.130719500002],[8.9311399999961,50.122169999997]]},"properties":{"title":"CAN to HANAU 1, Germany","distance":"500.910944"}},{"type":"Feature","geometry":{"type":"LineString","coordinates":[[12.2835396,54.130719500002],[17.127050300002,48.851081899999]]},"properties":{"title":"CAN to 695 01 HODONIN, Czech Republic","distance":"675.724070"}},{"type":"Feature","geometry":{"type":"LineString","coordinates":[[12.2835396,54.130719500002],[14.552811599996,53.428543800001]]},"properties":{"title":"CAN to 70-651 SZCZECIN, Poland","distance":"168.296045"}},{"type":"Feature","geometry":{"type":"LineString","coordinates":[[12.2835396,54.130719500002],[17.777053800003,50.018085100001]]},"properties":{"title":"CAN to 747 71 SKROCHOVICE, Czech Republic","distance":"591.324259"}},{"type":"Feature","geometry":{"type":"LineString","coordinates":[[12.2835396,54.130719500002],[17.076519000003,49.701366399997]]},"properties":{"title":"CAN to 784 01 LITOVEL, Czech Republic","distance":"591.851574"}},{"type":"Feature","geometry":{"type":"LineString","coordinates":[[12.2835396,54.130719500002],[11.530339400003,48.766675000001]]},"properties":{"title":"CAN to 85098 GROSSMEHRING, Germany","distance":"598.724448"}},{"type":"Feature","geometry":{"type":"LineString","coordinates":[[12.2835396,54.130719500002],[11.050270900002,49.4025357]]},"properties":{"title":"CAN to 90451 NUERNBERG, Germany","distance":"532.533111"}},{"type":"Feature","geometry":{"type":"LineString","coordinates":[[12.2835396,54.130719500002],[10.754167000002,49.114721999998]]},"properties":{"title":"CAN to 91710 GUNZENHAUSEN, Germany","distance":"567.621505"}},{"type":"Feature","geometry":{"type":"LineString","coordinates":[[12.2835396,54.130719500002],[11.886562999999,48.918411800001]]},"properties":{"title":"CAN to 93309 KELHEIM, Germany","distance":"580.229934"}},{"type":"Feature","geometry":{"type":"LineString","coordinates":[[12.2835396,54.130719500002],[12.977928300003,48.845679899998]]},"properties":{"title":"CAN to 94469 DEGGENDORF, Germany","distance":"589.625008"}},{"type":"Feature","geometry":{"type":"LineString","coordinates":[[12.2835396,54.130719500002],[9.9102608000041,49.815826799999]]},"properties":{"title":"CAN to 97080 WUERZBURG, Germany","distance":"506.512243"}},{"type":"Feature","geometry":{"type":"LineString","coordinates":[[12.2835396,54.130719500002],[18.946660700001,53.276579800001]]},"properties":{"title":"CAN to 87-200 WABRZEZNO, Poland","distance":"448.570337"}},{"type":"Feature","geometry":{"type":"LineString","coordinates":[[12.2835396,54.130719500002],[10.368469400003,48.482476499998]]},"properties":{"title":"CAN to 89362 OFFINGEN, Germany","distance":"641.945269"}},{"type":"Feature","geometry":{"type":"LineString","coordinates":[[12.2835396,54.130719500002],[16.043819499998,50.3947163]]},"properties":{"title":"CAN to 552 03 CESKA SKALICE, Czech Republic","distance":"487.763319"}},{"type":"Feature","geometry":{"type":"LineString","coordinates":[[12.2835396,54.130719500002],[10.777804100003,48.718582600002]]},"properties":{"title":"CAN to 86609 DONAUW\u00d6RTH, Germany","distance":"610.752372"}},{"type":"Feature","geometry":{"type":"LineString","coordinates":[[12.2835396,54.130719500002],[17.890167000003,47.090599200002]]},"properties":{"title":"CAN to 8200 VESZPR\u00c9M, Hungary","distance":"876.459972"}},{"type":"Feature","geometry":{"type":"LineString","coordinates":[[12.2835396,54.130719500002],[17.8303084,47.733267100003]]},"properties":{"title":"CAN to 9071 GONYU-KAROLYHAZA KIKATA I, Hungary","distance":"810.059222"}},{"type":"Feature","geometry":{"type":"LineString","coordinates":[[12.2835396,54.130719500002],[10.936355099996,51.066145399998]]},"properties":{"title":"CAN to 99189 WALSCHLEBEN, Germany","distance":"352.685918"}},{"type":"Feature","geometry":{"type":"LineString","coordinates":[[12.084038000004,54.111181999998],[7.6620564999974,47.5382226]]},"properties":{"title":"CAN to 4132 AUHAFEN-MUTTENZ, Switzerland","distance":"793.755624"}},{"type":"Feature","geometry":{"type":"LineString","coordinates":[[12.196588800001,44.415730400003],[15.020675700001,37.654062199997]]},"properties":{"title":"NPK PRILLED\/GRANULAT to 95030 CATANIA, Italy","distance":"788.154928"}},{"type":"Feature","geometry":{"type":"LineString","coordinates":[[12.196588800001,44.415730400003],[22.176642400004,48.402723299999]]},"properties":{"title":"NPK PRILLED\/GRANULAT to 4625 Z\u00c1HONY, Hungary","distance":"883.302526"}},{"type":"Feature","geometry":{"type":"LineString","coordinates":[[3.8366881000035,51.277702900002],[3.9911069999958,48.755058000002]]},"properties":{"title":"UREA AMMONIUM NITRAT to 51230 FERE CHAMPENOISE, France","distance":"280.722036"}},{"type":"Feature","geometry":{"type":"LineString","coordinates":[[3.8366881000035,51.277702900002],[4.5175239999965,48.781056899998]]},"properties":{"title":"UREA AMMONIUM NITRAT to 51300 PRINGY, France","distance":"281.838428"}},{"type":"Feature","geometry":{"type":"LineString","coordinates":[[3.8366881000035,51.277702900002],[4.3561299999973,48.925293999999]]},"properties":{"title":"UREA AMMONIUM NITRAT to 51510 COOLUS, France","distance":"264.184665"}},{"type":"Feature","geometry":{"type":"LineString","coordinates":[[3.8366881000035,51.277702900002],[4.5308149000038,49.130729000002]]},"properties":{"title":"UREA AMMONIUM NITRAT to 51600 SUIPPES, France","distance":"243.787251"}},{"type":"Feature","geometry":{"type":"LineString","coordinates":[[3.8366881000035,51.277702900002],[4.7741099999993,49.083987999999]]},"properties":{"title":"UREA AMMONIUM NITRAT to 51800 VALMY, France","distance":"252.892044"}},{"type":"Feature","geometry":{"type":"LineString","coordinates":[[3.8366881000035,51.277702900002],[4.987391999996,48.828220999997]]},"properties":{"title":"UREA AMMONIUM NITRAT to 55800 REVIGNY SUR ORNAIN, France","distance":"284.480895"}},{"type":"Feature","geometry":{"type":"LineString","coordinates":[[3.8366881000035,51.277702900002],[5.1411959999963,48.202075999999]]},"properties":{"title":"UREA AMMONIUM NITRAT to 52310 BOLOGNE, France","distance":"354.593468"}}],"properties":{"description":"","tags":"","title":"Rail DWS Q1","sm:ui:weight":"1"}}