{"type":"FeatureCollection","features":[{"type":"Feature","geometry":{"type":"Point","coordinates":[-71.104489000001,42.365336900002]},"properties":{"address":"Central Square, Cambridge","placename":"Central Square, Mid-Cambridge, MA 02139, USA","title":"Neighbors"}},{"type":"Feature","geometry":{"type":"Point","coordinates":[-70.310320400001,43.616110100003]},"properties":{"address":"Main St. & Massachusetts Ave.","placename":"Main St & Massachusetts Ave, South Portland, ME 04106, USA","title":"Lemonade Stand"}},{"type":"Feature","geometry":{"type":"Point","coordinates":[-108.5419872,46.442267399999]},"properties":{"address":"123 Main St.","placename":"123 Main St, Roundup, Mt 59072, USA","title":"Family"}},{"type":"Feature","geometry":{"type":"Point","coordinates":[-108.5419872,46.442267399999]},"properties":{"address":"123 Main St.","placename":"123 Main St, Roundup, Mt 59072, USA","title":"Refrigerator"}},{"type":"Feature","geometry":{"type":"Point","coordinates":[-71.109733499997,42.373615800001]},"properties":{"address":"Cambridge, MA","placename":"Mid-Cambridge, MA, USA","title":"Lemonade"}},{"type":"Feature","geometry":{"type":"Point","coordinates":[-81.1881557,37.778170199999]},"properties":{"address":"Beckly, WV","placename":"Beckley, WV 25801, USA","title":"Gas Well"}},{"type":"Feature","geometry":{"type":"Point","coordinates":[-80.467313,39.038427399999]},"properties":{"address":"Weston, WV","placename":"Weston, WV 26452, USA","title":"Gas"}},{"type":"Feature","geometry":{"type":"Point","coordinates":[-92.019842699999,30.224089700003]},"properties":{"address":"Lafayette, LA","placename":"Lafayette, LA, USA","title":"Oil Well"}},{"type":"Feature","geometry":{"type":"Point","coordinates":[-90.071532300001,29.9510658]},"properties":{"address":"New Orleans, LA","placename":"New Orleans, LA, USA","title":"Oil"}},{"type":"Feature","geometry":{"type":"Point","coordinates":[-81.1881557,37.778170199999]},"properties":{"address":"Beckly, WV","placename":"Beckley, WV 25801, USA","title":"Gas Well"}},{"type":"Feature","geometry":{"type":"Point","coordinates":[-80.467313,39.038427399999]},"properties":{"address":"Weston, WV","placename":"Weston, WV 26452, USA","title":"Gas"}},{"type":"Feature","geometry":{"type":"Point","coordinates":[-92.019842699999,30.224089700003]},"properties":{"address":"Lafayette, LA","placename":"Lafayette, LA, USA","title":"Oil Well"}},{"type":"Feature","geometry":{"type":"Point","coordinates":[-90.071532300001,29.9510658]},"properties":{"address":"New Orleans, LA","placename":"New Orleans, LA, USA","title":"Oil"}},{"type":"Feature","geometry":{"type":"Point","coordinates":[-95.369389599997,29.760192700002]},"properties":{"address":"Houston, TX","placename":"Houston, TX, USA","title":"Polymer"}},{"type":"Feature","geometry":{"type":"Point","coordinates":[-116.237651,43.613739]},"properties":{"address":"Boise, ID","placename":"Boise, ID, USA","title":"Plastic Web"}},{"type":"Feature","geometry":{"type":"Point","coordinates":[-81.1881557,37.778170199999]},"properties":{"address":"Beckly, WV","placename":"Beckley, WV 25801, USA","title":"Gas Well"}},{"type":"Feature","geometry":{"type":"Point","coordinates":[-80.467313,39.038427399999]},"properties":{"address":"Weston, WV","placename":"Weston, WV 26452, USA","title":"Gas"}},{"type":"Feature","geometry":{"type":"Point","coordinates":[-92.019842699999,30.224089700003]},"properties":{"address":"Lafayette, LA","placename":"Lafayette, LA, USA","title":"Oil Well"}},{"type":"Feature","geometry":{"type":"Point","coordinates":[-90.071532300001,29.9510658]},"properties":{"address":"New Orleans, LA","placename":"New Orleans, LA, USA","title":"Oil"}},{"type":"Feature","geometry":{"type":"Point","coordinates":[-95.369389599997,29.760192700002]},"properties":{"address":"Houston, TX","placename":"Houston, TX, USA","title":"Polymer"}},{"type":"Feature","geometry":{"type":"Point","coordinates":[-122.3320708,47.6062095]},"properties":{"address":"Seattle, WA","placename":"Seattle, WA, USA","title":"Plastic Film"}},{"type":"Feature","geometry":{"type":"Point","coordinates":[-116.237651,43.613739]},"properties":{"address":"Boise, ID","placename":"Boise, ID, USA","title":"Plastic Tarp"}},{"type":"Feature","geometry":{"type":"LineString","coordinates":[[-122.3320708,47.6062095],[-116.237651,43.613739]]},"properties":[]},{"type":"Feature","geometry":{"type":"LineString","coordinates":[[-95.369389599997,29.760192700002],[-122.3320708,47.6062095]]},"properties":[]},{"type":"Feature","geometry":{"type":"LineString","coordinates":[[-90.071532300001,29.9510658],[-95.369389599997,29.760192700002]]},"properties":[]},{"type":"Feature","geometry":{"type":"LineString","coordinates":[[-92.019842699999,30.224089700003],[-90.071532300001,29.9510658]]},"properties":[]},{"type":"Feature","geometry":{"type":"LineString","coordinates":[[-80.467313,39.038427399999],[-95.369389599997,29.760192700002]]},"properties":[]},{"type":"Feature","geometry":{"type":"LineString","coordinates":[[-81.1881557,37.778170199999],[-80.467313,39.038427399999]]},"properties":[]},{"type":"Feature","geometry":{"type":"LineString","coordinates":[[-116.237651,43.613739],[-122.3320708,47.6062095]]},"properties":[]},{"type":"Feature","geometry":{"type":"LineString","coordinates":[[-95.369389599997,29.760192700002],[-116.237651,43.613739]]},"properties":[]},{"type":"Feature","geometry":{"type":"LineString","coordinates":[[-90.071532300001,29.9510658],[-95.369389599997,29.760192700002]]},"properties":[]},{"type":"Feature","geometry":{"type":"LineString","coordinates":[[-92.019842699999,30.224089700003],[-90.071532300001,29.9510658]]},"properties":[]},{"type":"Feature","geometry":{"type":"LineString","coordinates":[[-80.467313,39.038427399999],[-95.369389599997,29.760192700002]]},"properties":[]},{"type":"Feature","geometry":{"type":"LineString","coordinates":[[-81.1881557,37.778170199999],[-80.467313,39.038427399999]]},"properties":[]},{"type":"Feature","geometry":{"type":"LineString","coordinates":[[-90.071532300001,29.9510658],[-122.3320708,47.6062095]]},"properties":[]},{"type":"Feature","geometry":{"type":"LineString","coordinates":[[-92.019842699999,30.224089700003],[-90.071532300001,29.9510658]]},"properties":[]},{"type":"Feature","geometry":{"type":"LineString","coordinates":[[-80.467313,39.038427399999],[-122.3320708,47.6062095]]},"properties":[]},{"type":"Feature","geometry":{"type":"LineString","coordinates":[[-81.1881557,37.778170199999],[-80.467313,39.038427399999]]},"properties":[]},{"type":"Feature","geometry":{"type":"LineString","coordinates":[[-71.109733499997,42.373615800001],[-108.5419872,46.442267399999]]},"properties":[]},{"type":"Feature","geometry":{"type":"LineString","coordinates":[[-108.5419872,46.442267399999],[-108.5419872,46.442267399999]]},"properties":[]},{"type":"Feature","geometry":{"type":"LineString","coordinates":[[-71.109733499997,42.373615800001],[-70.310320400001,43.616110100003]]},"properties":[]},{"type":"Feature","geometry":{"type":"LineString","coordinates":[[-70.310320400001,43.616110100003],[-71.104489000001,42.365336900002]]},"properties":[]}],"properties":{"title":"Plastic","description":"Plastic","tags":""}}