{"type":"FeatureCollection","features":[{"type":"Feature","geometry":{"type":"Point","coordinates":[-97.092877000001,35.0077519]},"properties":{"address":"oklahoma,United States","placename":"Oklahoma, USA","title":"United States"}},{"type":"Feature","geometry":{"type":"Point","coordinates":[95.956223000002,21.913964999999]},"properties":{"address":"Burma","placename":"Burma","title":"Burma"}},{"type":"Feature","geometry":{"type":"Point","coordinates":[80.771797000003,7.8730540000028]},"properties":{"address":"Sri Lanka","placename":"Sri Lanka","title":"Sri Lanka"}},{"type":"Feature","geometry":{"type":"Point","coordinates":[67.709952999996,33.939110000002]},"properties":{"address":"Afghanistan","placename":"Afghanistan","title":"Afghanistan"}},{"type":"Feature","geometry":{"type":"Point","coordinates":[174.885971,-40.900556999999]},"properties":{"address":"New Zealand","placename":"New Zealand","title":"New Zealand"}},{"type":"Feature","geometry":{"type":"Point","coordinates":[113.921327,-0.78927499999687]},"properties":{"address":"Indonesia","placename":"Indonesia","title":"Indonesia"}},{"type":"Feature","geometry":{"type":"Point","coordinates":[104.195397,35.861660000001]},"properties":{"address":"China","placename":"China","title":"China"}},{"type":"Feature","geometry":{"type":"Point","coordinates":[-71.542969,-35.675146999998]},"properties":{"address":"Chile","placename":"Chile","title":"Chile"}},{"type":"Feature","geometry":{"type":"Point","coordinates":[135.5021651,34.693737799997]},"properties":{"address":"osaka,japan","placename":"Osaka, Osaka Prefecture, Japan","title":"Osaka"}},{"type":"Feature","geometry":{"type":"Point","coordinates":[139.6917064,35.6894875]},"properties":{"address":"tokyo,japan","placename":"Tokyo, Japan","title":"Tokyo"}},{"type":"Feature","geometry":{"type":"Point","coordinates":[138.252924,36.204824000001]},"properties":{"address":"japan","placename":"Japan","title":"Japan"}},{"type":"Feature","geometry":{"type":"Point","coordinates":[138.252924,36.204824000001]},"properties":{"address":"japan","placename":"Japan","title":"RFID"}},{"type":"Feature","geometry":{"type":"Point","coordinates":[138.252924,36.204824000001]},"properties":{"address":"japan","placename":"Japan","title":"Relays"}},{"type":"Feature","geometry":{"type":"Point","coordinates":[104.195397,35.861660000001]},"properties":{"address":"china","placename":"China","title":"Battery"}},{"type":"Feature","geometry":{"type":"Point","coordinates":[138.252924,36.204824000001]},"properties":{"address":"Japan","placename":"Japan","title":"Piezo sensor"}},{"type":"Feature","geometry":{"type":"Point","coordinates":[-3.4359729999961,55.378051000001]},"properties":{"address":"United Kingdom","placename":"United Kingdom","title":"Auto door latch release mechanism"}},{"type":"Feature","geometry":{"type":"LineString","coordinates":[[138.252924,36.204824000001],[-3.4359729999961,55.378051000001]]},"properties":[]},{"type":"Feature","geometry":{"type":"LineString","coordinates":[[104.195397,35.861660000001],[-3.4359729999961,55.378051000001]]},"properties":[]},{"type":"Feature","geometry":{"type":"LineString","coordinates":[[138.252924,36.204824000001],[-3.4359729999961,55.378051000001]]},"properties":[]},{"type":"Feature","geometry":{"type":"LineString","coordinates":[[138.252924,36.204824000001],[-3.4359729999961,55.378051000001]]},"properties":[]},{"type":"Feature","geometry":{"type":"LineString","coordinates":[[-3.4359729999961,55.378051000001],[138.252924,36.204824000001]]},"properties":[]},{"type":"Feature","geometry":{"type":"LineString","coordinates":[[138.252924,36.204824000001],[139.6917064,35.6894875]]},"properties":[]},{"type":"Feature","geometry":{"type":"LineString","coordinates":[[138.252924,36.204824000001],[135.5021651,34.693737799997]]},"properties":[]},{"type":"Feature","geometry":{"type":"LineString","coordinates":[[-3.4359729999961,55.378051000001],[-71.542969,-35.675146999998]]},"properties":[]},{"type":"Feature","geometry":{"type":"LineString","coordinates":[[-3.4359729999961,55.378051000001],[104.195397,35.861660000001]]},"properties":[]},{"type":"Feature","geometry":{"type":"LineString","coordinates":[[-3.4359729999961,55.378051000001],[113.921327,-0.78927499999687]]},"properties":[]},{"type":"Feature","geometry":{"type":"LineString","coordinates":[[-3.4359729999961,55.378051000001],[174.885971,-40.900556999999]]},"properties":[]},{"type":"Feature","geometry":{"type":"LineString","coordinates":[[-3.4359729999961,55.378051000001],[67.709952999996,33.939110000002]]},"properties":[]},{"type":"Feature","geometry":{"type":"LineString","coordinates":[[-3.4359729999961,55.378051000001],[80.771797000003,7.8730540000028]]},"properties":[]},{"type":"Feature","geometry":{"type":"LineString","coordinates":[[-3.4359729999961,55.378051000001],[95.956223000002,21.913964999999]]},"properties":[]},{"type":"Feature","geometry":{"type":"LineString","coordinates":[[-3.4359729999961,55.378051000001],[-97.092877000001,35.0077519]]},"properties":[]}],"properties":{"title":"Open Sesame","description":"Automatic Door opening during earthquakes","tags":"automatic door opener"}}