{"type":"FeatureCollection","features":[{"type":"Feature","geometry":{"type":"Point","coordinates":[-71.059773200004,42.358430800001]},"properties":{"address":"Boston, MA","placename":"Boston, MA, USA","title":"Distributor"}},{"type":"Feature","geometry":{"type":"Point","coordinates":[-71.059773200004,42.358430800001]},"properties":{"address":"Boston, MA","placename":"Boston, MA, USA","title":"Soft Contact Lenses"}},{"type":"Feature","geometry":{"type":"Point","coordinates":[-90.199404200003,38.6270025]},"properties":{"address":"St. Louis, MO, USA","placename":"St Louis, MO, USA","title":"Poly Hydroxyethyl Methacrylate"}},{"type":"Feature","geometry":{"type":"Point","coordinates":[104.195397,35.861660000001]},"properties":{"address":"China","placename":"China","title":"Salt"}},{"type":"Feature","geometry":{"type":"Point","coordinates":[-81.5157535,27.664827400001]},"properties":{"address":"Fresh Pond Reservoir, FL, USA","placename":"Florida, USA","title":"Water"}},{"type":"Feature","geometry":{"type":"Point","coordinates":[-85.668086299998,42.963359900002]},"properties":{"address":"Grand Rapids, MI","placename":"Grand Rapids, MI, USA","title":"Steam sterilizable foil"}},{"type":"Feature","geometry":{"type":"Point","coordinates":[-73.416788999998,40.7292663]},"properties":{"address":"East Farmingdale, NY","placename":"East Farmingdale, NY, USA","title":"Recycled PET"}},{"type":"Feature","geometry":{"type":"Point","coordinates":[-1.4498203000022,52.9001776]},"properties":{"address":"Derby DE24 8SR, UK","placename":"Derby DE24 8SR, UK","title":"Medical Grade Saline"}},{"type":"Feature","geometry":{"type":"Point","coordinates":[-71.059773200004,42.358430800001]},"properties":{"address":"Boston, MA, USA","placename":"Boston, MA, USA","title":"Soft Contact Lenses"}},{"type":"Feature","geometry":{"type":"LineString","coordinates":[[-1.4498203000022,52.9001776],[-71.059773200004,42.358430800001]]},"properties":[]},{"type":"Feature","geometry":{"type":"LineString","coordinates":[[-73.416788999998,40.7292663],[-71.059773200004,42.358430800001]]},"properties":[]},{"type":"Feature","geometry":{"type":"LineString","coordinates":[[-85.668086299998,42.963359900002],[-71.059773200004,42.358430800001]]},"properties":[]},{"type":"Feature","geometry":{"type":"LineString","coordinates":[[-81.5157535,27.664827400001],[-85.668086299998,42.963359900002]]},"properties":[]},{"type":"Feature","geometry":{"type":"LineString","coordinates":[[104.195397,35.861660000001],[-85.668086299998,42.963359900002]]},"properties":[]},{"type":"Feature","geometry":{"type":"LineString","coordinates":[[-90.199404200003,38.6270025],[-85.668086299998,42.963359900002]]},"properties":[]},{"type":"Feature","geometry":{"type":"LineString","coordinates":[[-71.059773200004,42.358430800001],[-71.059773200004,42.358430800001]]},"properties":[]}],"properties":{"title":"Daily Soft Contact Lenses","description":"","tags":""}}