{"type":"FeatureCollection","features":[{"type":"Feature","geometry":{"type":"Point","coordinates":[-71.059773200004,42.358430800001]},"properties":{"address":"Boston, MA","placename":"Boston, MA, USA","title":"Distributor"}},{"type":"Feature","geometry":{"type":"Point","coordinates":[-71.059773200004,42.358430800001]},"properties":{"address":"Boston, MA","placename":"Boston, MA, USA","title":"Soft Contact Lenses"}},{"type":"Feature","geometry":{"type":"Point","coordinates":[-90.199404200003,38.6270025]},"properties":{"address":"St. Louis, MO, USA","placename":"St Louis, MO, USA","title":"Polyhydroxyethyl methacrylate"}},{"type":"Feature","geometry":{"type":"Point","coordinates":[104.195397,35.861660000001]},"properties":{"address":"China","placename":"China","title":"Salt"}},{"type":"Feature","geometry":{"type":"Point","coordinates":[-69.445468899999,45.253782999999]},"properties":{"address":"Fresh Pond Reservoir, Maine","placename":"Maine, USA","title":"Water"}},{"type":"Feature","geometry":{"type":"Point","coordinates":[-85.668086299998,42.963359900002]},"properties":{"address":"Grand Rapids, MI","placename":"Grand Rapids, MI, USA","title":"Steam Sterilizable Foil"}},{"type":"Feature","geometry":{"type":"Point","coordinates":[-82.998794200003,39.9611755]},"properties":{"address":"Columbus, OH","placename":"Columbus, OH, USA","title":"Recycled Paper and Plastic"}},{"type":"Feature","geometry":{"type":"Point","coordinates":[-1.4498203000022,52.9001776]},"properties":{"address":"Derby DE24 8SR, UK","placename":"Derby DE24 8SR, UK","title":"Medical Grade Saline"}},{"type":"Feature","geometry":{"type":"Point","coordinates":[-71.059773200004,42.358430800001]},"properties":{"address":"Boston, MA, USA","placename":"Boston, MA, USA","title":"Soft Contact Lenses"}},{"type":"Feature","geometry":{"type":"LineString","coordinates":[[-1.4498203000022,52.9001776],[-71.059773200004,42.358430800001]]},"properties":[]},{"type":"Feature","geometry":{"type":"LineString","coordinates":[[-82.998794200003,39.9611755],[-71.059773200004,42.358430800001]]},"properties":[]},{"type":"Feature","geometry":{"type":"LineString","coordinates":[[-85.668086299998,42.963359900002],[-71.059773200004,42.358430800001]]},"properties":[]},{"type":"Feature","geometry":{"type":"LineString","coordinates":[[-69.445468899999,45.253782999999],[-85.668086299998,42.963359900002]]},"properties":[]},{"type":"Feature","geometry":{"type":"LineString","coordinates":[[104.195397,35.861660000001],[-85.668086299998,42.963359900002]]},"properties":[]},{"type":"Feature","geometry":{"type":"LineString","coordinates":[[-90.199404200003,38.6270025],[-85.668086299998,42.963359900002]]},"properties":[]},{"type":"Feature","geometry":{"type":"LineString","coordinates":[[-71.059773200004,42.358430800001],[-71.059773200004,42.358430800001]]},"properties":[]}],"properties":{"title":"Daily Disposable Contact Lenses","description":"","tags":""}}