{"type":"FeatureCollection","features":[{"type":"Feature","geometry":{"type":"Point","coordinates":[113.751765,23.020536000003]},"properties":{"title":"iPhone Assembly","placename":"Dongguan, Guangdong, China","address":"Dongguan City, China","description":"Pegatron"}},{"type":"Feature","geometry":{"type":"Point","coordinates":[113.266531,23.132191]},"properties":{"title":"iPhone Assembly","placename":"Guangdong, China","address":"Guangdong Province, China","description":"Hong Hai"}},{"type":"Feature","geometry":{"type":"Point","coordinates":[-84.843285199996,37.762298]},"properties":{"title":"Touch Screen","placename":"Harrodsburg, KY 40330, USA","address":"Harrodsburg, Kentucky","description":"Corning Glass"}},{"type":"Feature","geometry":{"type":"Point","coordinates":[138.3827596,34.975562000001]},"properties":{"title":"Touch Screen","placename":"Shizuoka, Shizuoka Prefecture, Japan","address":"Shizuoka, Japan","description":"Corning Glass"}},{"type":"Feature","geometry":{"type":"Point","coordinates":[118.08942,24.479836]},"properties":{"title":"Touch Screen","placename":"Xiamen, Fujian, China","address":"Xiamen, Fujian Province, China","description":"TPK Holdings"}},{"type":"Feature","geometry":{"type":"Point","coordinates":[108.277199,14.058324000001]},"properties":{"title":"Touch Screen","placename":"Vietnam","address":"Vietnam","description":"Wintek"}},{"type":"Feature","geometry":{"type":"Point","coordinates":[118.08942,24.479836]},"properties":{"title":"Touch Screen","placename":"Xiamen, Fujian, China","address":"Xiamen, Fujian Province, China","description":"Wintek"}},{"type":"Feature","geometry":{"type":"Point","coordinates":[78.962879999997,20.593684000004]},"properties":{"title":"Touch Screen","placename":"India","address":"India","description":"Wintek"}},{"type":"Feature","geometry":{"type":"Point","coordinates":[108.277199,14.058324000001]},"properties":{"title":"Touch Screen","placename":"Vietnam","address":"Vietnam","description":"Wintek"}},{"type":"Feature","geometry":{"type":"Point","coordinates":[129.877667,32.7502856]},"properties":{"title":"CMOS Sensor","placename":"Nagasaki, Nagasaki Prefecture, Japan","address":"Nagasaki, Japan","description":"Sony"}},{"type":"Feature","geometry":{"type":"Point","coordinates":[118.08942,24.479836]},"properties":{"title":"CMOS Sensor","placename":"Xiamen, Fujian, China","address":"Xiamen, Fujian Province, China","description":"Omnivision"}},{"type":"Feature","geometry":{"type":"Point","coordinates":[104.064856,30.658601000001]},"properties":{"title":"Camera Module","placename":"Chengdu, Sichuan, China","address":"Chendu, China","description":"Sharp"}},{"type":"Feature","geometry":{"type":"Point","coordinates":[120.5226793,36.868658600002]},"properties":{"title":"Camera Module","placename":"Yantai Rd, Laixi, Qingdao, Shandong, China","address":"Yentai, Shandong, China","description":"LG Innotek"}},{"type":"Feature","geometry":{"type":"Point","coordinates":[120.5226793,36.868658600002]},"properties":{"title":"Camera Lens","placename":"Yantai Rd, Laixi, Qingdao, Shandong, China","address":"Yentai, Shandong, China","description":"Largan Precision"}},{"type":"Feature","geometry":{"type":"Point","coordinates":[118.08942,24.479836]},"properties":{"title":"Camera Lens","placename":"Xiamen, Fujian, China","address":"Xiamen, Fujian Province, China","description":"Genius Electrical Optical"}},{"type":"Feature","geometry":{"type":"Point","coordinates":[-97.7430608,30.267153]},"properties":{"title":"A5 Chip","placename":"Austin, TX, USA","address":"Austin, Texas","description":"Samsung"}},{"type":"Feature","geometry":{"type":"Point","coordinates":[127.766922,35.907756999999]},"properties":{"title":"A5 Chip","placename":"South Korea","address":"South Korea","description":"Samsung"}},{"type":"Feature","geometry":{"type":"Point","coordinates":[-122.3995363,45.587063099998]},"properties":{"title":"A5 Chip","placename":"Camas, WA, USA","address":"Camas, Washington","description":"TSMC-Wafertech"}},{"type":"Feature","geometry":{"type":"Point","coordinates":[103.819836,1.3520830000039]},"properties":{"title":"A5 Chip","placename":"Singapore","address":"Singapore","description":"TSMC-SSMC"}},{"type":"Feature","geometry":{"type":"Point","coordinates":[120.601181,24.199388000002]},"properties":{"title":"A5 Chip","placename":"West Water Tower of Central Taiwan Science Park, Situn District, Taichung City, Taiwan 407","address":"Central Taiwan Science Park","description":"TSMC"}},{"type":"Feature","geometry":{"type":"Point","coordinates":[104.064856,30.658601000001]},"properties":{"title":"Tantalum","placename":"Chengdu, Sichuan, China","address":"Chendu, China","description":"Refining Operations"}},{"type":"Feature","geometry":{"type":"Point","coordinates":[18.255959999997,0.047646999998517]},"properties":{"title":"Coltan","placename":"Mbandaka, Democratic Republic of the Congo","address":"Mbandaka, Democratic Republic of the Congo","description":"Mining Operations"}},{"type":"Feature","geometry":{"type":"Point","coordinates":[-97.7430608,30.267153]},"properties":{"title":"Flash Memory","placename":"Austin, TX, USA","address":"Austin, Texas","description":"Samsung"}},{"type":"Feature","geometry":{"type":"Point","coordinates":[136.6244847,34.965156699997]},"properties":{"title":"Flash Memory","placename":"Yokkaichi, Mie Prefecture, Japan","address":"Yokkaichi, Japan","description":"Toshiba"}},{"type":"Feature","geometry":{"type":"Point","coordinates":[132.4552927,34.385202900001]},"properties":{"title":"Memory","placename":"Hiroshima, Hiroshima Prefecture, Japan","address":"Hiroshima, Japan","description":"Elpida Memory"}},{"type":"Feature","geometry":{"type":"Point","coordinates":[-97.7430608,30.267153]},"properties":{"title":"Memory","placename":"Austin, TX, USA","address":"Austin, Texas","description":"Samsung"}},{"type":"Feature","geometry":{"type":"Point","coordinates":[127.4348221,37.271995199998]},"properties":{"title":"Memory","placename":"Icheon-si, Gyeonggi-do, South Korea","address":"Icheon, South Korea","description":"Hynix"}},{"type":"Feature","geometry":{"type":"Point","coordinates":[127.4890319,36.642434100003]},"properties":{"title":"Memory","placename":"Cheongju-si, Chungcheongbuk-do, South Korea","address":"Cheonju, South Korea","description":"Hynix"}},{"type":"Feature","geometry":{"type":"Point","coordinates":[120.303027,31.566145000001]},"properties":{"title":"Memory","placename":"Wuxi, Jiangsu, China","address":"Wuxi, China","description":"Hynix"}},{"type":"Feature","geometry":{"type":"Point","coordinates":[-71.152276499998,42.479261800001]},"properties":{"title":"Transmit Module","placename":"Woburn, MA, USA","address":"Woburn, Massachusetts","description":"Skyworks"}},{"type":"Feature","geometry":{"type":"Point","coordinates":[-122.989827,45.522893899997]},"properties":{"title":"Transmit Module","placename":"Hillsboro, OR, USA","address":"Hillsboro, Oregon","description":"TriQuint"}},{"type":"Feature","geometry":{"type":"Point","coordinates":[-96.729720500003,32.948178900002]},"properties":{"title":"Transmit Module","placename":"Richardson, TX, USA","address":"Richardson, Texas","description":"TriQuint"}},{"type":"Feature","geometry":{"type":"Point","coordinates":[-81.513276000004,28.686749999997]},"properties":{"title":"Transmit Module","placename":"Apopka, FL, USA","address":"Apopka, Florida","description":"TriQuint"}},{"type":"Feature","geometry":{"type":"Point","coordinates":[-84.082012000001,9.9271279999987]},"properties":{"title":"Transmit Module","placename":"San Jose, Costa Rica","address":"San Jose, Costa Rica","description":"TriQuint"}},{"type":"Feature","geometry":{"type":"Point","coordinates":[-117.1572551,32.715329199999]},"properties":{"title":"Baseband Transceiver","placename":"San Diego, CA, USA","address":"San Diego, California","description":"Qualcomm"}},{"type":"Feature","geometry":{"type":"Point","coordinates":[-117.018204,32.533488999998]},"properties":{"title":"Baseband Transceiver","placename":"Tijuana, Baja California, Mexico","address":"Tijuana, Mexico","description":"Qualcomm"}},{"type":"Feature","geometry":{"type":"Point","coordinates":[104.064856,30.658601000001]},"properties":{"title":"Touchscreen Controller","placename":"Chengdu, Sichuan, China","address":"Chengdu, China","description":"Texas Instruments"}},{"type":"Feature","geometry":{"type":"Point","coordinates":[138.3231893,34.866920200001]},"properties":{"title":"Touchscreen Controller","placename":"Yaizu, Shizuoka Prefecture, Japan","address":"Aizu, Japan","description":"Texas Instruments"}},{"type":"Feature","geometry":{"type":"Point","coordinates":[-96.729720500003,32.948178900002]},"properties":{"title":"Touchscreen Controller","placename":"Richardson, TX, USA","address":"Richardson, Texas","description":"Texas Instruments"}},{"type":"Feature","geometry":{"type":"Point","coordinates":[120.585316,31.298886]},"properties":{"title":"Power Management","placename":"Suzhou, Jiangsu, China","address":"Suzhou, China","description":"Fairchild Semiconductor"}},{"type":"Feature","geometry":{"type":"Point","coordinates":[123.8854366,10.315699200003]},"properties":{"title":"Power Management","placename":"Cebu City, Philippines","address":"Cebu, The Philippines","description":"Fairchild Semiconductor"}},{"type":"Feature","geometry":{"type":"Point","coordinates":[126.7660309,37.5034138]},"properties":{"title":"Power Management","placename":"Bucheon-si, Gyeonggi-do, South Korea","address":"Bucheon City, South Korea","description":"Fairchild Semiconductor"}},{"type":"Feature","geometry":{"type":"Point","coordinates":[103.819836,1.3520830000039]},"properties":{"title":"Power Management","placename":"Singapore","address":"Singapore","description":"Fairchild Semiconductor"}},{"type":"Feature","geometry":{"type":"Point","coordinates":[100.4846227,5.2632341000031]},"properties":{"title":"Power Management","placename":"Penang, Malaysia","address":"Penang, Malaysia","description":"Fairchild Semiconductor"}},{"type":"Feature","geometry":{"type":"Point","coordinates":[-70.240881100001,43.641471599999]},"properties":{"title":"Power Management","placename":"South Portland, ME, USA","address":"South Portland, ME","description":"Fairchild Semiconductor"}},{"type":"Feature","geometry":{"type":"Point","coordinates":[-75.1312542,41.076024600001]},"properties":{"title":"Power Management","placename":"Mountaintop Dr, Middle Smithfield, PA, USA","address":"Mountaintop, Pennsylvania","description":"Fairchild Semiconductor"}},{"type":"Feature","geometry":{"type":"Point","coordinates":[-111.9391031,40.609669800001]},"properties":{"title":"Power Management","placename":"West Jordan, UT, USA","address":"West Jordan, Utah","description":"Fairchild Semiconductor"}},{"type":"Feature","geometry":{"type":"Point","coordinates":[5.8829829999956,45.284905999998]},"properties":{"title":"Accelerometer & Gyroscope","placename":"Crolles, France","address":"Crolles, France","description":"ST Microelectronics"}},{"type":"Feature","geometry":{"type":"Point","coordinates":[5.622018999999,43.480621000002]},"properties":{"title":"Accelerometer & Gyroscope","placename":"Rousset, France","address":"Rousset, France","description":"ST Microelectronics"}},{"type":"Feature","geometry":{"type":"Point","coordinates":[0.68484000000121,47.394144000002]},"properties":{"title":"Accelerometer & Gyroscope","placename":"Tours, France","address":"Tours, France","description":"ST Microelectronics"}},{"type":"Feature","geometry":{"type":"Point","coordinates":[8.5524039999968,45.677076700001]},"properties":{"title":"Accelerometer & Gyroscope","placename":"Agrate, 28010 Agrate Conturbia Province of Novara, Italy","address":"Agrate, Italy","description":"ST Microelectronics"}},{"type":"Feature","geometry":{"type":"Point","coordinates":[15.087834499998,37.502482499997]},"properties":{"title":"Accelerometer & Gyroscope","placename":"Catania Province of Catania, Italy","address":"Catania, Italy","description":"ST Microelectronics"}},{"type":"Feature","geometry":{"type":"Point","coordinates":[14.375415999996,35.937496000002]},"properties":{"title":"Accelerometer & Gyroscope","placename":"Malta","address":"Malta","description":"ST Microelectronics"}},{"type":"Feature","geometry":{"type":"Point","coordinates":[114.057868,22.543099000001]},"properties":{"title":"Accelerometer & Gyroscope","placename":"Shenzhen, Guangdong, China","address":"Shenzhen, China","description":"ST Microelectronics"}},{"type":"Feature","geometry":{"type":"Point","coordinates":[114.247581,22.720242999996]},"properties":{"title":"Accelerometer & Gyroscope","placename":"Longgang, Shenzhen, Guangdong, China","address":"Longgang, China","description":"ST Microelectronics"}},{"type":"Feature","geometry":{"type":"Point","coordinates":[131.6648483,32.5823167]},"properties":{"title":"E-Compass","placename":"Nobeoka, Miyazaki Prefecture, Japan","address":"Nobeoka, Japan","description":"AKM Semiconductor"}},{"type":"Feature","geometry":{"type":"Point","coordinates":[113.751765,23.020536000003]},"properties":{"title":"iPhone","placename":"Dongguan, Guangdong, China","address":"Dongguan City, China","description":"Pegatron"}},{"type":"Feature","geometry":{"type":"Point","coordinates":[113.266531,23.132191]},"properties":{"title":"iPhone","placename":"Guangdong, China","address":"Guangdong Province, China","description":"Hong Hai"}},{"type":"Feature","geometry":{"type":"Point","coordinates":[-122.0321823,37.322997799998]},"properties":{"title":"Shipping Distribution Center","placename":"Cupertino, CA, USA","address":"Cupertino, California","description":"Apple HQ"}},{"type":"Feature","geometry":{"type":"Point","coordinates":[-93.362750000003,44.800636]},"properties":{"title":"Best Buy \u201cCrossdock\u201d","placename":"6201 W 111th St, Bloomington, MN 55437, USA","address":"6201 W. 111th St., Bloomington, MN","description":"Best Buy Distribution"}},{"type":"Feature","geometry":{"type":"Point","coordinates":[-93.292670600004,44.8623744]},"properties":{"youtube:link":"","water":"0","energy":"0","co2e":"0","weight":"0","title":"Best Buy Richfield","placename":"1000 W 78th St, Richfield, MN 55423, USA","address":"1000 West 78th St. Richfield, MN 55423","description":"Best Buy Richfield"}},{"type":"Feature","geometry":{"type":"LineString","coordinates":[[-84.843285199996,37.762298],[113.266531,23.132191]]},"properties":{"distance":"12984.200399","title":"Touch Screen to iPhone Assembly"}},{"type":"Feature","geometry":{"type":"LineString","coordinates":[[138.3827596,34.975562000001],[113.266531,23.132191]]},"properties":{"distance":"2762.359122","title":"Touch Screen to iPhone Assembly"}},{"type":"Feature","geometry":{"type":"LineString","coordinates":[[118.08942,24.479836],[113.266531,23.132191]]},"properties":{"title":"Touch Screen to iPhone Assembly","distance":"512.985968"}},{"type":"Feature","geometry":{"type":"LineString","coordinates":[[108.277199,14.058324000001],[113.266531,23.132191]]},"properties":{"distance":"1137.416468","title":"Touch Screen to iPhone Assembly"}},{"type":"Feature","geometry":{"type":"LineString","coordinates":[[118.08942,24.479836],[113.266531,23.132191]]},"properties":{"distance":"512.985968","title":"Touch Screen to iPhone Assembly"}},{"type":"Feature","geometry":{"type":"LineString","coordinates":[[78.962879999997,20.593684000004],[113.266531,23.132191]]},"properties":{"distance":"3543.317657","title":"Touch Screen to iPhone Assembly"}},{"type":"Feature","geometry":{"type":"LineString","coordinates":[[108.277199,14.058324000001],[113.266531,23.132191]]},"properties":{"distance":"1137.416468","title":"Touch Screen to iPhone Assembly"}},{"type":"Feature","geometry":{"type":"LineString","coordinates":[[129.877667,32.7502856],[113.266531,23.132191]]},"properties":{"distance":"1946.984060","title":"CMOS Sensor to iPhone Assembly"}},{"type":"Feature","geometry":{"type":"LineString","coordinates":[[118.08942,24.479836],[113.266531,23.132191]]},"properties":{"distance":"512.985968","title":"CMOS Sensor to iPhone Assembly"}},{"type":"Feature","geometry":{"type":"LineString","coordinates":[[104.064856,30.658601000001],[113.266531,23.132191]]},"properties":{"distance":"1237.164383","title":"Camera Module to iPhone Assembly"}},{"type":"Feature","geometry":{"type":"LineString","coordinates":[[120.5226793,36.868658600002],[113.266531,23.132191]]},"properties":{"distance":"1678.219438","title":"Camera Module to iPhone Assembly"}},{"type":"Feature","geometry":{"type":"LineString","coordinates":[[120.5226793,36.868658600002],[113.266531,23.132191]]},"properties":{"title":"Camera Lens to iPhone Assembly","distance":"1678.219438"}},{"type":"Feature","geometry":{"type":"LineString","coordinates":[[118.08942,24.479836],[113.266531,23.132191]]},"properties":{"distance":"512.985968","title":"Camera Lens to iPhone Assembly"}},{"type":"Feature","geometry":{"type":"LineString","coordinates":[[-97.7430608,30.267153],[113.266531,23.132191]]},"properties":{"title":"A5 Chip to iPhone Assembly","distance":"13216.994995"}},{"type":"Feature","geometry":{"type":"LineString","coordinates":[[127.766922,35.907756999999],[113.266531,23.132191]]},"properties":{"title":"A5 Chip to iPhone Assembly","distance":"1991.982725"}},{"type":"Feature","geometry":{"type":"LineString","coordinates":[[-122.3995363,45.587063099998],[113.266531,23.132191]]},"properties":{"distance":"10532.828434","title":"A5 Chip to iPhone Assembly"}},{"type":"Feature","geometry":{"type":"LineString","coordinates":[[103.819836,1.3520830000039],[113.266531,23.132191]]},"properties":{"title":"A5 Chip to iPhone Assembly","distance":"2627.627771"}},{"type":"Feature","geometry":{"type":"LineString","coordinates":[[120.601181,24.199388000002],[113.266531,23.132191]]},"properties":{"distance":"756.256841","title":"A5 Chip to iPhone Assembly"}},{"type":"Feature","geometry":{"type":"LineString","coordinates":[[104.064856,30.658601000001],[120.601181,24.199388000002]]},"properties":{"distance":"1780.554861","title":"Tantalum to A5 Chip"}},{"type":"Feature","geometry":{"type":"LineString","coordinates":[[18.255959999997,0.047646999998517],[104.064856,30.658601000001]]},"properties":{"distance":"9604.041294","title":"Coltan to Tantalum"}},{"type":"Feature","geometry":{"type":"LineString","coordinates":[[-97.7430608,30.267153],[113.266531,23.132191]]},"properties":{"distance":"13216.994995","title":"Flash Memory to iPhone Assembly"}},{"type":"Feature","geometry":{"type":"LineString","coordinates":[[136.6244847,34.965156699997],[113.266531,23.132191]]},"properties":{"distance":"2614.235517","title":"Flash Memory to iPhone Assembly"}},{"type":"Feature","geometry":{"type":"LineString","coordinates":[[132.4552927,34.385202900001],[113.266531,23.132191]]},"properties":{"distance":"2243.965750","title":"Memory to iPhone Assembly"}},{"type":"Feature","geometry":{"type":"LineString","coordinates":[[-97.7430608,30.267153],[113.266531,23.132191]]},"properties":{"distance":"13216.994995","title":"Memory to iPhone Assembly"}},{"type":"Feature","geometry":{"type":"LineString","coordinates":[[127.4348221,37.271995199998],[113.266531,23.132191]]},"properties":{"distance":"2074.732067","title":"Memory to iPhone Assembly"}},{"type":"Feature","geometry":{"type":"LineString","coordinates":[[127.4890319,36.642434100003],[113.266531,23.132191]]},"properties":{"title":"Memory to iPhone Assembly","distance":"2029.049300"}},{"type":"Feature","geometry":{"type":"LineString","coordinates":[[120.303027,31.566145000001],[113.266531,23.132191]]},"properties":{"distance":"1166.519841","title":"Memory to iPhone Assembly"}},{"type":"Feature","geometry":{"type":"LineString","coordinates":[[-71.152276499998,42.479261800001],[113.266531,23.132191]]},"properties":{"distance":"12705.330721","title":"Transmit Module to iPhone Assembly"}},{"type":"Feature","geometry":{"type":"LineString","coordinates":[[-122.989827,45.522893899997],[113.266531,23.132191]]},"properties":{"title":"Transmit Module to iPhone Assembly","distance":"10502.291904"}},{"type":"Feature","geometry":{"type":"LineString","coordinates":[[-96.729720500003,32.948178900002],[113.266531,23.132191]]},"properties":{"distance":"13014.645814","title":"Transmit Module to iPhone Assembly"}},{"type":"Feature","geometry":{"type":"LineString","coordinates":[[-81.513276000004,28.686749999997],[113.266531,23.132191]]},"properties":{"distance":"14039.521271","title":"Transmit Module to iPhone Assembly"}},{"type":"Feature","geometry":{"type":"LineString","coordinates":[[-84.082012000001,9.9271279999987],[113.266531,23.132191]]},"properties":{"title":"Transmit Module to iPhone Assembly","distance":"15882.521865"}},{"type":"Feature","geometry":{"type":"LineString","coordinates":[[-117.1572551,32.715329199999],[113.266531,23.132191]]},"properties":{"distance":"11819.690442","title":"Baseband Transceiver to iPhone Assembly"}},{"type":"Feature","geometry":{"type":"LineString","coordinates":[[-117.018204,32.533488999998],[113.266531,23.132191]]},"properties":{"distance":"11842.943917","title":"Baseband Transceiver to iPhone Assembly"}},{"type":"Feature","geometry":{"type":"LineString","coordinates":[[104.064856,30.658601000001],[113.266531,23.132191]]},"properties":{"distance":"1237.164383","title":"Touchscreen Controller to iPhone Assembly"}},{"type":"Feature","geometry":{"type":"LineString","coordinates":[[138.3231893,34.866920200001],[113.266531,23.132191]]},"properties":{"distance":"2752.856502","title":"Touchscreen Controller to iPhone Assembly"}},{"type":"Feature","geometry":{"type":"LineString","coordinates":[[-96.729720500003,32.948178900002],[113.266531,23.132191]]},"properties":{"distance":"13014.645814","title":"Touchscreen Controller to iPhone Assembly"}},{"type":"Feature","geometry":{"type":"LineString","coordinates":[[120.585316,31.298886],[113.266531,23.132191]]},"properties":{"distance":"1160.457185","title":"Power Management to iPhone Assembly"}},{"type":"Feature","geometry":{"type":"LineString","coordinates":[[123.8854366,10.315699200003],[113.266531,23.132191]]},"properties":{"distance":"1817.322435","title":"Power Management to iPhone Assembly"}},{"type":"Feature","geometry":{"type":"LineString","coordinates":[[126.7660309,37.5034138],[113.266531,23.132191]]},"properties":{"distance":"2052.509972","title":"Power Management to iPhone Assembly"}},{"type":"Feature","geometry":{"type":"LineString","coordinates":[[103.819836,1.3520830000039],[113.266531,23.132191]]},"properties":{"title":"Power Management to iPhone Assembly","distance":"2627.627771"}},{"type":"Feature","geometry":{"type":"LineString","coordinates":[[100.4846227,5.2632341000031],[113.266531,23.132191]]},"properties":{"distance":"2414.033962","title":"Power Management to iPhone Assembly"}},{"type":"Feature","geometry":{"type":"LineString","coordinates":[[-70.240881100001,43.641471599999],[113.266531,23.132191]]},"properties":{"title":"Power Management to iPhone Assembly","distance":"12581.554719"}},{"type":"Feature","geometry":{"type":"LineString","coordinates":[[-75.1312542,41.076024600001],[113.266531,23.132191]]},"properties":{"distance":"12822.968952","title":"Power Management to iPhone Assembly"}},{"type":"Feature","geometry":{"type":"LineString","coordinates":[[-111.9391031,40.609669800001],[113.266531,23.132191]]},"properties":{"distance":"11526.499822","title":"Power Management to iPhone Assembly"}},{"type":"Feature","geometry":{"type":"LineString","coordinates":[[5.8829829999956,45.284905999998],[113.266531,23.132191]]},"properties":{"title":"Accelerometer & Gyroscope to iPhone Assembly","distance":"9459.848384"}},{"type":"Feature","geometry":{"type":"LineString","coordinates":[[5.622018999999,43.480621000002],[113.266531,23.132191]]},"properties":{"distance":"9573.532380","title":"Accelerometer & Gyroscope to iPhone Assembly"}},{"type":"Feature","geometry":{"type":"LineString","coordinates":[[0.68484000000121,47.394144000002],[113.266531,23.132191]]},"properties":{"distance":"9688.212207","title":"Accelerometer & Gyroscope to iPhone Assembly"}},{"type":"Feature","geometry":{"type":"LineString","coordinates":[[8.5524039999968,45.677076700001],[113.266531,23.132191]]},"properties":{"distance":"9254.950410","title":"Accelerometer & Gyroscope to iPhone Assembly"}},{"type":"Feature","geometry":{"type":"LineString","coordinates":[[15.087834499998,37.502482499997],[113.266531,23.132191]]},"properties":{"distance":"9142.366989","title":"Accelerometer & Gyroscope to iPhone Assembly"}},{"type":"Feature","geometry":{"type":"LineString","coordinates":[[14.375415999996,35.937496000002],[113.266531,23.132191]]},"properties":{"distance":"9270.114642","title":"Accelerometer & Gyroscope to iPhone Assembly"}},{"type":"Feature","geometry":{"type":"LineString","coordinates":[[114.057868,22.543099000001],[113.266531,23.132191]]},"properties":{"distance":"104.245079","title":"Accelerometer & Gyroscope to iPhone Assembly"}},{"type":"Feature","geometry":{"type":"LineString","coordinates":[[114.247581,22.720242999996],[113.266531,23.132191]]},"properties":{"distance":"110.419578","title":"Accelerometer & Gyroscope to iPhone Assembly"}},{"type":"Feature","geometry":{"type":"LineString","coordinates":[[131.6648483,32.5823167],[113.266531,23.132191]]},"properties":{"distance":"2087.057103","title":"E-Compass to iPhone Assembly"}},{"type":"Feature","geometry":{"type":"LineString","coordinates":[[113.266531,23.132191],[-122.0321823,37.322997799998]]},"properties":{"title":"iPhone to Shipping Distribution Center","distance":"11148.525408"}},{"type":"Feature","geometry":{"type":"LineString","coordinates":[[-122.0321823,37.322997799998],[-93.362750000003,44.800636]]},"properties":{"title":"Shipping Distribution Center to Best Buy \u201cCrossdock\u201d","distance":"2527.755850","co2e":"0"}},{"type":"Feature","geometry":{"type":"LineString","coordinates":[[-93.362750000003,44.800636],[-93.292670600004,44.8623744]]},"properties":{"distance":"8.812949","title":"Best Buy \u201cCrossdock\u201d to Best Buy"}}],"properties":{"description":"","tags":"","title":"iPhone Commodity Chain"}}