{"supplychain":{"category":41,"created":1342064114,"enable_comments":true,"flags":0,"id":3532,"modified":1370904310,"other_perms":1,"passcode":null,"user_featured":false,"usergroup_id":null,"usergroup_perms":0,"user_id":2544,"owner":{"id":2544,"name":"grimm081","avatar":"http:\/\/free.sourcemap.com\/assets\/images\/default-user.png","banner_url":null,"display_name":null},"taxonomy":[{"description":"Category for Electronics","id":41,"left":37,"name":"electronics","right":38,"title":"Electronics & Computers"}],"attributes":{"description":"","tags":"","title":"iPhone Commodity Chain"},"stops":[{"local_stop_id":61,"id":61,"geometry":"POINT(12662788.556636 2634502.308392)","attributes":{"title":"iPhone Assembly","placename":"Dongguan, Guangdong, China","address":"Dongguan City, China","description":"Pegatron"}},{"local_stop_id":60,"id":60,"geometry":"POINT(12608772.554841 2648012.750165)","attributes":{"title":"iPhone Assembly","placename":"Guangdong, China","address":"Guangdong Province, China","description":"Hong Hai"}},{"local_stop_id":59,"id":59,"geometry":"POINT(-9444711.305692 4545900.699616)","attributes":{"title":"Touch Screen","placename":"Harrodsburg, KY 40330, USA","address":"Harrodsburg, Kentucky","description":"Corning Glass"}},{"local_stop_id":58,"id":58,"geometry":"POINT(15404698.33324 4160560.613201)","attributes":{"title":"Touch Screen","placename":"Shizuoka, Shizuoka Prefecture, Japan","address":"Shizuoka, Japan","description":"Corning Glass"}},{"local_stop_id":57,"id":57,"geometry":"POINT(13145654.102473 2811988.180877)","attributes":{"title":"Touch Screen","placename":"Xiamen, Fujian, China","address":"Xiamen, Fujian Province, China","description":"TPK Holdings"}},{"local_stop_id":56,"id":56,"geometry":"POINT(12053362.657202 1580908.758572)","attributes":{"title":"Touch Screen","placename":"Vietnam","address":"Vietnam","description":"Wintek"}},{"local_stop_id":55,"id":55,"geometry":"POINT(13145654.102473 2811988.180877)","attributes":{"title":"Touch Screen","placename":"Xiamen, Fujian, China","address":"Xiamen, Fujian Province, China","description":"Wintek"}},{"local_stop_id":54,"id":54,"geometry":"POINT(8790107.59317 2343495.165705)","attributes":{"title":"Touch Screen","placename":"India","address":"India","description":"Wintek"}},{"local_stop_id":53,"id":53,"geometry":"POINT(12053362.657202 1580908.758572)","attributes":{"title":"Touch Screen","placename":"Vietnam","address":"Vietnam","description":"Wintek"}},{"local_stop_id":52,"id":52,"geometry":"POINT(14457915.755858 3862205.266842)","attributes":{"title":"CMOS Sensor","placename":"Nagasaki, Nagasaki Prefecture, Japan","address":"Nagasaki, Japan","description":"Sony"}},{"local_stop_id":51,"id":51,"geometry":"POINT(13145654.102473 2811988.180877)","attributes":{"title":"CMOS Sensor","placename":"Xiamen, Fujian, China","address":"Xiamen, Fujian Province, China","description":"Omnivision"}},{"local_stop_id":50,"id":50,"geometry":"POINT(11584446.779395 3588490.90339)","attributes":{"title":"Camera Module","placename":"Chengdu, Sichuan, China","address":"Chendu, China","description":"Sharp"}},{"local_stop_id":49,"id":49,"geometry":"POINT(13416523.288717 4420815.267733)","attributes":{"title":"Camera Module","placename":"Yantai Rd, Laixi, Qingdao, Shandong, China","address":"Yentai, Shandong, China","description":"LG Innotek"}},{"local_stop_id":48,"id":48,"geometry":"POINT(13416523.288717 4420815.267733)","attributes":{"title":"Camera Lens","placename":"Yantai Rd, Laixi, Qingdao, Shandong, China","address":"Yentai, Shandong, China","description":"Largan Precision"}},{"local_stop_id":47,"id":47,"geometry":"POINT(13145654.102473 2811988.180877)","attributes":{"title":"Camera Lens","placename":"Xiamen, Fujian, China","address":"Xiamen, Fujian Province, China","description":"Genius Electrical Optical"}},{"local_stop_id":46,"id":46,"geometry":"POINT(-10880707.756832 3537936.30054)","attributes":{"title":"A5 Chip","placename":"Austin, TX, USA","address":"Austin, Texas","description":"Samsung"}},{"local_stop_id":45,"id":45,"geometry":"POINT(14222948.697264 4287936.289399)","attributes":{"title":"A5 Chip","placename":"South Korea","address":"South Korea","description":"Samsung"}},{"local_stop_id":44,"id":44,"geometry":"POINT(-13625454.054249 5714420.93532)","attributes":{"title":"A5 Chip","placename":"Camas, WA, USA","address":"Camas, Washington","description":"TSMC-Wafertech"}},{"local_stop_id":43,"id":43,"geometry":"POINT(11557171.277761 150527.162641)","attributes":{"title":"A5 Chip","placename":"Singapore","address":"Singapore","description":"TSMC-SSMC"}},{"local_stop_id":42,"id":42,"geometry":"POINT(13425262.057987 2777723.295891)","attributes":{"title":"A5 Chip","placename":"West Water Tower of Central Taiwan Science Park, Situn District, Taichung City, Taiwan 407","address":"Central Taiwan Science Park","description":"TSMC"}},{"local_stop_id":41,"id":41,"geometry":"POINT(11584446.779395 3588490.90339)","attributes":{"title":"Tantalum","placename":"Chengdu, Sichuan, China","address":"Chendu, China","description":"Refining Operations"}},{"local_stop_id":40,"id":40,"geometry":"POINT(2032244.171142 5304.040389)","attributes":{"title":"Coltan","placename":"Mbandaka, Democratic Republic of the Congo","address":"Mbandaka, Democratic Republic of the Congo","description":"Mining Operations"}},{"local_stop_id":39,"id":39,"geometry":"POINT(-10880707.756832 3537936.30054)","attributes":{"title":"Flash Memory","placename":"Austin, TX, USA","address":"Austin, Texas","description":"Samsung"}},{"local_stop_id":38,"id":38,"geometry":"POINT(15208968.066697 4159147.086331)","attributes":{"title":"Flash Memory","placename":"Yokkaichi, Mie Prefecture, Japan","address":"Yokkaichi, Japan","description":"Toshiba"}},{"local_stop_id":37,"id":37,"geometry":"POINT(14744855.736238 4080643.388357)","attributes":{"title":"Memory","placename":"Hiroshima, Hiroshima Prefecture, Japan","address":"Hiroshima, Japan","description":"Elpida Memory"}},{"local_stop_id":36,"id":36,"geometry":"POINT(-10880707.756832 3537936.30054)","attributes":{"title":"Memory","placename":"Austin, TX, USA","address":"Austin, Texas","description":"Samsung"}},{"local_stop_id":35,"id":35,"geometry":"POINT(14185979.505503 4477087.527689)","attributes":{"title":"Memory","placename":"Icheon-si, Gyeonggi-do, South Korea","address":"Icheon, South Korea","description":"Hynix"}},{"local_stop_id":34,"id":34,"geometry":"POINT(14192014.112835 4389383.215882)","attributes":{"title":"Memory","placename":"Cheongju-si, Chungcheongbuk-do, South Korea","address":"Cheonju, South Korea","description":"Hynix"}},{"local_stop_id":33,"id":33,"geometry":"POINT(13392071.706529 3706494.185787)","attributes":{"title":"Memory","placename":"Wuxi, Jiangsu, China","address":"Wuxi, China","description":"Hynix"}},{"local_stop_id":32,"id":32,"geometry":"POINT(-7920635.188762 5233043.098835)","attributes":{"title":"Transmit Module","placename":"Woburn, MA, USA","address":"Woburn, Massachusetts","description":"Skyworks"}},{"local_stop_id":31,"id":31,"geometry":"POINT(-13691164.914393 5704219.516447)","attributes":{"title":"Transmit Module","placename":"Hillsboro, OR, USA","address":"Hillsboro, Oregon","description":"TriQuint"}},{"local_stop_id":30,"id":30,"geometry":"POINT(-10767903.230636 3888427.5974)","attributes":{"title":"Transmit Module","placename":"Richardson, TX, USA","address":"Richardson, Texas","description":"TriQuint"}},{"local_stop_id":29,"id":29,"geometry":"POINT(-9074016.377212 3335836.422797)","attributes":{"title":"Transmit Module","placename":"Apopka, FL, USA","address":"Apopka, Florida","description":"TriQuint"}},{"local_stop_id":28,"id":28,"geometry":"POINT(-9359966.760714 1110653.6804)","attributes":{"title":"Transmit Module","placename":"San Jose, Costa Rica","address":"San Jose, Costa Rica","description":"TriQuint"}},{"local_stop_id":27,"id":27,"geometry":"POINT(-13041885.98047 3857579.348242)","attributes":{"title":"Baseband Transceiver","placename":"San Diego, CA, USA","address":"San Diego, California","description":"Qualcomm"}},{"local_stop_id":26,"id":26,"geometry":"POINT(-13026406.882823 3833544.883639)","attributes":{"title":"Baseband Transceiver","placename":"Tijuana, Baja California, Mexico","address":"Tijuana, Mexico","description":"Qualcomm"}},{"local_stop_id":25,"id":25,"geometry":"POINT(11584446.779395 3588490.90339)","attributes":{"title":"Touchscreen Controller","placename":"Chengdu, Sichuan, China","address":"Chengdu, China","description":"Texas Instruments"}},{"local_stop_id":24,"id":24,"geometry":"POINT(15398066.997778 4145810.805023)","attributes":{"title":"Touchscreen Controller","placename":"Yaizu, Shizuoka Prefecture, Japan","address":"Aizu, Japan","description":"Texas Instruments"}},{"local_stop_id":23,"id":23,"geometry":"POINT(-10767903.230636 3888427.5974)","attributes":{"title":"Touchscreen Controller","placename":"Richardson, TX, USA","address":"Richardson, Texas","description":"Texas Instruments"}},{"local_stop_id":22,"id":22,"geometry":"POINT(13423495.974266 3671626.31696)","attributes":{"title":"Power Management","placename":"Suzhou, Jiangsu, China","address":"Suzhou, China","description":"Fairchild Semiconductor"}},{"local_stop_id":21,"id":21,"geometry":"POINT(13790863.719014 1154593.121169)","attributes":{"title":"Power Management","placename":"Cebu City, Philippines","address":"Cebu, The Philippines","description":"Fairchild Semiconductor"}},{"local_stop_id":20,"id":20,"geometry":"POINT(14111530.009672 4509510.411877)","attributes":{"title":"Power Management","placename":"Bucheon-si, Gyeonggi-do, South Korea","address":"Bucheon City, South Korea","description":"Fairchild Semiconductor"}},{"local_stop_id":19,"id":19,"geometry":"POINT(11557171.277761 150527.162641)","attributes":{"title":"Power Management","placename":"Singapore","address":"Singapore","description":"Fairchild Semiconductor"}},{"local_stop_id":18,"id":18,"geometry":"POINT(11185897.031518 586726.293065)","attributes":{"title":"Power Management","placename":"Penang, Malaysia","address":"Penang, Malaysia","description":"Fairchild Semiconductor"}},{"local_stop_id":17,"id":17,"geometry":"POINT(-7819179.116923 5410125.692634)","attributes":{"title":"Power Management","placename":"South Portland, ME, USA","address":"South Portland, ME","description":"Fairchild Semiconductor"}},{"local_stop_id":16,"id":16,"geometry":"POINT(-8363572.960204 5023561.750372)","attributes":{"title":"Power Management","placename":"Mountaintop Dr, Middle Smithfield, PA, USA","address":"Mountaintop, Pennsylvania","description":"Fairchild Semiconductor"}},{"local_stop_id":15,"id":15,"geometry":"POINT(-12461003.956948 4954937.413423)","attributes":{"title":"Power Management","placename":"West Jordan, UT, USA","address":"West Jordan, Utah","description":"Fairchild Semiconductor"}},{"local_stop_id":14,"id":14,"geometry":"POINT(654890.671905 5666486.177855)","attributes":{"title":"Accelerometer & Gyroscope","placename":"Crolles, France","address":"Crolles, France","description":"ST Microelectronics"}},{"local_stop_id":13,"id":13,"geometry":"POINT(625840.29231 5385415.754027)","attributes":{"title":"Accelerometer & Gyroscope","placename":"Rousset, France","address":"Rousset, France","description":"ST Microelectronics"}},{"local_stop_id":12,"id":12,"geometry":"POINT(76236.040075 6006647.386089)","attributes":{"title":"Accelerometer & Gyroscope","placename":"Tours, France","address":"Tours, France","description":"ST Microelectronics"}},{"local_stop_id":11,"id":11,"geometry":"POINT(952049.258338 5728750.68919)","attributes":{"title":"Accelerometer & Gyroscope","placename":"Agrate, 28010 Agrate Conturbia Province of Novara, Italy","address":"Agrate, Italy","description":"ST Microelectronics"}},{"local_stop_id":10,"id":10,"geometry":"POINT(1679570.053713 4509379.73122)","attributes":{"title":"Accelerometer & Gyroscope","placename":"Catania Province of Catania, Italy","address":"Catania, Italy","description":"ST Microelectronics"}},{"local_stop_id":9,"id":9,"geometry":"POINT(1600263.989061 4292024.32283)","attributes":{"title":"Accelerometer & Gyroscope","placename":"Malta","address":"Malta","description":"ST Microelectronics"}},{"local_stop_id":8,"id":8,"geometry":"POINT(12696863.786726 2576856.913489)","attributes":{"title":"Accelerometer & Gyroscope","placename":"Shenzhen, Guangdong, China","address":"Shenzhen, China","description":"ST Microelectronics"}},{"local_stop_id":7,"id":7,"geometry":"POINT(12717982.541283 2598221.637899)","attributes":{"title":"Accelerometer & Gyroscope","placename":"Longgang, Shenzhen, Guangdong, China","address":"Longgang, China","description":"ST Microelectronics"}},{"local_stop_id":6,"id":6,"geometry":"POINT(14656863.86813 3839993.822063)","attributes":{"title":"E-Compass","placename":"Nobeoka, Miyazaki Prefecture, Japan","address":"Nobeoka, Japan","description":"AKM Semiconductor"}},{"local_stop_id":5,"id":5,"geometry":"POINT(12662788.556636 2634502.308392)","attributes":{"title":"iPhone","placename":"Dongguan, Guangdong, China","address":"Dongguan City, China","description":"Pegatron"}},{"local_stop_id":4,"id":4,"geometry":"POINT(12608772.554841 2648012.750165)","attributes":{"title":"iPhone","placename":"Guangdong, China","address":"Guangdong Province, China","description":"Hong Hai"}},{"local_stop_id":3,"id":3,"geometry":"POINT(-13584560.394028 4484224.65423)","attributes":{"title":"Shipping Distribution Center","placename":"Cupertino, CA, USA","address":"Cupertino, California","description":"Apple HQ"}},{"local_stop_id":2,"id":2,"geometry":"POINT(-10393093.78906 5590190.11958)","attributes":{"title":"Best Buy \u201cCrossdock\u201d","placename":"6201 W 111th St, Bloomington, MN 55437, USA","address":"6201 W. 111th St., Bloomington, MN","description":"Best Buy Distribution"}},{"local_stop_id":1,"id":1,"geometry":"POINT(-10385292.585937 5599881.111283)","attributes":{"youtube:link":"","water":"0","energy":"0","co2e":"0","weight":"0","title":"Best Buy Richfield","placename":"1000 W 78th St, Richfield, MN 55423, USA","address":"1000 West 78th St. Richfield, MN 55423","description":"Best Buy Richfield"}}],"hops":[{"from_stop_id":59,"to_stop_id":60,"geometry":"MULTILINESTRING((-9444711.305692 4545900.699616,12608772.554841 2648012.750165))","attributes":{"distance":"12984.200399","title":"Touch Screen to iPhone Assembly"}},{"from_stop_id":58,"to_stop_id":60,"geometry":"MULTILINESTRING((15404698.33324 4160560.613201,12608772.554841 2648012.750165))","attributes":{"distance":"2762.359122","title":"Touch Screen to iPhone Assembly"}},{"from_stop_id":57,"to_stop_id":60,"geometry":"MULTILINESTRING((13145654.102473 2811988.180877,12608772.554841 2648012.750165))","attributes":{"title":"Touch Screen to iPhone Assembly","distance":"512.985968"}},{"from_stop_id":56,"to_stop_id":60,"geometry":"MULTILINESTRING((12053362.657202 1580908.758572,12608772.554841 2648012.750165))","attributes":{"distance":"1137.416468","title":"Touch Screen to iPhone Assembly"}},{"from_stop_id":55,"to_stop_id":60,"geometry":"MULTILINESTRING((13145654.102473 2811988.180877,12608772.554841 2648012.750165))","attributes":{"distance":"512.985968","title":"Touch Screen to iPhone Assembly"}},{"from_stop_id":54,"to_stop_id":60,"geometry":"MULTILINESTRING((8790107.59317 2343495.165705,12608772.554841 2648012.750165))","attributes":{"distance":"3543.317657","title":"Touch Screen to iPhone Assembly"}},{"from_stop_id":53,"to_stop_id":60,"geometry":"MULTILINESTRING((12053362.657202 1580908.758572,12608772.554841 2648012.750165))","attributes":{"distance":"1137.416468","title":"Touch Screen to iPhone Assembly"}},{"from_stop_id":52,"to_stop_id":60,"geometry":"MULTILINESTRING((14457915.755858 3862205.266842,12608772.554841 2648012.750165))","attributes":{"distance":"1946.984060","title":"CMOS Sensor to iPhone Assembly"}},{"from_stop_id":51,"to_stop_id":60,"geometry":"MULTILINESTRING((13145654.102473 2811988.180877,12608772.554841 2648012.750165))","attributes":{"distance":"512.985968","title":"CMOS Sensor to iPhone Assembly"}},{"from_stop_id":50,"to_stop_id":60,"geometry":"MULTILINESTRING((11584446.779395 3588490.90339,12608772.554841 2648012.750165))","attributes":{"distance":"1237.164383","title":"Camera Module to iPhone Assembly"}},{"from_stop_id":49,"to_stop_id":60,"geometry":"MULTILINESTRING((13416523.288717 4420815.267733,12608772.554841 2648012.750165))","attributes":{"distance":"1678.219438","title":"Camera Module to iPhone Assembly"}},{"from_stop_id":48,"to_stop_id":60,"geometry":"MULTILINESTRING((13416523.288717 4420815.267733,12608772.554841 2648012.750165))","attributes":{"title":"Camera Lens to iPhone Assembly","distance":"1678.219438"}},{"from_stop_id":47,"to_stop_id":60,"geometry":"MULTILINESTRING((13145654.102473 2811988.180877,12608772.554841 2648012.750165))","attributes":{"distance":"512.985968","title":"Camera Lens to iPhone Assembly"}},{"from_stop_id":46,"to_stop_id":60,"geometry":"MULTILINESTRING((-10880707.756832 3537936.30054,12608772.554841 2648012.750165))","attributes":{"title":"A5 Chip to iPhone Assembly","distance":"13216.994995"}},{"from_stop_id":45,"to_stop_id":60,"geometry":"MULTILINESTRING((14222948.697264 4287936.289399,12608772.554841 2648012.750165))","attributes":{"title":"A5 Chip to iPhone Assembly","distance":"1991.982725"}},{"from_stop_id":44,"to_stop_id":60,"geometry":"MULTILINESTRING((-13625454.054249 5714420.93532,12608772.554841 2648012.750165))","attributes":{"distance":"10532.828434","title":"A5 Chip to iPhone Assembly"}},{"from_stop_id":43,"to_stop_id":60,"geometry":"MULTILINESTRING((11557171.277761 150527.162641,12608772.554841 2648012.750165))","attributes":{"title":"A5 Chip to iPhone Assembly","distance":"2627.627771"}},{"from_stop_id":42,"to_stop_id":60,"geometry":"MULTILINESTRING((13425262.057987 2777723.295891,12608772.554841 2648012.750165))","attributes":{"distance":"756.256841","title":"A5 Chip to iPhone Assembly"}},{"from_stop_id":41,"to_stop_id":42,"geometry":"MULTILINESTRING((11584446.779395 3588490.90339,13425262.057987 2777723.295891))","attributes":{"distance":"1780.554861","title":"Tantalum to A5 Chip"}},{"from_stop_id":40,"to_stop_id":41,"geometry":"MULTILINESTRING((2032244.171142 5304.040389,11584446.779395 3588490.90339))","attributes":{"distance":"9604.041294","title":"Coltan to Tantalum"}},{"from_stop_id":39,"to_stop_id":60,"geometry":"MULTILINESTRING((-10880707.756832 3537936.30054,12608772.554841 2648012.750165))","attributes":{"distance":"13216.994995","title":"Flash Memory to iPhone Assembly"}},{"from_stop_id":38,"to_stop_id":60,"geometry":"MULTILINESTRING((15208968.066697 4159147.086331,12608772.554841 2648012.750165))","attributes":{"distance":"2614.235517","title":"Flash Memory to iPhone Assembly"}},{"from_stop_id":37,"to_stop_id":60,"geometry":"MULTILINESTRING((14744855.736238 4080643.388357,12608772.554841 2648012.750165))","attributes":{"distance":"2243.965750","title":"Memory to iPhone Assembly"}},{"from_stop_id":36,"to_stop_id":60,"geometry":"MULTILINESTRING((-10880707.756832 3537936.30054,12608772.554841 2648012.750165))","attributes":{"distance":"13216.994995","title":"Memory to iPhone Assembly"}},{"from_stop_id":35,"to_stop_id":60,"geometry":"MULTILINESTRING((14185979.505503 4477087.527689,12608772.554841 2648012.750165))","attributes":{"distance":"2074.732067","title":"Memory to iPhone Assembly"}},{"from_stop_id":34,"to_stop_id":60,"geometry":"MULTILINESTRING((14192014.112835 4389383.215882,12608772.554841 2648012.750165))","attributes":{"title":"Memory to iPhone Assembly","distance":"2029.049300"}},{"from_stop_id":33,"to_stop_id":60,"geometry":"MULTILINESTRING((13392071.706529 3706494.185787,12608772.554841 2648012.750165))","attributes":{"distance":"1166.519841","title":"Memory to iPhone Assembly"}},{"from_stop_id":32,"to_stop_id":60,"geometry":"MULTILINESTRING((-7920635.188762 5233043.098835,12608772.554841 2648012.750165))","attributes":{"distance":"12705.330721","title":"Transmit Module to iPhone Assembly"}},{"from_stop_id":31,"to_stop_id":60,"geometry":"MULTILINESTRING((-13691164.914393 5704219.516447,12608772.554841 2648012.750165))","attributes":{"title":"Transmit Module to iPhone Assembly","distance":"10502.291904"}},{"from_stop_id":30,"to_stop_id":60,"geometry":"MULTILINESTRING((-10767903.230636 3888427.5974,12608772.554841 2648012.750165))","attributes":{"distance":"13014.645814","title":"Transmit Module to iPhone Assembly"}},{"from_stop_id":29,"to_stop_id":60,"geometry":"MULTILINESTRING((-9074016.377212 3335836.422797,12608772.554841 2648012.750165))","attributes":{"distance":"14039.521271","title":"Transmit Module to iPhone Assembly"}},{"from_stop_id":28,"to_stop_id":60,"geometry":"MULTILINESTRING((-9359966.760714 1110653.6804,12608772.554841 2648012.750165))","attributes":{"title":"Transmit Module to iPhone Assembly","distance":"15882.521865"}},{"from_stop_id":27,"to_stop_id":60,"geometry":"MULTILINESTRING((-13041885.98047 3857579.348242,12608772.554841 2648012.750165))","attributes":{"distance":"11819.690442","title":"Baseband Transceiver to iPhone Assembly"}},{"from_stop_id":26,"to_stop_id":60,"geometry":"MULTILINESTRING((-13026406.882823 3833544.883639,12608772.554841 2648012.750165))","attributes":{"distance":"11842.943917","title":"Baseband Transceiver to iPhone Assembly"}},{"from_stop_id":25,"to_stop_id":60,"geometry":"MULTILINESTRING((11584446.779395 3588490.90339,12608772.554841 2648012.750165))","attributes":{"distance":"1237.164383","title":"Touchscreen Controller to iPhone Assembly"}},{"from_stop_id":24,"to_stop_id":60,"geometry":"MULTILINESTRING((15398066.997778 4145810.805023,12608772.554841 2648012.750165))","attributes":{"distance":"2752.856502","title":"Touchscreen Controller to iPhone Assembly"}},{"from_stop_id":23,"to_stop_id":60,"geometry":"MULTILINESTRING((-10767903.230636 3888427.5974,12608772.554841 2648012.750165))","attributes":{"distance":"13014.645814","title":"Touchscreen Controller to iPhone Assembly"}},{"from_stop_id":22,"to_stop_id":60,"geometry":"MULTILINESTRING((13423495.974266 3671626.31696,12608772.554841 2648012.750165))","attributes":{"distance":"1160.457185","title":"Power Management to iPhone Assembly"}},{"from_stop_id":21,"to_stop_id":60,"geometry":"MULTILINESTRING((13790863.719014 1154593.121169,12608772.554841 2648012.750165))","attributes":{"distance":"1817.322435","title":"Power Management to iPhone Assembly"}},{"from_stop_id":20,"to_stop_id":60,"geometry":"MULTILINESTRING((14111530.009672 4509510.411877,12608772.554841 2648012.750165))","attributes":{"distance":"2052.509972","title":"Power Management to iPhone Assembly"}},{"from_stop_id":19,"to_stop_id":60,"geometry":"MULTILINESTRING((11557171.277761 150527.162641,12608772.554841 2648012.750165))","attributes":{"title":"Power Management to iPhone Assembly","distance":"2627.627771"}},{"from_stop_id":18,"to_stop_id":60,"geometry":"MULTILINESTRING((11185897.031518 586726.293065,12608772.554841 2648012.750165))","attributes":{"distance":"2414.033962","title":"Power Management to iPhone Assembly"}},{"from_stop_id":17,"to_stop_id":60,"geometry":"MULTILINESTRING((-7819179.116923 5410125.692634,12608772.554841 2648012.750165))","attributes":{"title":"Power Management to iPhone Assembly","distance":"12581.554719"}},{"from_stop_id":16,"to_stop_id":60,"geometry":"MULTILINESTRING((-8363572.960204 5023561.750372,12608772.554841 2648012.750165))","attributes":{"distance":"12822.968952","title":"Power Management to iPhone Assembly"}},{"from_stop_id":15,"to_stop_id":60,"geometry":"MULTILINESTRING((-12461003.956948 4954937.413423,12608772.554841 2648012.750165))","attributes":{"distance":"11526.499822","title":"Power Management to iPhone Assembly"}},{"from_stop_id":14,"to_stop_id":60,"geometry":"MULTILINESTRING((654890.671905 5666486.177855,12608772.554841 2648012.750165))","attributes":{"title":"Accelerometer & Gyroscope to iPhone Assembly","distance":"9459.848384"}},{"from_stop_id":13,"to_stop_id":60,"geometry":"MULTILINESTRING((625840.29231 5385415.754027,12608772.554841 2648012.750165))","attributes":{"distance":"9573.532380","title":"Accelerometer & Gyroscope to iPhone Assembly"}},{"from_stop_id":12,"to_stop_id":60,"geometry":"MULTILINESTRING((76236.040075 6006647.386089,12608772.554841 2648012.750165))","attributes":{"distance":"9688.212207","title":"Accelerometer & Gyroscope to iPhone Assembly"}},{"from_stop_id":11,"to_stop_id":60,"geometry":"MULTILINESTRING((952049.258338 5728750.68919,12608772.554841 2648012.750165))","attributes":{"distance":"9254.950410","title":"Accelerometer & Gyroscope to iPhone Assembly"}},{"from_stop_id":10,"to_stop_id":60,"geometry":"MULTILINESTRING((1679570.053713 4509379.73122,12608772.554841 2648012.750165))","attributes":{"distance":"9142.366989","title":"Accelerometer & Gyroscope to iPhone Assembly"}},{"from_stop_id":9,"to_stop_id":60,"geometry":"MULTILINESTRING((1600263.989061 4292024.32283,12608772.554841 2648012.750165))","attributes":{"distance":"9270.114642","title":"Accelerometer & Gyroscope to iPhone Assembly"}},{"from_stop_id":8,"to_stop_id":60,"geometry":"MULTILINESTRING((12696863.786726 2576856.913489,12608772.554841 2648012.750165))","attributes":{"distance":"104.245079","title":"Accelerometer & Gyroscope to iPhone Assembly"}},{"from_stop_id":7,"to_stop_id":60,"geometry":"MULTILINESTRING((12717982.541283 2598221.637899,12608772.554841 2648012.750165))","attributes":{"distance":"110.419578","title":"Accelerometer & Gyroscope to iPhone Assembly"}},{"from_stop_id":6,"to_stop_id":60,"geometry":"MULTILINESTRING((14656863.86813 3839993.822063,12608772.554841 2648012.750165))","attributes":{"distance":"2087.057103","title":"E-Compass to iPhone Assembly"}},{"from_stop_id":4,"to_stop_id":3,"geometry":"MULTILINESTRING((12608772.554841 2648012.750165,-13584560.394028 4484224.65423))","attributes":{"title":"iPhone to Shipping Distribution Center","distance":"11148.525408"}},{"from_stop_id":3,"to_stop_id":2,"geometry":"MULTILINESTRING((-13584560.394028 4484224.65423,-10393093.78906 5590190.11958))","attributes":{"title":"Shipping Distribution Center to Best Buy \u201cCrossdock\u201d","distance":"2527.755850","co2e":"0"}},{"from_stop_id":2,"to_stop_id":1,"geometry":"MULTILINESTRING((-10393093.78906 5590190.11958,-10385292.585937 5599881.111283))","attributes":{"distance":"8.812949","title":"Best Buy \u201cCrossdock\u201d to Best Buy"}}]},"editable":false}