{"type":"FeatureCollection","features":[{"type":"Feature","geometry":{"type":"Point","coordinates":[-77.036516999997,38.897677700002]},"properties":{"address":"38\u00b053\u203251.61\u2033N 77\u00b02\u203211.58\u2033W","placename":"1600 Pennsylvania Ave NW, Washington, DC 20502, USA","title":"Whitehouse"}},{"type":"Feature","geometry":{"type":"Point","coordinates":[-109.7080556,23.061388900001]},"properties":{"description":"2012 G-20 Mexico summit.","address":"San Jos\u00e9 del Cabo","placename":"San Jos\u00e9 del Cabo, Baja California Sur, Mexico","title":"San Jos\u00e9 del Cabo June 2012"}},{"type":"Feature","geometry":{"type":"Point","coordinates":[-77.036516999997,38.897677700002]},"properties":{"address":"38\u00b053\u203251.61\u2033N 77\u00b02\u203211.58\u2033W","placename":"1600 Pennsylvania Ave NW, Washington, DC 20502, USA","title":"Whitehouse"}},{"type":"Feature","geometry":{"type":"Point","coordinates":[69.171702900004,34.528454999999]},"properties":{"description":"Signing of\u00a0strategic partnership agreement between Afghanistan and United States, spending time with U.S. troops at\u00a0Bagram airfield\u00a0and addressing the nation from there regarding the responsible end of theAfghanistan war.","address":"Kabul","placename":"Kabul, Afghanistan","title":"Kabul May 2012"}},{"type":"Feature","geometry":{"type":"Point","coordinates":[-77.036516999997,38.897677700002]},"properties":{"address":"38\u00b053\u203251.61\u2033N 77\u00b02\u203211.58\u2033W","placename":"1600 Pennsylvania Ave NW, Washington, DC 20502, USA","title":"Whitehouse"}},{"type":"Feature","geometry":{"type":"Point","coordinates":[-74.075833299996,4.5980556000042]},"properties":{"description":"6th Summit of the Americas","address":"Bogota","placename":"Bogot\u00e1, Bogota, Colombia","title":"Bogota April 2012"}},{"type":"Feature","geometry":{"type":"Point","coordinates":[-77.036516999997,38.897677700002]},"properties":{"address":"38\u00b053\u203251.61\u2033N 77\u00b02\u203211.58\u2033W","placename":"1600 Pennsylvania Ave NW, Washington, DC 20502, USA","title":"Whitehouse"}},{"type":"Feature","geometry":{"type":"Point","coordinates":[126.9779692,37.566535]},"properties":{"description":"2012 Nuclear Security Summit\u00a0follow up to\u00a02010 Nuclear Security Summit\u00a0held in April 2010, Washington DC. Met with Hu Jintao and addressesed US military personnel.","address":"Seoul","placename":"Seoul, South Korea","title":"Seoul March 2012"}},{"type":"Feature","geometry":{"type":"Point","coordinates":[-77.036516999997,38.897677700002]},"properties":{"address":"38\u00b053\u203251.61\u2033N 77\u00b02\u203211.58\u2033W","placename":"1600 Pennsylvania Ave NW, Washington, DC 20502, USA","title":"Whitehouse"}},{"type":"Feature","geometry":{"type":"Point","coordinates":[149.1286843,-35.2819998]},"properties":{"description":"Met with Prime Minister\u00a0Julia Gillard","address":"Canberra","placename":"Canberra ACT 2601, Australia","title":"Canberra November 2011"}},{"type":"Feature","geometry":{"type":"Point","coordinates":[115.188916,-8.4095177999965]},"properties":{"description":"ASEAN\u00a0Summit and the\u00a0sixth East Asia Summit\u00a0on Bali.","address":"\u00a0Bali","placename":"Bali, Indonesia","title":"\u00a0Bali November 2011"}},{"type":"Feature","geometry":{"type":"Point","coordinates":[-77.036516999997,38.897677700002]},"properties":{"address":"38\u00b053\u203251.61\u2033N 77\u00b02\u203211.58\u2033W","placename":"1600 Pennsylvania Ave NW, Washington, DC 20502, USA","title":"Whitehouse"}},{"type":"Feature","geometry":{"type":"Point","coordinates":[7.0173690000045,43.552846999999]},"properties":{"description":"G-20 Cannes summit","address":"Cannes","placename":"Cannes, France","title":"Cannes November 2011"}},{"type":"Feature","geometry":{"type":"Point","coordinates":[-77.036516999997,38.897677700002]},"properties":{"address":"38\u00b053\u203251.61\u2033N 77\u00b02\u203211.58\u2033W","placename":"1600 Pennsylvania Ave NW, Washington, DC 20502, USA","title":"Whitehouse"}},{"type":"Feature","geometry":{"type":"Point","coordinates":[-43.209586900003,-22.903539300004]},"properties":{"description":"Met with President\u00a0Dilma Rousseff. Visited the\u00a0Cidade de Deus favela\u00a0and the\u00a0Christ the Redeemer statue.","address":"Rio de Janeiro","placename":"Rio de Janeiro, Brazil","title":"Rio de Janeiro March 2011"}},{"type":"Feature","geometry":{"type":"Point","coordinates":[-70.641997,-33.469119899999]},"properties":{"description":"Met with President\u00a0Sebasti\u00e1n Pi\u00f1era.","address":"Santiago","placename":"Santiago, Santiago Metropolitan Region, Chile","title":"Santiago March 2011"}},{"type":"Feature","geometry":{"type":"Point","coordinates":[-89.160999999999,13.730999999996]},"properties":{"description":"Met with President\u00a0Mauricio Funes. Visited the\u00a0San Salvador Cathedral.","address":"San Salvador","placename":"San Salvador, El Salvador","title":"San Salvador March 2011"}},{"type":"Feature","geometry":{"type":"Point","coordinates":[-6.2600825000011,53.349442599999]},"properties":{"description":"Had meetings with\u00a0President Mary McAleese\u00a0and\u00a0Taoiseach\u00a0Enda Kenny. Visited ancestral home in\u00a0Moneygall, and addressed a large crowd in\u00a0Dublin. Accompanied by the\u00a0First Lady.","address":"Dublin","placename":"Dublin, Co. Dublin, Ireland","title":"Dublin May 2011"}},{"type":"Feature","geometry":{"type":"Point","coordinates":[-0.12768310000084,51.507334599999]},"properties":{"description":"State visit,\u00a0accompanied by the First Lady. She returned to the US from the UK when the President traveled on to France.[12]","address":"London","placename":"London, UK","title":"London May 2011"}},{"type":"Feature","geometry":{"type":"Point","coordinates":[0.075121999996656,49.353975999999]},"properties":{"description":"37th G8 summit","address":"Deauville","placename":"Deauville, France","title":"Deauville May 2011"}},{"type":"Feature","geometry":{"type":"Point","coordinates":[21.012228700002,52.229675599998]},"properties":{"description":"Had meetings with\u00a0President Bronis\u0142aw Komorowski\u00a0and\u00a0Prime Minister Donald Tusk. Laid wreath at the\u00a0Warsaw Ghetto Memorial\u00a0and visited the memorial to the victims of the\u00a0Smolensk plane crash.","address":"Warsaw","placename":"Warsaw, Poland","title":"Warsaw May 2011"}},{"type":"Feature","geometry":{"type":"Point","coordinates":[-77.036516999997,38.897677700002]},"properties":{"address":"38\u00b053\u203251.61\u2033N 77\u00b02\u203211.58\u2033W","placename":"1600 Pennsylvania Ave NW, Washington, DC 20502, USA","title":"Whitehouse"}},{"type":"Feature","geometry":{"type":"Point","coordinates":[69.260653000003,34.936988200001]},"properties":{"description":"Visited with U.S. troops at\u00a0Bagram Air Base. Originally planned meeting with President\u00a0Hamid Karzai\u00a0in Kabul was canceled due to bad weather.[9]","address":"Bagram","placename":"Bagram Airfield, Bagram, Afghanistan","title":"Bagram November 2010"}},{"type":"Feature","geometry":{"type":"Point","coordinates":[-77.036516999997,38.897677700002]},"properties":{"address":"38\u00b053\u203251.61\u2033N 77\u00b02\u203211.58\u2033W","placename":"1600 Pennsylvania Ave NW, Washington, DC 20502, USA","title":"Whitehouse"}},{"type":"Feature","geometry":{"type":"Point","coordinates":[-9.1397700000033,38.723827299998]},"properties":{"description":"Attended the\u00a022nd NATO summit\u00a0and the U.S.-EU summit. Met with President\u00a0An\u00edbal Cavaco Silva\u00a0and Prime Minister\u00a0Jos\u00e9 S\u00f3crates.","address":"Lisbon","placename":"Lisbon, Portugal","title":"Lisbon November 2010"}},{"type":"Feature","geometry":{"type":"Point","coordinates":[-77.036516999997,38.897677700002]},"properties":{"address":"38\u00b053\u203251.61\u2033N 77\u00b02\u203211.58\u2033W","placename":"1600 Pennsylvania Ave NW, Washington, DC 20502, USA","title":"Whitehouse"}},{"type":"Feature","geometry":{"type":"Point","coordinates":[72.877655899996,19.075983700002]},"properties":{"description":"Participated in the US-India Business Council and Entrepreneurship Summit in Mumbai. Held a town hall meeting with Mumbai students. Met with President\u00a0Pratibha Patil\u00a0and Prime Minister\u00a0Manmohan Singh. Delivered a speech to the\u00a0Indian Parliament. Visited\u00a0Humayun's Tomb\u00a0and\u00a0Raj Ghat.","address":"Mumbai","placename":"Mumbai, Maharashtra, India","title":"Mumbai November 2010"}},{"type":"Feature","geometry":{"type":"Point","coordinates":[106.845172,-6.2115440000036]},"properties":{"description":"Met with President\u00a0Susilo Bambang Yudhoyono. Delivered a speech at the\u00a0University of Indonesia. Visited\u00a0Istiqlal Mosque.","address":"Jakarta","placename":"Jakarta Capital Region, Indonesia","title":"Jakarta November 2010"}},{"type":"Feature","geometry":{"type":"Point","coordinates":[126.9779692,37.566535]},"properties":{"description":"Attended the\u00a0G-20 Seoul summit. Met with President\u00a0Lee Myung-bak. Visited with U.S. troops at\u00a0Yongsan Garrison.","address":"Seoul","placename":"Seoul, South Korea","title":"Seoul November 2010"}},{"type":"Feature","geometry":{"type":"Point","coordinates":[139.6380256,35.443707800001]},"properties":{"description":"Attended the\u00a0APEC 2010 meeting. Met with Prime Minister\u00a0Naoto Kan. Visited the\u00a0Kamakura Great Buddha statue.","address":"Yokohama","placename":"Yokohama, Kanagawa Prefecture, Japan","title":"Yokohama November 2010"}},{"type":"Feature","geometry":{"type":"Point","coordinates":[-77.036516999997,38.897677700002]},"properties":{"address":"38\u00b053\u203251.61\u2033N 77\u00b02\u203211.58\u2033W","placename":"1600 Pennsylvania Ave NW, Washington, DC 20502, USA","title":"Whitehouse"}},{"type":"Feature","geometry":{"type":"Point","coordinates":[-79.383184300004,43.653226000002]},"properties":{"description":"Attended the\u00a036th G8 summit\u00a0and the\u00a0G-20 Toronto summit","address":"Toronto","placename":"Toronto, ON, Canada","title":"Toronto June 2010"}},{"type":"Feature","geometry":{"type":"Point","coordinates":[-77.036516999997,38.897677700002]},"properties":{"address":"38\u00b053\u203251.61\u2033N 77\u00b02\u203211.58\u2033W","placename":"1600 Pennsylvania Ave NW, Washington, DC 20502, USA","title":"Whitehouse"}},{"type":"Feature","geometry":{"type":"Point","coordinates":[14.437800500001,50.075538100001]},"properties":{"description":"Signed the\u00a0New START\u00a0treaty with Russian President\u00a0Dmitry Medvedev.","address":"Prague","placename":"Prague, Czech Republic","title":"Prague April 2010"}},{"type":"Feature","geometry":{"type":"Point","coordinates":[-77.036516999997,38.897677700002]},"properties":{"address":"38\u00b053\u203251.61\u2033N 77\u00b02\u203211.58\u2033W","placename":"1600 Pennsylvania Ave NW, Washington, DC 20502, USA","title":"Whitehouse"}},{"type":"Feature","geometry":{"type":"Point","coordinates":[69.171702900004,34.528454999999]},"properties":{"description":"Met with President\u00a0Hamid Karzai\u00a0and U.S. troops at\u00a0Bagram Air Base.","address":"Kabul","placename":"Kabul, Afghanistan","title":"Kabul March 2010"}},{"type":"Feature","geometry":{"type":"Point","coordinates":[-77.036516999997,38.897677700002]},"properties":{"address":"38\u00b053\u203251.61\u2033N 77\u00b02\u203211.58\u2033W","placename":"1600 Pennsylvania Ave NW, Washington, DC 20502, USA","title":"Whitehouse"}},{"type":"Feature","geometry":{"type":"Point","coordinates":[12.568337099998,55.6760968]},"properties":{"description":"Attended the\u00a0United Nations Climate Change Conference 2009.","address":"Copenhagen","placename":"Copenhagen, Denmark","title":"Copenhagen November 2009"}},{"type":"Feature","geometry":{"type":"Point","coordinates":[-77.036516999997,38.897677700002]},"properties":{"address":"38\u00b053\u203251.61\u2033N 77\u00b02\u203211.58\u2033W","placename":"1600 Pennsylvania Ave NW, Washington, DC 20502, USA","title":"Whitehouse"}},{"type":"Feature","geometry":{"type":"Point","coordinates":[10.752245399997,59.913868799998]},"properties":{"description":"Accepted the\u00a0Nobel Peace Prize.","address":"Oslo","placename":"Oslo, Norway","title":"Oslo November 2009"}},{"type":"Feature","geometry":{"type":"Point","coordinates":[-77.036516999997,38.897677700002]},"properties":{"address":"38\u00b053\u203251.61\u2033N 77\u00b02\u203211.58\u2033W","placename":"1600 Pennsylvania Ave NW, Washington, DC 20502, USA","title":"Whitehouse"}},{"type":"Feature","geometry":{"type":"Point","coordinates":[139.6917064,35.6894875]},"properties":{"description":"Met with\u00a0Emperor Akihito\u00a0and Prime Minister\u00a0Yukio Hatoyama.","address":"Tokyo","placename":"Tokyo, Japan","title":"Tokyo November 2009"}},{"type":"Feature","geometry":{"type":"Point","coordinates":[103.819836,1.3520830000039]},"properties":{"description":"Attended the\u00a0APEC 2009 meeting. Met with Prime Minister\u00a0Lee Hsien Loong. Met with leaders of\u00a0ASEAN.","address":"Singapore","placename":"Singapore","title":"Singapore November 2009"}},{"type":"Feature","geometry":{"type":"Point","coordinates":[121.473704,31.230393]},"properties":{"description":"Met with Shanghai Party Secretary\u00a0Yu Zhengsheng. Held a\u00a0town hall\u00a0meeting with Shanghai students. Met with President\u00a0Hu Jintao,\u00a0NPC\u00a0Chairman\u00a0Wu Bangguo\u00a0and Premier\u00a0Wen Jiabao. Visited theForbidden City\u00a0and the\u00a0Great Wall of China.","address":"Shanghai","placename":"Shanghai, China","title":"Shanghai November 2009"}},{"type":"Feature","geometry":{"type":"Point","coordinates":[126.9779692,37.566535]},"properties":{"description":"Met with President\u00a0Lee Myung-bak. Visited with U.S. troops at\u00a0Osan Air Base.","address":"Seoul","placename":"Seoul, South Korea","title":"Seoul November 2009"}},{"type":"Feature","geometry":{"type":"Point","coordinates":[-77.036516999997,38.897677700002]},"properties":{"address":"38\u00b053\u203251.61\u2033N 77\u00b02\u203211.58\u2033W","placename":"1600 Pennsylvania Ave NW, Washington, DC 20502, USA","title":"Whitehouse"}},{"type":"Feature","geometry":{"type":"Point","coordinates":[12.568337099998,55.6760968]},"properties":{"description":"Met with\u00a0Queen Margrethe II\u00a0and Prime Minister\u00a0Lars L\u00f8kke Rasmussen. Attended the\u00a013th Olympic Congress\u00a0meeting to lobby for\u00a0Chicago's bid\u00a0to host the\u00a02016 Olympics.","address":"Copenhagen","placename":"Copenhagen, Denmark","title":"Copenhagen October 2009"}},{"type":"Feature","geometry":{"type":"Point","coordinates":[-77.036516999997,38.897677700002]},"properties":{"address":"38\u00b053\u203251.61\u2033N 77\u00b02\u203211.58\u2033W","placename":"1600 Pennsylvania Ave NW, Washington, DC 20502, USA","title":"Whitehouse"}},{"type":"Feature","geometry":{"type":"Point","coordinates":[-103.343803,20.673590000002]},"properties":{"description":"Attended annual\u00a0North American Leaders' Summit\u00a0with President Felipe Calder\u00f3n and Prime Minister Stephen Harper.","address":"Guadalajara","placename":"Guadalajara, JAL, Mexico","title":"Guadalajara August 2009"}},{"type":"Feature","geometry":{"type":"Point","coordinates":[-77.036516999997,38.897677700002]},"properties":{"address":"38\u00b053\u203251.61\u2033N 77\u00b02\u203211.58\u2033W","placename":"1600 Pennsylvania Ave NW, Washington, DC 20502, USA","title":"Whitehouse"}},{"type":"Feature","geometry":{"type":"Point","coordinates":[37.615400900001,55.742792799999]},"properties":{"description":"Met with President\u00a0Dmitry Medvedev\u00a0and Prime Minister\u00a0Vladimir Putin. Delivered a commencement speech to the\u00a0New Economic School.","address":"Moscow","placename":"Moscow, Russia","title":"Accra July 2009"}},{"type":"Feature","geometry":{"type":"Point","coordinates":[12.460773699998,41.901514099999]},"properties":{"description":"Attended the\u00a035th G8 summit. Met with President\u00a0Giorgio Napolitano\u00a0and Prime Minister\u00a0Silvio Berlusconi","address":"Rome","placename":"Rome, Italy","title":"Vatican City July 2009"}},{"type":"Feature","geometry":{"type":"Point","coordinates":[12.453389000004,41.902916000003]},"properties":{"description":"Met with\u00a0Pope Benedict XVI.","address":"Vatican City","placename":"Vatican City","title":"Rome July 2009"}},{"type":"Feature","geometry":{"type":"Point","coordinates":[-0.19630600000302,5.5557168999986]},"properties":{"description":"Met with President\u00a0John Atta Mills. Delivered a speech to the\u00a0Ghanaian Parliament. Toured a former departing point of the trans-Atlantic slave trade, the\u00a0Cape Coast Castle.","address":"Accra","placename":"Accra, Ghana","title":"Moscow July 2009"}},{"type":"Feature","geometry":{"type":"Point","coordinates":[-77.036516999997,38.897677700002]},"properties":{"address":"38\u00b053\u203251.61\u2033N 77\u00b02\u203211.58\u2033W","placename":"1600 Pennsylvania Ave NW, Washington, DC 20502, USA","title":"Whitehouse"}},{"type":"Feature","geometry":{"type":"Point","coordinates":[46.7241667,24.711666699999]},"properties":{"description":"Met with\u00a0King Abdullah.","address":"Riyadh","placename":"Riyadh Saudi Arabia","title":"Riyadh June 2009"}},{"type":"Feature","geometry":{"type":"Point","coordinates":[31.235711600004,30.0444196]},"properties":{"description":"Met with President\u00a0Hosni Mubarak. Toured the\u00a0Giza Pyramids. Delivered a\u00a0speech directed towards the wider Muslim world\u00a0at\u00a0Cairo University.","address":"Cairo","placename":"Cairo, Cairo Governorate, Egypt","title":"Cairo June 2009"}},{"type":"Feature","geometry":{"type":"Point","coordinates":[13.737262100002,51.050408800001]},"properties":{"description":"Met with Chancellor\u00a0Angela Merkel. Visited\u00a0Buchenwald concentration camp\u00a0and an U.S. military hospital.","address":"Dresden","placename":"Dresden, Germany","title":"Dresden June 2009"}},{"type":"Feature","geometry":{"type":"Point","coordinates":[2.3522219000019,48.856613999999]},"properties":{"description":"Met with President\u00a0Nicolas Sarkozy. Attended 65th anniversary of\u00a0D-Day\u00a0celebrations.","address":"Paris","placename":"Paris, France","title":"Paris June 2009"}},{"type":"Feature","geometry":{"type":"Point","coordinates":[-77.036516999997,38.897677700002]},"properties":{"address":"38\u00b053\u203251.61\u2033N 77\u00b02\u203211.58\u2033W","placename":"1600 Pennsylvania Ave NW, Washington, DC 20502, USA","title":"Whitehouse"}},{"type":"Feature","geometry":{"type":"Point","coordinates":[-61.516666700004,10.6666667]},"properties":{"description":"Met with President\u00a0Felipe Calder\u00f3n.","address":"Port of Spain","placename":"Port of Spain, Trinidad and Tobago","title":"Mexico City April 2009"}},{"type":"Feature","geometry":{"type":"Point","coordinates":[-99.133208000003,19.4326077]},"properties":{"description":"Attended the\u00a05th Summit of the Americas.","address":"Mexico City","placename":"Mexico City, Distrito Federal, Mexico","title":"Port of Spain April 2009"}},{"type":"Feature","geometry":{"type":"Point","coordinates":[-77.036516999997,38.897677700002]},"properties":{"address":"38\u00b053\u203251.61\u2033N 77\u00b02\u203211.58\u2033W","placename":"1600 Pennsylvania Ave NW, Washington, DC 20502, USA","title":"Whitehouse"}},{"type":"Feature","geometry":{"type":"Point","coordinates":[-75.697193099999,45.421529600002]},"properties":{"description":"Met with Governor General\u00a0Micha\u00eblle Jean\u00a0and Prime Minister\u00a0Stephen Harper.","address":"Ottawa","placename":"Ottawa, ON, Canada","title":"Ottawa February 2009"}},{"type":"Feature","geometry":{"type":"Point","coordinates":[-0.12768310000084,51.507334599999]},"properties":{"description":"Attended the\u00a0G20 Economic Summit. Met with Queen\u00a0Elizabeth II\u00a0and Prime Minister\u00a0Gordon Brown.","address":"London","placename":"London, UK","title":"London March 2009"}},{"type":"Feature","geometry":{"type":"Point","coordinates":[7.7478819999967,48.583148]},"properties":{"description":"Attended the\u00a021st NATO Summit.","address":"Strasbourg\u00a0","placename":"Strasbourg, France","title":"Strasbourg April 2009"}},{"type":"Feature","geometry":{"type":"Point","coordinates":[14.437800500001,50.075538100001]},"properties":{"description":"Attended a European Union-United States summit. Delivered public speech on nuclear disarmament. Met with Czech President\u00a0V\u00e1clav Klaus.","address":"Prague","placename":"Prague, Czech Republic","title":"Prague April 2009"}},{"type":"Feature","geometry":{"type":"Point","coordinates":[32.854109999998,39.920770000002]},"properties":{"description":"Met with President\u00a0Abdullah G\u00fcl\u00a0and Prime Minister\u00a0Recep Tayyip Erdo\u011fan. Delivered a speech to the\u00a0Turkish Parliament.","address":"Ankara","placename":"Ankara\/Ankara Province, Turkey","title":"Ankara April 2009"}},{"type":"Feature","geometry":{"type":"Point","coordinates":[44.422000000002,33.324999999997]},"properties":{"description":"Met with President\u00a0Jalal Talabani\u00a0and Prime Minister\u00a0Nouri al-Maliki. Visited with U.S. troops.","address":"Baghdad","placename":"Baghdad, Iraq","title":"Baghdad April 2009"}},{"type":"Feature","geometry":{"type":"Point","coordinates":[-77.036516999997,38.897677700002]},"properties":{"address":"38\u00b053\u203251.61\u2033N 77\u00b02\u203211.58\u2033W","placename":"1600 Pennsylvania Ave NW, Washington, DC 20502, USA","title":"Whitehouse"}},{"type":"Feature","geometry":{"type":"LineString","coordinates":[[44.422000000002,33.324999999997],[-77.036516999997,38.897677700002]]},"properties":[]},{"type":"Feature","geometry":{"type":"LineString","coordinates":[[32.854109999998,39.920770000002],[44.422000000002,33.324999999997]]},"properties":[]},{"type":"Feature","geometry":{"type":"LineString","coordinates":[[14.437800500001,50.075538100001],[32.854109999998,39.920770000002]]},"properties":[]},{"type":"Feature","geometry":{"type":"LineString","coordinates":[[7.7478819999967,48.583148],[14.437800500001,50.075538100001]]},"properties":[]},{"type":"Feature","geometry":{"type":"LineString","coordinates":[[-0.12768310000084,51.507334599999],[7.7478819999967,48.583148]]},"properties":[]},{"type":"Feature","geometry":{"type":"LineString","coordinates":[[-75.697193099999,45.421529600002],[-0.12768310000084,51.507334599999]]},"properties":[]},{"type":"Feature","geometry":{"type":"LineString","coordinates":[[-77.036516999997,38.897677700002],[-75.697193099999,45.421529600002]]},"properties":[]},{"type":"Feature","geometry":{"type":"LineString","coordinates":[[-99.133208000003,19.4326077],[-77.036516999997,38.897677700002]]},"properties":[]},{"type":"Feature","geometry":{"type":"LineString","coordinates":[[-61.516666700004,10.6666667],[-99.133208000003,19.4326077]]},"properties":[]},{"type":"Feature","geometry":{"type":"LineString","coordinates":[[-77.036516999997,38.897677700002],[-61.516666700004,10.6666667]]},"properties":[]},{"type":"Feature","geometry":{"type":"LineString","coordinates":[[2.3522219000019,48.856613999999],[-77.036516999997,38.897677700002]]},"properties":[]},{"type":"Feature","geometry":{"type":"LineString","coordinates":[[13.737262100002,51.050408800001],[2.3522219000019,48.856613999999]]},"properties":[]},{"type":"Feature","geometry":{"type":"LineString","coordinates":[[31.235711600004,30.0444196],[13.737262100002,51.050408800001]]},"properties":[]},{"type":"Feature","geometry":{"type":"LineString","coordinates":[[46.7241667,24.711666699999],[31.235711600004,30.0444196]]},"properties":[]},{"type":"Feature","geometry":{"type":"LineString","coordinates":[[-77.036516999997,38.897677700002],[46.7241667,24.711666699999]]},"properties":[]},{"type":"Feature","geometry":{"type":"LineString","coordinates":[[-0.19630600000302,5.5557168999986],[-77.036516999997,38.897677700002]]},"properties":[]},{"type":"Feature","geometry":{"type":"LineString","coordinates":[[12.453389000004,41.902916000003],[-0.19630600000302,5.5557168999986]]},"properties":[]},{"type":"Feature","geometry":{"type":"LineString","coordinates":[[12.460773699998,41.901514099999],[12.453389000004,41.902916000003]]},"properties":[]},{"type":"Feature","geometry":{"type":"LineString","coordinates":[[37.615400900001,55.742792799999],[12.460773699998,41.901514099999]]},"properties":[]},{"type":"Feature","geometry":{"type":"LineString","coordinates":[[-77.036516999997,38.897677700002],[37.615400900001,55.742792799999]]},"properties":[]},{"type":"Feature","geometry":{"type":"LineString","coordinates":[[-103.343803,20.673590000002],[-77.036516999997,38.897677700002]]},"properties":[]},{"type":"Feature","geometry":{"type":"LineString","coordinates":[[-77.036516999997,38.897677700002],[-103.343803,20.673590000002]]},"properties":[]},{"type":"Feature","geometry":{"type":"LineString","coordinates":[[12.568337099998,55.6760968],[-77.036516999997,38.897677700002]]},"properties":[]},{"type":"Feature","geometry":{"type":"LineString","coordinates":[[-77.036516999997,38.897677700002],[12.568337099998,55.6760968]]},"properties":[]},{"type":"Feature","geometry":{"type":"LineString","coordinates":[[126.9779692,37.566535],[-77.036516999997,38.897677700002]]},"properties":[]},{"type":"Feature","geometry":{"type":"LineString","coordinates":[[121.473704,31.230393],[126.9779692,37.566535]]},"properties":[]},{"type":"Feature","geometry":{"type":"LineString","coordinates":[[103.819836,1.3520830000039],[121.473704,31.230393]]},"properties":[]},{"type":"Feature","geometry":{"type":"LineString","coordinates":[[139.6917064,35.6894875],[103.819836,1.3520830000039]]},"properties":[]},{"type":"Feature","geometry":{"type":"LineString","coordinates":[[-77.036516999997,38.897677700002],[139.6917064,35.6894875]]},"properties":[]},{"type":"Feature","geometry":{"type":"LineString","coordinates":[[10.752245399997,59.913868799998],[-77.036516999997,38.897677700002]]},"properties":[]},{"type":"Feature","geometry":{"type":"LineString","coordinates":[[-77.036516999997,38.897677700002],[10.752245399997,59.913868799998]]},"properties":[]},{"type":"Feature","geometry":{"type":"LineString","coordinates":[[12.568337099998,55.6760968],[-77.036516999997,38.897677700002]]},"properties":[]},{"type":"Feature","geometry":{"type":"LineString","coordinates":[[-77.036516999997,38.897677700002],[12.568337099998,55.6760968]]},"properties":[]},{"type":"Feature","geometry":{"type":"LineString","coordinates":[[69.171702900004,34.528454999999],[-77.036516999997,38.897677700002]]},"properties":[]},{"type":"Feature","geometry":{"type":"LineString","coordinates":[[-77.036516999997,38.897677700002],[69.171702900004,34.528454999999]]},"properties":[]},{"type":"Feature","geometry":{"type":"LineString","coordinates":[[14.437800500001,50.075538100001],[-77.036516999997,38.897677700002]]},"properties":[]},{"type":"Feature","geometry":{"type":"LineString","coordinates":[[-77.036516999997,38.897677700002],[14.437800500001,50.075538100001]]},"properties":[]},{"type":"Feature","geometry":{"type":"LineString","coordinates":[[-79.383184300004,43.653226000002],[-77.036516999997,38.897677700002]]},"properties":[]},{"type":"Feature","geometry":{"type":"LineString","coordinates":[[-77.036516999997,38.897677700002],[-79.383184300004,43.653226000002]]},"properties":[]},{"type":"Feature","geometry":{"type":"LineString","coordinates":[[139.6380256,35.443707800001],[-77.036516999997,38.897677700002]]},"properties":[]},{"type":"Feature","geometry":{"type":"LineString","coordinates":[[126.9779692,37.566535],[139.6380256,35.443707800001]]},"properties":[]},{"type":"Feature","geometry":{"type":"LineString","coordinates":[[106.845172,-6.2115440000036],[126.9779692,37.566535]]},"properties":[]},{"type":"Feature","geometry":{"type":"LineString","coordinates":[[72.877655899996,19.075983700002],[106.845172,-6.2115440000036]]},"properties":[]},{"type":"Feature","geometry":{"type":"LineString","coordinates":[[-77.036516999997,38.897677700002],[72.877655899996,19.075983700002]]},"properties":[]},{"type":"Feature","geometry":{"type":"LineString","coordinates":[[-9.1397700000033,38.723827299998],[-77.036516999997,38.897677700002]]},"properties":[]},{"type":"Feature","geometry":{"type":"LineString","coordinates":[[-77.036516999997,38.897677700002],[-9.1397700000033,38.723827299998]]},"properties":[]},{"type":"Feature","geometry":{"type":"LineString","coordinates":[[69.260653000003,34.936988200001],[-77.036516999997,38.897677700002]]},"properties":[]},{"type":"Feature","geometry":{"type":"LineString","coordinates":[[-77.036516999997,38.897677700002],[69.260653000003,34.936988200001]]},"properties":[]},{"type":"Feature","geometry":{"type":"LineString","coordinates":[[21.012228700002,52.229675599998],[-77.036516999997,38.897677700002]]},"properties":[]},{"type":"Feature","geometry":{"type":"LineString","coordinates":[[0.075121999996656,49.353975999999],[21.012228700002,52.229675599998]]},"properties":[]},{"type":"Feature","geometry":{"type":"LineString","coordinates":[[-0.12768310000084,51.507334599999],[0.075121999996656,49.353975999999]]},"properties":[]},{"type":"Feature","geometry":{"type":"LineString","coordinates":[[-6.2600825000011,53.349442599999],[-0.12768310000084,51.507334599999]]},"properties":[]},{"type":"Feature","geometry":{"type":"LineString","coordinates":[[-89.160999999999,13.730999999996],[-6.2600825000011,53.349442599999]]},"properties":[]},{"type":"Feature","geometry":{"type":"LineString","coordinates":[[-70.641997,-33.469119899999],[-89.160999999999,13.730999999996]]},"properties":[]},{"type":"Feature","geometry":{"type":"LineString","coordinates":[[-43.209586900003,-22.903539300004],[-70.641997,-33.469119899999]]},"properties":[]},{"type":"Feature","geometry":{"type":"LineString","coordinates":[[-77.036516999997,38.897677700002],[-43.209586900003,-22.903539300004]]},"properties":[]},{"type":"Feature","geometry":{"type":"LineString","coordinates":[[7.0173690000045,43.552846999999],[-77.036516999997,38.897677700002]]},"properties":[]},{"type":"Feature","geometry":{"type":"LineString","coordinates":[[-77.036516999997,38.897677700002],[7.0173690000045,43.552846999999]]},"properties":[]},{"type":"Feature","geometry":{"type":"LineString","coordinates":[[115.188916,-8.4095177999965],[-77.036516999997,38.897677700002]]},"properties":[]},{"type":"Feature","geometry":{"type":"LineString","coordinates":[[149.1286843,-35.2819998],[115.188916,-8.4095177999965]]},"properties":[]},{"type":"Feature","geometry":{"type":"LineString","coordinates":[[-77.036516999997,38.897677700002],[149.1286843,-35.2819998]]},"properties":[]},{"type":"Feature","geometry":{"type":"LineString","coordinates":[[126.9779692,37.566535],[-77.036516999997,38.897677700002]]},"properties":[]},{"type":"Feature","geometry":{"type":"LineString","coordinates":[[-77.036516999997,38.897677700002],[126.9779692,37.566535]]},"properties":[]},{"type":"Feature","geometry":{"type":"LineString","coordinates":[[-74.075833299996,4.5980556000042],[-77.036516999997,38.897677700002]]},"properties":[]},{"type":"Feature","geometry":{"type":"LineString","coordinates":[[-77.036516999997,38.897677700002],[-74.075833299996,4.5980556000042]]},"properties":[]},{"type":"Feature","geometry":{"type":"LineString","coordinates":[[69.171702900004,34.528454999999],[-77.036516999997,38.897677700002]]},"properties":[]},{"type":"Feature","geometry":{"type":"LineString","coordinates":[[-77.036516999997,38.897677700002],[69.171702900004,34.528454999999]]},"properties":[]},{"type":"Feature","geometry":{"type":"LineString","coordinates":[[-109.7080556,23.061388900001],[-77.036516999997,38.897677700002]]},"properties":[]},{"type":"Feature","geometry":{"type":"LineString","coordinates":[[-77.036516999997,38.897677700002],[-109.7080556,23.061388900001]]},"properties":[]}],"properties":{"title":"President Barack Obama","description":"List of international trips made by the President of the United States","tags":"international trips made by the president of united states barack obama"}}