{"supplychain":{"category":10,"created":1344419484,"enable_comments":true,"flags":0,"id":3648,"modified":1344419485,"other_perms":1,"passcode":null,"user_featured":false,"usergroup_id":null,"usergroup_perms":0,"user_id":2687,"owner":{"id":2687,"name":"cab825","avatar":"http:\/\/free.sourcemap.com\/assets\/images\/default-user.png","banner_url":null,"display_name":null},"taxonomy":[{"description":"Travel","id":10,"left":15,"name":"travel","right":16,"title":"Travel"}],"attributes":{"title":"President Barack Obama","description":"List of international trips made by the President of the United States","tags":"international trips made by the president of united states barack obama"},"stops":[{"local_stop_id":70,"id":70,"geometry":"POINT(-8575665.844927 4707025.361129)","attributes":{"address":"38\u00b053\u203251.61\u2033N 77\u00b02\u203211.58\u2033W","placename":"1600 Pennsylvania Ave NW, Washington, DC 20502, USA","title":"Whitehouse"}},{"local_stop_id":69,"id":69,"geometry":"POINT(-12212644.885312 2639444.276723)","attributes":{"description":"2012 G-20 Mexico summit.","address":"San Jos\u00e9 del Cabo","placename":"San Jos\u00e9 del Cabo, Baja California Sur, Mexico","title":"San Jos\u00e9 del Cabo June 2012"}},{"local_stop_id":68,"id":68,"geometry":"POINT(-8575665.844927 4707025.361129)","attributes":{"address":"38\u00b053\u203251.61\u2033N 77\u00b02\u203211.58\u2033W","placename":"1600 Pennsylvania Ave NW, Washington, DC 20502, USA","title":"Whitehouse"}},{"local_stop_id":67,"id":67,"geometry":"POINT(7700158.744132 4099983.278138)","attributes":{"description":"Signing of\u00a0strategic partnership agreement between Afghanistan and United States, spending time with U.S. troops at\u00a0Bagram airfield\u00a0and addressing the nation from there regarding the responsible end of theAfghanistan war.","address":"Kabul","placename":"Kabul, Afghanistan","title":"Kabul May 2012"}},{"local_stop_id":66,"id":66,"geometry":"POINT(-8575665.844927 4707025.361129)","attributes":{"address":"38\u00b053\u203251.61\u2033N 77\u00b02\u203211.58\u2033W","placename":"1600 Pennsylvania Ave NW, Washington, DC 20502, USA","title":"Whitehouse"}},{"local_stop_id":65,"id":65,"geometry":"POINT(-8246084.043043 512403.505278)","attributes":{"description":"6th Summit of the Americas","address":"Bogota","placename":"Bogot\u00e1, Bogota, Colombia","title":"Bogota April 2012"}},{"local_stop_id":64,"id":64,"geometry":"POINT(-8575665.844927 4707025.361129)","attributes":{"address":"38\u00b053\u203251.61\u2033N 77\u00b02\u203211.58\u2033W","placename":"1600 Pennsylvania Ave NW, Washington, DC 20502, USA","title":"Whitehouse"}},{"local_stop_id":63,"id":63,"geometry":"POINT(14135122.873308 4518371.425394)","attributes":{"description":"2012 Nuclear Security Summit\u00a0follow up to\u00a02010 Nuclear Security Summit\u00a0held in April 2010, Washington DC. Met with Hu Jintao and addressesed US military personnel.","address":"Seoul","placename":"Seoul, South Korea","title":"Seoul March 2012"}},{"local_stop_id":62,"id":62,"geometry":"POINT(-8575665.844927 4707025.361129)","attributes":{"address":"38\u00b053\u203251.61\u2033N 77\u00b02\u203211.58\u2033W","placename":"1600 Pennsylvania Ave NW, Washington, DC 20502, USA","title":"Whitehouse"}},{"local_stop_id":61,"id":61,"geometry":"POINT(16600929.198947 -4202270.133617)","attributes":{"description":"Met with Prime Minister\u00a0Julia Gillard","address":"Canberra","placename":"Canberra ACT 2601, Australia","title":"Canberra November 2011"}},{"local_stop_id":60,"id":60,"geometry":"POINT(12822771.474149 -939522.605943)","attributes":{"description":"ASEAN\u00a0Summit and the\u00a0sixth East Asia Summit\u00a0on Bali.","address":"\u00a0Bali","placename":"Bali, Indonesia","title":"\u00a0Bali November 2011"}},{"local_stop_id":59,"id":59,"geometry":"POINT(-8575665.844927 4707025.361129)","attributes":{"address":"38\u00b053\u203251.61\u2033N 77\u00b02\u203211.58\u2033W","placename":"1600 Pennsylvania Ave NW, Washington, DC 20502, USA","title":"Whitehouse"}},{"local_stop_id":58,"id":58,"geometry":"POINT(781169.943789 5396502.983891)","attributes":{"description":"G-20 Cannes summit","address":"Cannes","placename":"Cannes, France","title":"Cannes November 2011"}},{"local_stop_id":57,"id":57,"geometry":"POINT(-8575665.844927 4707025.361129)","attributes":{"address":"38\u00b053\u203251.61\u2033N 77\u00b02\u203211.58\u2033W","placename":"1600 Pennsylvania Ave NW, Washington, DC 20502, USA","title":"Whitehouse"}},{"local_stop_id":56,"id":56,"geometry":"POINT(-4810069.211096 -2620357.508326)","attributes":{"description":"Met with President\u00a0Dilma Rousseff. Visited the\u00a0Cidade de Deus favela\u00a0and the\u00a0Christ the Redeemer statue.","address":"Rio de Janeiro","placename":"Rio de Janeiro, Brazil","title":"Rio de Janeiro March 2011"}},{"local_stop_id":55,"id":55,"geometry":"POINT(-7863831.13466 -3957738.616994)","attributes":{"description":"Met with President\u00a0Sebasti\u00e1n Pi\u00f1era.","address":"Santiago","placename":"Santiago, Santiago Metropolitan Region, Chile","title":"Santiago March 2011"}},{"local_stop_id":54,"id":54,"geometry":"POINT(-9925357.118619 1543372.817463)","attributes":{"description":"Met with President\u00a0Mauricio Funes. Visited the\u00a0San Salvador Cathedral.","address":"San Salvador","placename":"San Salvador, El Salvador","title":"San Salvador March 2011"}},{"local_stop_id":53,"id":53,"geometry":"POINT(-696869.196224 7047898.741277)","attributes":{"description":"Had meetings with\u00a0President Mary McAleese\u00a0and\u00a0Taoiseach\u00a0Enda Kenny. Visited ancestral home in\u00a0Moneygall, and addressed a large crowd in\u00a0Dublin. Accompanied by the\u00a0First Lady.","address":"Dublin","placename":"Dublin, Co. Dublin, Ireland","title":"Dublin May 2011"}},{"local_stop_id":52,"id":52,"geometry":"POINT(-14213.617675 6711530.778719)","attributes":{"description":"State visit,\u00a0accompanied by the First Lady. She returned to the US from the UK when the President traveled on to France.[12]","address":"London","placename":"London, UK","title":"London May 2011"}},{"local_stop_id":51,"id":51,"geometry":"POINT(8362.542787 6335138.549649)","attributes":{"description":"37th G8 summit","address":"Deauville","placename":"Deauville, France","title":"Deauville May 2011"}},{"local_stop_id":50,"id":50,"geometry":"POINT(2339070.599316 6841760.762317)","attributes":{"description":"Had meetings with\u00a0President Bronis\u0142aw Komorowski\u00a0and\u00a0Prime Minister Donald Tusk. Laid wreath at the\u00a0Warsaw Ghetto Memorial\u00a0and visited the memorial to the victims of the\u00a0Smolensk plane crash.","address":"Warsaw","placename":"Warsaw, Poland","title":"Warsaw May 2011"}},{"local_stop_id":49,"id":49,"geometry":"POINT(-8575665.844927 4707025.361129)","attributes":{"address":"38\u00b053\u203251.61\u2033N 77\u00b02\u203211.58\u2033W","placename":"1600 Pennsylvania Ave NW, Washington, DC 20502, USA","title":"Whitehouse"}},{"local_stop_id":48,"id":48,"geometry":"POINT(7710060.62397 4155321.385766)","attributes":{"description":"Visited with U.S. troops at\u00a0Bagram Air Base. Originally planned meeting with President\u00a0Hamid Karzai\u00a0in Kabul was canceled due to bad weather.[9]","address":"Bagram","placename":"Bagram Airfield, Bagram, Afghanistan","title":"Bagram November 2010"}},{"local_stop_id":47,"id":47,"geometry":"POINT(-8575665.844927 4707025.361129)","attributes":{"address":"38\u00b053\u203251.61\u2033N 77\u00b02\u203211.58\u2033W","placename":"1600 Pennsylvania Ave NW, Washington, DC 20502, USA","title":"Whitehouse"}},{"local_stop_id":46,"id":46,"geometry":"POINT(-1017434.542368 4682189.055432)","attributes":{"description":"Attended the\u00a022nd NATO summit\u00a0and the U.S.-EU summit. Met with President\u00a0An\u00edbal Cavaco Silva\u00a0and Prime Minister\u00a0Jos\u00e9 S\u00f3crates.","address":"Lisbon","placename":"Lisbon, Portugal","title":"Lisbon November 2010"}},{"local_stop_id":45,"id":45,"geometry":"POINT(-8575665.844927 4707025.361129)","attributes":{"address":"38\u00b053\u203251.61\u2033N 77\u00b02\u203211.58\u2033W","placename":"1600 Pennsylvania Ave NW, Washington, DC 20502, USA","title":"Whitehouse"}},{"local_stop_id":44,"id":44,"geometry":"POINT(8112703.544995 2163883.810239)","attributes":{"description":"Participated in the US-India Business Council and Entrepreneurship Summit in Mumbai. Held a town hall meeting with Mumbai students. Met with President\u00a0Pratibha Patil\u00a0and Prime Minister\u00a0Manmohan Singh. Delivered a speech to the\u00a0Indian Parliament. Visited\u00a0Humayun's Tomb\u00a0and\u00a0Raj Ghat.","address":"Mumbai","placename":"Mumbai, Maharashtra, India","title":"Mumbai November 2010"}},{"local_stop_id":43,"id":43,"geometry":"POINT(11893950.14076 -692824.391099)","attributes":{"description":"Met with President\u00a0Susilo Bambang Yudhoyono. Delivered a speech at the\u00a0University of Indonesia. Visited\u00a0Istiqlal Mosque.","address":"Jakarta","placename":"Jakarta Capital Region, Indonesia","title":"Jakarta November 2010"}},{"local_stop_id":42,"id":42,"geometry":"POINT(14135122.873308 4518371.425394)","attributes":{"description":"Attended the\u00a0G-20 Seoul summit. Met with President\u00a0Lee Myung-bak. Visited with U.S. troops at\u00a0Yongsan Garrison.","address":"Seoul","placename":"Seoul, South Korea","title":"Seoul November 2010"}},{"local_stop_id":41,"id":41,"geometry":"POINT(15544433.90517 4224343.945859)","attributes":{"description":"Attended the\u00a0APEC 2010 meeting. Met with Prime Minister\u00a0Naoto Kan. Visited the\u00a0Kamakura Great Buddha statue.","address":"Yokohama","placename":"Yokohama, Kanagawa Prefecture, Japan","title":"Yokohama November 2010"}},{"local_stop_id":40,"id":40,"geometry":"POINT(-8575665.844927 4707025.361129)","attributes":{"address":"38\u00b053\u203251.61\u2033N 77\u00b02\u203211.58\u2033W","placename":"1600 Pennsylvania Ave NW, Washington, DC 20502, USA","title":"Whitehouse"}},{"local_stop_id":39,"id":39,"geometry":"POINT(-8836895.653825 5411933.999327)","attributes":{"description":"Attended the\u00a036th G8 summit\u00a0and the\u00a0G-20 Toronto summit","address":"Toronto","placename":"Toronto, ON, Canada","title":"Toronto June 2010"}},{"local_stop_id":38,"id":38,"geometry":"POINT(-8575665.844927 4707025.361129)","attributes":{"address":"38\u00b053\u203251.61\u2033N 77\u00b02\u203211.58\u2033W","placename":"1600 Pennsylvania Ave NW, Washington, DC 20502, USA","title":"Whitehouse"}},{"local_stop_id":37,"id":37,"geometry":"POINT(1607208.599835 6459368.000928)","attributes":{"description":"Signed the\u00a0New START\u00a0treaty with Russian President\u00a0Dmitry Medvedev.","address":"Prague","placename":"Prague, Czech Republic","title":"Prague April 2010"}},{"local_stop_id":36,"id":36,"geometry":"POINT(-8575665.844927 4707025.361129)","attributes":{"address":"38\u00b053\u203251.61\u2033N 77\u00b02\u203211.58\u2033W","placename":"1600 Pennsylvania Ave NW, Washington, DC 20502, USA","title":"Whitehouse"}},{"local_stop_id":35,"id":35,"geometry":"POINT(7700158.744132 4099983.278138)","attributes":{"description":"Met with President\u00a0Hamid Karzai\u00a0and U.S. troops at\u00a0Bagram Air Base.","address":"Kabul","placename":"Kabul, Afghanistan","title":"Kabul March 2010"}},{"local_stop_id":34,"id":34,"geometry":"POINT(-8575665.844927 4707025.361129)","attributes":{"address":"38\u00b053\u203251.61\u2033N 77\u00b02\u203211.58\u2033W","placename":"1600 Pennsylvania Ave NW, Washington, DC 20502, USA","title":"Whitehouse"}},{"local_stop_id":33,"id":33,"geometry":"POINT(1399100.88609 7494204.059146)","attributes":{"description":"Attended the\u00a0United Nations Climate Change Conference 2009.","address":"Copenhagen","placename":"Copenhagen, Denmark","title":"Copenhagen November 2009"}},{"local_stop_id":32,"id":32,"geometry":"POINT(-8575665.844927 4707025.361129)","attributes":{"address":"38\u00b053\u203251.61\u2033N 77\u00b02\u203211.58\u2033W","placename":"1600 Pennsylvania Ave NW, Washington, DC 20502, USA","title":"Whitehouse"}},{"local_stop_id":31,"id":31,"geometry":"POINT(1196934.482812 8380586.641639)","attributes":{"description":"Accepted the\u00a0Nobel Peace Prize.","address":"Oslo","placename":"Oslo, Norway","title":"Oslo November 2009"}},{"local_stop_id":30,"id":30,"geometry":"POINT(-8575665.844927 4707025.361129)","attributes":{"address":"38\u00b053\u203251.61\u2033N 77\u00b02\u203211.58\u2033W","placename":"1600 Pennsylvania Ave NW, Washington, DC 20502, USA","title":"Whitehouse"}},{"local_stop_id":29,"id":29,"geometry":"POINT(15550409.624491 4257979.018924)","attributes":{"description":"Met with\u00a0Emperor Akihito\u00a0and Prime Minister\u00a0Yukio Hatoyama.","address":"Tokyo","placename":"Tokyo, Japan","title":"Tokyo November 2009"}},{"local_stop_id":28,"id":28,"geometry":"POINT(11557171.277761 150527.162641)","attributes":{"description":"Attended the\u00a0APEC 2009 meeting. Met with Prime Minister\u00a0Lee Hsien Loong. Met with leaders of\u00a0ASEAN.","address":"Singapore","placename":"Singapore","title":"Singapore November 2009"}},{"local_stop_id":27,"id":27,"geometry":"POINT(13522390.874053 3662706.345758)","attributes":{"description":"Met with Shanghai Party Secretary\u00a0Yu Zhengsheng. Held a\u00a0town hall\u00a0meeting with Shanghai students. Met with President\u00a0Hu Jintao,\u00a0NPC\u00a0Chairman\u00a0Wu Bangguo\u00a0and Premier\u00a0Wen Jiabao. Visited theForbidden City\u00a0and the\u00a0Great Wall of China.","address":"Shanghai","placename":"Shanghai, China","title":"Shanghai November 2009"}},{"local_stop_id":26,"id":26,"geometry":"POINT(14135122.873308 4518371.425394)","attributes":{"description":"Met with President\u00a0Lee Myung-bak. Visited with U.S. troops at\u00a0Osan Air Base.","address":"Seoul","placename":"Seoul, South Korea","title":"Seoul November 2009"}},{"local_stop_id":25,"id":25,"geometry":"POINT(-8575665.844927 4707025.361129)","attributes":{"address":"38\u00b053\u203251.61\u2033N 77\u00b02\u203211.58\u2033W","placename":"1600 Pennsylvania Ave NW, Washington, DC 20502, USA","title":"Whitehouse"}},{"local_stop_id":24,"id":24,"geometry":"POINT(1399100.88609 7494204.059146)","attributes":{"description":"Met with\u00a0Queen Margrethe II\u00a0and Prime Minister\u00a0Lars L\u00f8kke Rasmussen. Attended the\u00a013th Olympic Congress\u00a0meeting to lobby for\u00a0Chicago's bid\u00a0to host the\u00a02016 Olympics.","address":"Copenhagen","placename":"Copenhagen, Denmark","title":"Copenhagen October 2009"}},{"local_stop_id":23,"id":23,"geometry":"POINT(-8575665.844927 4707025.361129)","attributes":{"address":"38\u00b053\u203251.61\u2033N 77\u00b02\u203211.58\u2033W","placename":"1600 Pennsylvania Ave NW, Washington, DC 20502, USA","title":"Whitehouse"}},{"local_stop_id":22,"id":22,"geometry":"POINT(-11504179.5266 2352999.968169)","attributes":{"description":"Attended annual\u00a0North American Leaders' Summit\u00a0with President Felipe Calder\u00f3n and Prime Minister Stephen Harper.","address":"Guadalajara","placename":"Guadalajara, JAL, Mexico","title":"Guadalajara August 2009"}},{"local_stop_id":21,"id":21,"geometry":"POINT(-8575665.844927 4707025.361129)","attributes":{"address":"38\u00b053\u203251.61\u2033N 77\u00b02\u203211.58\u2033W","placename":"1600 Pennsylvania Ave NW, Washington, DC 20502, USA","title":"Whitehouse"}},{"local_stop_id":20,"id":20,"geometry":"POINT(4187327.274173 7507382.441369)","attributes":{"description":"Met with President\u00a0Dmitry Medvedev\u00a0and Prime Minister\u00a0Vladimir Putin. Delivered a commencement speech to the\u00a0New Economic School.","address":"Moscow","placename":"Moscow, Russia","title":"Accra July 2009"}},{"local_stop_id":19,"id":19,"geometry":"POINT(1387126.983174 5146238.131284)","attributes":{"description":"Attended the\u00a035th G8 summit. Met with President\u00a0Giorgio Napolitano\u00a0and Prime Minister\u00a0Silvio Berlusconi","address":"Rome","placename":"Rome, Italy","title":"Vatican City July 2009"}},{"local_stop_id":18,"id":18,"geometry":"POINT(1386304.922131 5146447.807204)","attributes":{"description":"Met with\u00a0Pope Benedict XVI.","address":"Vatican City","placename":"Vatican City","title":"Rome July 2009"}},{"local_stop_id":17,"id":17,"geometry":"POINT(-21852.68396 619431.019592)","attributes":{"description":"Met with President\u00a0John Atta Mills. Delivered a speech to the\u00a0Ghanaian Parliament. Toured a former departing point of the trans-Atlantic slave trade, the\u00a0Cape Coast Castle.","address":"Accra","placename":"Accra, Ghana","title":"Moscow July 2009"}},{"local_stop_id":16,"id":16,"geometry":"POINT(-8575665.844927 4707025.361129)","attributes":{"address":"38\u00b053\u203251.61\u2033N 77\u00b02\u203211.58\u2033W","placename":"1600 Pennsylvania Ave NW, Washington, DC 20502, USA","title":"Whitehouse"}},{"local_stop_id":15,"id":15,"geometry":"POINT(5201310.444784 2840370.714463)","attributes":{"description":"Met with\u00a0King Abdullah.","address":"Riyadh","placename":"Riyadh Saudi Arabia","title":"Riyadh June 2009"}},{"local_stop_id":14,"id":14,"geometry":"POINT(3477143.509878 3509260.847708)","attributes":{"description":"Met with President\u00a0Hosni Mubarak. Toured the\u00a0Giza Pyramids. Delivered a\u00a0speech directed towards the wider Muslim world\u00a0at\u00a0Cairo University.","address":"Cairo","placename":"Cairo, Cairo Governorate, Egypt","title":"Cairo June 2009"}},{"local_stop_id":13,"id":13,"geometry":"POINT(1529225.021866 6630215.304327)","attributes":{"description":"Met with Chancellor\u00a0Angela Merkel. Visited\u00a0Buchenwald concentration camp\u00a0and an U.S. military hospital.","address":"Dresden","placename":"Dresden, Germany","title":"Dresden June 2009"}},{"local_stop_id":12,"id":12,"geometry":"POINT(261848.144141 6250566.718238)","attributes":{"description":"Met with President\u00a0Nicolas Sarkozy. Attended 65th anniversary of\u00a0D-Day\u00a0celebrations.","address":"Paris","placename":"Paris, France","title":"Paris June 2009"}},{"local_stop_id":11,"id":11,"geometry":"POINT(-8575665.844927 4707025.361129)","attributes":{"address":"38\u00b053\u203251.61\u2033N 77\u00b02\u203211.58\u2033W","placename":"1600 Pennsylvania Ave NW, Washington, DC 20502, USA","title":"Whitehouse"}},{"local_stop_id":10,"id":10,"geometry":"POINT(-6848004.012344 1194326.94252)","attributes":{"description":"Met with President\u00a0Felipe Calder\u00f3n.","address":"Port of Spain","placename":"Port of Spain, Trinidad and Tobago","title":"Mexico City April 2009"}},{"local_stop_id":9,"id":9,"geometry":"POINT(-11035458.235264 2205935.269899)","attributes":{"description":"Attended the\u00a05th Summit of the Americas.","address":"Mexico City","placename":"Mexico City, Distrito Federal, Mexico","title":"Port of Spain April 2009"}},{"local_stop_id":8,"id":8,"geometry":"POINT(-8575665.844927 4707025.361129)","attributes":{"address":"38\u00b053\u203251.61\u2033N 77\u00b02\u203211.58\u2033W","placename":"1600 Pennsylvania Ave NW, Washington, DC 20502, USA","title":"Whitehouse"}},{"local_stop_id":7,"id":7,"geometry":"POINT(-8426572.990372 5688128.615033)","attributes":{"description":"Met with Governor General\u00a0Micha\u00eblle Jean\u00a0and Prime Minister\u00a0Stephen Harper.","address":"Ottawa","placename":"Ottawa, ON, Canada","title":"Ottawa February 2009"}},{"local_stop_id":6,"id":6,"geometry":"POINT(-14213.617675 6711530.778719)","attributes":{"description":"Attended the\u00a0G20 Economic Summit. Met with Queen\u00a0Elizabeth II\u00a0and Prime Minister\u00a0Gordon Brown.","address":"London","placename":"London, UK","title":"London March 2009"}},{"local_stop_id":5,"id":5,"geometry":"POINT(862490.278966 6204424.062028)","attributes":{"description":"Attended the\u00a021st NATO Summit.","address":"Strasbourg\u00a0","placename":"Strasbourg, France","title":"Strasbourg April 2009"}},{"local_stop_id":4,"id":4,"geometry":"POINT(1607208.599835 6459368.000928)","attributes":{"description":"Attended a European Union-United States summit. Delivered public speech on nuclear disarmament. Met with Czech President\u00a0V\u00e1clav Klaus.","address":"Prague","placename":"Prague, Czech Republic","title":"Prague April 2009"}},{"local_stop_id":3,"id":3,"geometry":"POINT(3657302.795666 4854435.462708)","attributes":{"description":"Met with President\u00a0Abdullah G\u00fcl\u00a0and Prime Minister\u00a0Recep Tayyip Erdo\u011fan. Delivered a speech to the\u00a0Turkish Parliament.","address":"Ankara","placename":"Ankara\/Ankara Province, Turkey","title":"Ankara April 2009"}},{"local_stop_id":2,"id":2,"geometry":"POINT(4945034.420019 3938522.158876)","attributes":{"description":"Met with President\u00a0Jalal Talabani\u00a0and Prime Minister\u00a0Nouri al-Maliki. Visited with U.S. troops.","address":"Baghdad","placename":"Baghdad, Iraq","title":"Baghdad April 2009"}},{"local_stop_id":1,"id":1,"geometry":"POINT(-8575665.844927 4707025.361129)","attributes":{"address":"38\u00b053\u203251.61\u2033N 77\u00b02\u203211.58\u2033W","placename":"1600 Pennsylvania Ave NW, Washington, DC 20502, USA","title":"Whitehouse"}}],"hops":[{"from_stop_id":2,"to_stop_id":1,"geometry":"MULTILINESTRING((4945034.420019 3938522.158876,-8575665.844927 4707025.361129))","attributes":{}},{"from_stop_id":3,"to_stop_id":2,"geometry":"MULTILINESTRING((3657302.795666 4854435.462708,4945034.420019 3938522.158876))","attributes":{}},{"from_stop_id":4,"to_stop_id":3,"geometry":"MULTILINESTRING((1607208.599835 6459368.000928,3657302.795666 4854435.462708))","attributes":{}},{"from_stop_id":5,"to_stop_id":4,"geometry":"MULTILINESTRING((862490.278966 6204424.062028,1607208.599835 6459368.000928))","attributes":{}},{"from_stop_id":6,"to_stop_id":5,"geometry":"MULTILINESTRING((-14213.617675 6711530.778719,862490.278966 6204424.062028))","attributes":{}},{"from_stop_id":7,"to_stop_id":6,"geometry":"MULTILINESTRING((-8426572.990372 5688128.615033,-14213.617675 6711530.778719))","attributes":{}},{"from_stop_id":8,"to_stop_id":7,"geometry":"MULTILINESTRING((-8575665.844927 4707025.361129,-8426572.990372 5688128.615033))","attributes":{}},{"from_stop_id":9,"to_stop_id":1,"geometry":"MULTILINESTRING((-11035458.235264 2205935.269899,-8575665.844927 4707025.361129))","attributes":{}},{"from_stop_id":10,"to_stop_id":9,"geometry":"MULTILINESTRING((-6848004.012344 1194326.94252,-11035458.235264 2205935.269899))","attributes":{}},{"from_stop_id":11,"to_stop_id":10,"geometry":"MULTILINESTRING((-8575665.844927 4707025.361129,-6848004.012344 1194326.94252))","attributes":{}},{"from_stop_id":12,"to_stop_id":1,"geometry":"MULTILINESTRING((261848.144141 6250566.718238,-8575665.844927 4707025.361129))","attributes":{}},{"from_stop_id":13,"to_stop_id":12,"geometry":"MULTILINESTRING((1529225.021866 6630215.304327,261848.144141 6250566.718238))","attributes":{}},{"from_stop_id":14,"to_stop_id":13,"geometry":"MULTILINESTRING((3477143.509878 3509260.847708,1529225.021866 6630215.304327))","attributes":{}},{"from_stop_id":15,"to_stop_id":14,"geometry":"MULTILINESTRING((5201310.444784 2840370.714463,3477143.509878 3509260.847708))","attributes":{}},{"from_stop_id":16,"to_stop_id":15,"geometry":"MULTILINESTRING((-8575665.844927 4707025.361129,5201310.444784 2840370.714463))","attributes":{}},{"from_stop_id":17,"to_stop_id":1,"geometry":"MULTILINESTRING((-21852.68396 619431.019592,-8575665.844927 4707025.361129))","attributes":{}},{"from_stop_id":18,"to_stop_id":17,"geometry":"MULTILINESTRING((1386304.922131 5146447.807204,-21852.68396 619431.019592))","attributes":{}},{"from_stop_id":19,"to_stop_id":18,"geometry":"MULTILINESTRING((1387126.983174 5146238.131284,1386304.922131 5146447.807204))","attributes":{}},{"from_stop_id":20,"to_stop_id":19,"geometry":"MULTILINESTRING((4187327.274173 7507382.441369,1387126.983174 5146238.131284))","attributes":{}},{"from_stop_id":21,"to_stop_id":20,"geometry":"MULTILINESTRING((-8575665.844927 4707025.361129,4187327.274173 7507382.441369))","attributes":{}},{"from_stop_id":22,"to_stop_id":1,"geometry":"MULTILINESTRING((-11504179.5266 2352999.968169,-8575665.844927 4707025.361129))","attributes":{}},{"from_stop_id":23,"to_stop_id":22,"geometry":"MULTILINESTRING((-8575665.844927 4707025.361129,-11504179.5266 2352999.968169))","attributes":{}},{"from_stop_id":24,"to_stop_id":1,"geometry":"MULTILINESTRING((1399100.88609 7494204.059146,-8575665.844927 4707025.361129))","attributes":{}},{"from_stop_id":25,"to_stop_id":24,"geometry":"MULTILINESTRING((-8575665.844927 4707025.361129,1399100.88609 7494204.059146))","attributes":{}},{"from_stop_id":26,"to_stop_id":1,"geometry":"MULTILINESTRING((14135122.873308 4518371.425394,-8575665.844927 4707025.361129))","attributes":{}},{"from_stop_id":27,"to_stop_id":26,"geometry":"MULTILINESTRING((13522390.874053 3662706.345758,14135122.873308 4518371.425394))","attributes":{}},{"from_stop_id":28,"to_stop_id":27,"geometry":"MULTILINESTRING((11557171.277761 150527.162641,13522390.874053 3662706.345758))","attributes":{}},{"from_stop_id":29,"to_stop_id":28,"geometry":"MULTILINESTRING((15550409.624491 4257979.018924,11557171.277761 150527.162641))","attributes":{}},{"from_stop_id":30,"to_stop_id":29,"geometry":"MULTILINESTRING((-8575665.844927 4707025.361129,15550409.624491 4257979.018924))","attributes":{}},{"from_stop_id":31,"to_stop_id":1,"geometry":"MULTILINESTRING((1196934.482812 8380586.641639,-8575665.844927 4707025.361129))","attributes":{}},{"from_stop_id":32,"to_stop_id":31,"geometry":"MULTILINESTRING((-8575665.844927 4707025.361129,1196934.482812 8380586.641639))","attributes":{}},{"from_stop_id":33,"to_stop_id":1,"geometry":"MULTILINESTRING((1399100.88609 7494204.059146,-8575665.844927 4707025.361129))","attributes":{}},{"from_stop_id":34,"to_stop_id":33,"geometry":"MULTILINESTRING((-8575665.844927 4707025.361129,1399100.88609 7494204.059146))","attributes":{}},{"from_stop_id":35,"to_stop_id":1,"geometry":"MULTILINESTRING((7700158.744132 4099983.278138,-8575665.844927 4707025.361129))","attributes":{}},{"from_stop_id":36,"to_stop_id":35,"geometry":"MULTILINESTRING((-8575665.844927 4707025.361129,7700158.744132 4099983.278138))","attributes":{}},{"from_stop_id":37,"to_stop_id":1,"geometry":"MULTILINESTRING((1607208.599835 6459368.000928,-8575665.844927 4707025.361129))","attributes":{}},{"from_stop_id":38,"to_stop_id":37,"geometry":"MULTILINESTRING((-8575665.844927 4707025.361129,1607208.599835 6459368.000928))","attributes":{}},{"from_stop_id":39,"to_stop_id":1,"geometry":"MULTILINESTRING((-8836895.653825 5411933.999327,-8575665.844927 4707025.361129))","attributes":{}},{"from_stop_id":40,"to_stop_id":39,"geometry":"MULTILINESTRING((-8575665.844927 4707025.361129,-8836895.653825 5411933.999327))","attributes":{}},{"from_stop_id":41,"to_stop_id":1,"geometry":"MULTILINESTRING((15544433.90517 4224343.945859,-8575665.844927 4707025.361129))","attributes":{}},{"from_stop_id":42,"to_stop_id":41,"geometry":"MULTILINESTRING((14135122.873308 4518371.425394,15544433.90517 4224343.945859))","attributes":{}},{"from_stop_id":43,"to_stop_id":42,"geometry":"MULTILINESTRING((11893950.14076 -692824.391099,14135122.873308 4518371.425394))","attributes":{}},{"from_stop_id":44,"to_stop_id":43,"geometry":"MULTILINESTRING((8112703.544995 2163883.810239,11893950.14076 -692824.391099))","attributes":{}},{"from_stop_id":45,"to_stop_id":44,"geometry":"MULTILINESTRING((-8575665.844927 4707025.361129,8112703.544995 2163883.810239))","attributes":{}},{"from_stop_id":46,"to_stop_id":1,"geometry":"MULTILINESTRING((-1017434.542368 4682189.055432,-8575665.844927 4707025.361129))","attributes":{}},{"from_stop_id":47,"to_stop_id":46,"geometry":"MULTILINESTRING((-8575665.844927 4707025.361129,-1017434.542368 4682189.055432))","attributes":{}},{"from_stop_id":48,"to_stop_id":1,"geometry":"MULTILINESTRING((7710060.62397 4155321.385766,-8575665.844927 4707025.361129))","attributes":{}},{"from_stop_id":49,"to_stop_id":48,"geometry":"MULTILINESTRING((-8575665.844927 4707025.361129,7710060.62397 4155321.385766))","attributes":{}},{"from_stop_id":50,"to_stop_id":1,"geometry":"MULTILINESTRING((2339070.599316 6841760.762317,-8575665.844927 4707025.361129))","attributes":{}},{"from_stop_id":51,"to_stop_id":50,"geometry":"MULTILINESTRING((8362.542787 6335138.549649,2339070.599316 6841760.762317))","attributes":{}},{"from_stop_id":52,"to_stop_id":51,"geometry":"MULTILINESTRING((-14213.617675 6711530.778719,8362.542787 6335138.549649))","attributes":{}},{"from_stop_id":53,"to_stop_id":52,"geometry":"MULTILINESTRING((-696869.196224 7047898.741277,-14213.617675 6711530.778719))","attributes":{}},{"from_stop_id":54,"to_stop_id":53,"geometry":"MULTILINESTRING((-9925357.118619 1543372.817463,-696869.196224 7047898.741277))","attributes":{}},{"from_stop_id":55,"to_stop_id":54,"geometry":"MULTILINESTRING((-7863831.13466 -3957738.616994,-9925357.118619 1543372.817463))","attributes":{}},{"from_stop_id":56,"to_stop_id":55,"geometry":"MULTILINESTRING((-4810069.211096 -2620357.508326,-7863831.13466 -3957738.616994))","attributes":{}},{"from_stop_id":57,"to_stop_id":56,"geometry":"MULTILINESTRING((-8575665.844927 4707025.361129,-4810069.211096 -2620357.508326))","attributes":{}},{"from_stop_id":58,"to_stop_id":1,"geometry":"MULTILINESTRING((781169.943789 5396502.983891,-8575665.844927 4707025.361129))","attributes":{}},{"from_stop_id":59,"to_stop_id":58,"geometry":"MULTILINESTRING((-8575665.844927 4707025.361129,781169.943789 5396502.983891))","attributes":{}},{"from_stop_id":60,"to_stop_id":1,"geometry":"MULTILINESTRING((12822771.474149 -939522.605943,-8575665.844927 4707025.361129))","attributes":{}},{"from_stop_id":61,"to_stop_id":60,"geometry":"MULTILINESTRING((16600929.198947 -4202270.133617,12822771.474149 -939522.605943))","attributes":{}},{"from_stop_id":62,"to_stop_id":61,"geometry":"MULTILINESTRING((-8575665.844927 4707025.361129,16600929.198947 -4202270.133617))","attributes":{}},{"from_stop_id":63,"to_stop_id":1,"geometry":"MULTILINESTRING((14135122.873308 4518371.425394,-8575665.844927 4707025.361129))","attributes":{}},{"from_stop_id":64,"to_stop_id":63,"geometry":"MULTILINESTRING((-8575665.844927 4707025.361129,14135122.873308 4518371.425394))","attributes":{}},{"from_stop_id":65,"to_stop_id":1,"geometry":"MULTILINESTRING((-8246084.043043 512403.505278,-8575665.844927 4707025.361129))","attributes":{}},{"from_stop_id":66,"to_stop_id":65,"geometry":"MULTILINESTRING((-8575665.844927 4707025.361129,-8246084.043043 512403.505278))","attributes":{}},{"from_stop_id":67,"to_stop_id":1,"geometry":"MULTILINESTRING((7700158.744132 4099983.278138,-8575665.844927 4707025.361129))","attributes":{}},{"from_stop_id":68,"to_stop_id":67,"geometry":"MULTILINESTRING((-8575665.844927 4707025.361129,7700158.744132 4099983.278138))","attributes":{}},{"from_stop_id":69,"to_stop_id":1,"geometry":"MULTILINESTRING((-12212644.885312 2639444.276723,-8575665.844927 4707025.361129))","attributes":{}},{"from_stop_id":70,"to_stop_id":69,"geometry":"MULTILINESTRING((-8575665.844927 4707025.361129,-12212644.885312 2639444.276723))","attributes":{}}]},"editable":false}