{"supplychain":{"category":19,"created":1350155999,"enable_comments":true,"flags":0,"id":4300,"modified":1351524556,"other_perms":1,"passcode":null,"user_featured":false,"usergroup_id":null,"usergroup_perms":0,"user_id":1315,"owner":{"id":1315,"name":"cljim22","avatar":"http:\/\/free.sourcemap.com\/assets\/images\/default-user.png","banner_url":null,"display_name":null},"taxonomy":[{"description":"Test Maps","id":19,"left":35,"name":"test-maps","right":36,"title":"Test Maps "}],"attributes":{"sm:ui:tileset":"satellite","title":"British Fats Imports 1894-1898","description":"This is the first draft. Weighting by quantities to come.","tags":""},"stops":[{"local_stop_id":63,"id":63,"geometry":"POINT(3422455.89533 5861423.83008)","attributes":{"address":"Port of Odessa","placename":"Port of Odessa, Ukraine","title":"Rape Seeds","description":""}},{"local_stop_id":62,"id":62,"geometry":"POINT(8112703.544995 2163883.810239)","attributes":{"address":"Mumbai, Maharashtra","placename":"Mumbai, Maharashtra, India","title":"Flax Seeds","description":""}},{"local_stop_id":61,"id":61,"geometry":"POINT(9836623.79591 2580418.563368)","attributes":{"address":"Kolkata","placename":"Kolkata, West Bengal, India","title":"Flax Seeds","description":""}},{"local_stop_id":60,"id":60,"geometry":"POINT(-7081775.533003 -4638374.275084)","attributes":{"address":"Argentina","placename":"Argentina","title":"Flax Seeds","description":""}},{"local_stop_id":59,"id":59,"geometry":"POINT(4187663.548091 7509053.495697)","attributes":{"address":"Moscow","placename":"Moscow, Russia","title":"Flax Seeds","description":""}},{"local_stop_id":58,"id":58,"geometry":"POINT(-8836895.653825 5411933.999327)","attributes":{"address":"Toronto","placename":"Toronto, ON, Canada","title":"Lard","description":""}},{"local_stop_id":57,"id":57,"geometry":"POINT(-9754904.513941 5142738.902517)","attributes":{"address":"Chicago","placename":"Chicago, IL, USA","title":"Lard","description":""}},{"local_stop_id":56,"id":56,"geometry":"POINT(3428918.392521 3101070.050794)","attributes":{"address":"Egypt","placename":"Egypt","title":"Cottonseeds","description":""}},{"local_stop_id":55,"id":55,"geometry":"POINT(19468217.238607 -4997684.890551)","attributes":{"address":"New Zealand","placename":"New Zealand","title":"Oil Kernels\/Nuts","description":""}},{"local_stop_id":54,"id":54,"geometry":"POINT(16355181.927468 -3665678.208029)","attributes":{"address":"New South Wales","placename":"New South Wales, Australia","title":"Oil Kernels\/Nuts","description":""}},{"local_stop_id":53,"id":53,"geometry":"POINT(8991475.312498 879195.517639)","attributes":{"address":"Sri Lanka","placename":"Sri Lanka","title":"Oil Kernels\/Nuts","description":""}},{"local_stop_id":52,"id":52,"geometry":"POINT(11557171.277761 150527.162641)","attributes":{"address":"Singapore","placename":"Singapore","title":"Oil Kernels\/Nuts","description":""}},{"local_stop_id":51,"id":51,"geometry":"POINT(8933342.715933 1466636.185174)","attributes":{"address":"Chennai","placename":"Chennai, Tamil Nadu, India","title":"Oil Kernels\/Nuts","description":""}},{"local_stop_id":50,"id":50,"geometry":"POINT(965727.418131 1015263.983184)","attributes":{"address":"Nigeria","placename":"Nigeria","title":"Oil Kernels\/Nuts","description":""}},{"local_stop_id":49,"id":49,"geometry":"POINT(378022.433775 719874.393618)","attributes":{"address":"Lagos","placename":"Lagos, Nigeria","title":"Oil Kernels\/Nuts","description":""}},{"local_stop_id":48,"id":48,"geometry":"POINT(-113901.435063 887453.057712)","attributes":{"address":"Ghana","placename":"Ghana","title":"Oil Kernels\/Nuts","description":""}},{"local_stop_id":47,"id":47,"geometry":"POINT(-1311331.245081 945266.170437)","attributes":{"address":"Sierra Leone","placename":"Sierra Leone","title":"Oil Kernels\/Nuts","description":""}},{"local_stop_id":46,"id":46,"geometry":"POINT(-17786368.975855 -2420129.316471)","attributes":{"address":"Cook Islands","placename":"Cook Islands","title":"Oil Kernels\/Nuts","description":""}},{"local_stop_id":45,"id":45,"geometry":"POINT(13555821.564291 1445993.997497)","attributes":{"address":"Philippines","placename":"Philippines","title":"Oil Kernels\/Nuts","description":""}},{"local_stop_id":44,"id":44,"geometry":"POINT(-6418730.418966 7008102.877113)","attributes":{"address":"Newfoundland, Canada","placename":"Newfoundland and Labrador, Canada","title":"Train\/Whale  Oil","description":""}},{"local_stop_id":43,"id":43,"geometry":"POINT(-10429581.0900727 7858362.04208294)","attributes":{"address":"Canada","placename":"Canada","title":"Train\/Whale  Oil","description":""}},{"local_stop_id":42,"id":42,"geometry":"POINT(-3116945.742212 8399737.889818)","attributes":{"address":"60,-28","placename":"60,-28","title":"Train\/Whale  Oil","description":""}},{"local_stop_id":41,"id":41,"geometry":"POINT(-7896359.580426 5106641.05625)","attributes":{"address":"New Bedford, United States","placename":"New Bedford, MA, USA","title":"Train\/Whale  Oil","description":""}},{"local_stop_id":40,"id":40,"geometry":"POINT(15390245.100361 4328841.562513)","attributes":{"address":"Japan","placename":"Japan","title":"Train\/Whale  Oil","description":""}},{"local_stop_id":39,"id":39,"geometry":"POINT(1163458.552333 6650655.041174)","attributes":{"address":"Germany","placename":"Germany","title":"Train\/Whale  Oil","description":""}},{"local_stop_id":38,"id":38,"geometry":"POINT(1057733.867827 7611135.068229)","attributes":{"address":"Denmark","placename":"Denmark","title":"Train\/Whale  Oil","description":""}},{"local_stop_id":37,"id":37,"geometry":"POINT(942758.756276 8505587.038689)","attributes":{"address":"Norway","placename":"Norway","title":"Train\/Whale  Oil","description":""}},{"local_stop_id":36,"id":36,"geometry":"POINT(-7896359.580426 5106641.05625)","attributes":{"address":"New Bedford, United States","placename":"New Bedford, MA, USA","title":"Sperm\/Headmatter","description":""}},{"local_stop_id":35,"id":35,"geometry":"POINT(942758.756276 8505587.038689)","attributes":{"address":"Norway","placename":"Norway","title":"Sperm\/Headmatter","description":""}},{"local_stop_id":34,"id":34,"geometry":"POINT(-10654710.288472 4451692.554811)","attributes":{"address":"United States","placename":"United States","title":"Animal Oil","description":""}},{"local_stop_id":33,"id":33,"geometry":"POINT(9836623.79591 2580418.563368)","attributes":{"address":"Kolkata, India","placename":"Kolkata, West Bengal, India","title":"Castor Oil","description":""}},{"local_stop_id":32,"id":32,"geometry":"POINT(8933342.715933 1466636.185174)","attributes":{"address":"Chennai","placename":"Chennai, Tamil Nadu, India","title":"Castor Oil","description":""}},{"local_stop_id":31,"id":31,"geometry":"POINT(246433.411424 5816903.713427)","attributes":{"address":"France","placename":"France","title":"Castor Oil","description":""}},{"local_stop_id":30,"id":30,"geometry":"POINT(497590.999399 6534001.856289)","attributes":{"address":"Belgium","placename":"Belgium","title":"Castor Oil","description":""}},{"local_stop_id":29,"id":29,"geometry":"POINT(19468217.238607 -4997684.890551)","attributes":{"address":"New Zealand","placename":"New Zealand","title":"Tallow","description":""}},{"local_stop_id":28,"id":28,"geometry":"POINT(15885602.540969 -2382052.853692)","attributes":{"address":"Queensland","placename":"Queensland, Australia","title":"Tallow","description":""}},{"local_stop_id":27,"id":27,"geometry":"POINT(16355181.927468 -3665678.208029)","attributes":{"address":"New South Wales","placename":"New South Wales, Australia","title":"Tallow","description":""}},{"local_stop_id":26,"id":26,"geometry":"POINT(16138190.139122 -4552812.418907)","attributes":{"address":"melbourne australia","placename":"Melbourne VIC, Australia","title":"Tallow","description":""}},{"local_stop_id":25,"id":25,"geometry":"POINT(-7081775.533003 -4638374.275084)","attributes":{"address":"Argentina","placename":"Argentina","title":"Tallow","description":""}},{"local_stop_id":24,"id":24,"geometry":"POINT(-6207824.355862 -3832130.824994)","attributes":{"address":"Uruguay","placename":"Uruguay","title":"Tallow","description":""}},{"local_stop_id":23,"id":23,"geometry":"POINT(-10654710.288472 4451692.554811)","attributes":{"address":"United States","placename":"United States","title":"Tallow","description":""}},{"local_stop_id":22,"id":22,"geometry":"POINT(11598978.537043 4281602.659627)","attributes":{"address":"China","placename":"China","title":"Tallow","description":""}},{"local_stop_id":21,"id":21,"geometry":"POINT(246433.411424 5816903.713427)","attributes":{"address":"France","placename":"France","title":"Tallow","description":""}},{"local_stop_id":20,"id":20,"geometry":"POINT(497590.999399 6534001.856289)","attributes":{"address":"Belgium","placename":"Belgium","title":"Tallow","description":""}},{"local_stop_id":19,"id":19,"geometry":"POINT(965727.418131 1015263.983184)","attributes":{"address":"Nigeria","placename":"Nigeria","title":"Palm Oil","description":""}},{"local_stop_id":18,"id":18,"geometry":"POINT(378022.433775 719874.393618)","attributes":{"address":"Lagos","placename":"Lagos, Nigeria","title":"Palm Oil","description":""}},{"local_stop_id":17,"id":17,"geometry":"POINT(-113901.435063 887453.057712)","attributes":{"address":"Ghana","placename":"Ghana","title":"Palm Oil","description":""}},{"local_stop_id":16,"id":16,"geometry":"POINT(-1608829.5786 1631344.630706)","attributes":{"address":"Senegal","placename":"Senegal","title":"Palm Oil","description":""}},{"local_stop_id":15,"id":15,"geometry":"POINT(1163458.552333 6650655.041174)","attributes":{"address":"Germany","placename":"Germany","title":"Palm Oil","description":""}},{"local_stop_id":14,"id":14,"geometry":"POINT(3923268.658903 4716479.684629)","attributes":{"address":"Turkey","placename":"Turkey","title":"Olive Oil","description":""}},{"local_stop_id":13,"id":13,"geometry":"POINT(1398994.342206 5141815.937641)","attributes":{"address":"Itally","placename":"Italy","title":"Olive Oil","description":""}},{"local_stop_id":12,"id":12,"geometry":"POINT(-417361.261272 4933551.652462)","attributes":{"address":"Spain","placename":"Spain","title":"Olive Oil","description":""}},{"local_stop_id":11,"id":11,"geometry":"POINT(246433.411424 5816903.713427)","attributes":{"address":"France","placename":"France","title":"Olive Oil","description":""}},{"local_stop_id":10,"id":10,"geometry":"POINT(497590.999399 6534001.856289)","attributes":{"address":"Belgium","placename":"Belgium","title":"Coconut Oil","description":""}},{"local_stop_id":9,"id":9,"geometry":"POINT(14891780.020321 -2909486.054997)","attributes":{"address":"Australia","placename":"Australia","title":"Coconut Oil","description":""}},{"local_stop_id":8,"id":8,"geometry":"POINT(8991475.312498 879195.517639)","attributes":{"address":"Sri Lanka","placename":"Sri Lanka","title":"Coconut Oil","description":""}},{"local_stop_id":7,"id":7,"geometry":"POINT(8933342.715933 1466636.185174)","attributes":{"address":"Chennai","placename":"Chennai, Tamil Nadu, India","title":"Coconut Oil","description":""}},{"local_stop_id":6,"id":6,"geometry":"POINT(-10654710.288472 4451692.554811)","attributes":{"address":"United States","placename":"United States","title":"Seed Oil","description":""}},{"local_stop_id":5,"id":5,"geometry":"POINT(246433.411424 5816903.713427)","attributes":{"address":"France","placename":"France","title":"Seed Oil","description":""}},{"local_stop_id":4,"id":4,"geometry":"POINT(497590.999399 6534001.856289)","attributes":{"address":"Belgium","placename":"Belgium","title":"Seed Oil","description":""}},{"local_stop_id":3,"id":3,"geometry":"POINT(589021.036772 6824142.821624)","attributes":{"address":"Holland","placename":"The Netherlands","title":"Seed Oil","description":""}},{"local_stop_id":2,"id":2,"geometry":"POINT(1163458.552333 6650655.041174)","attributes":{"address":"Germany","placename":"Germany","title":"Seed Oil","description":""}},{"local_stop_id":1,"id":1,"geometry":"POINT(-382490.764739 7435586.530983)","attributes":{"address":"United Kingdom","placename":"United Kingdom","title":"Imported Fats","description":""}}],"hops":[{"from_stop_id":2,"to_stop_id":1,"geometry":"MULTILINESTRING((1163458.552333 6650655.041174,-382490.764739 7435586.530983))","attributes":{"title":"Seed Oil to Imported Fats","distance":"1032.984767"}},{"from_stop_id":3,"to_stop_id":1,"geometry":"MULTILINESTRING((589021.036772 6824142.821624,-382490.764739 7435586.530983))","attributes":{"title":"Seed Oil to Imported Fats","distance":"677.070324"}},{"from_stop_id":4,"to_stop_id":1,"geometry":"MULTILINESTRING((497590.999399 6534001.856289,-382490.764739 7435586.530983))","attributes":{"title":"Seed Oil to Imported Fats","distance":"757.010534"}},{"from_stop_id":5,"to_stop_id":1,"geometry":"MULTILINESTRING((246433.411424 5816903.713427,-382490.764739 7435586.530983))","attributes":{"title":"Seed Oil to Imported Fats","distance":"1091.316119"}},{"from_stop_id":6,"to_stop_id":1,"geometry":"MULTILINESTRING((-10654710.288472 4451692.554811,-382490.764739 7435586.530983))","attributes":{"title":"Seed Oil to Imported Fats","distance":"6830.403467"}},{"from_stop_id":7,"to_stop_id":1,"geometry":"MULTILINESTRING((8933342.715933 1466636.185174,-382490.764739 7435586.530983))","attributes":{"title":"Coconut Oil to Imported Fats","distance":"8418.538338"}},{"from_stop_id":8,"to_stop_id":1,"geometry":"MULTILINESTRING((8991475.312498 879195.517639,-382490.764739 7435586.530983))","attributes":{"title":"Coconut Oil to Imported Fats","distance":"8922.282592"}},{"from_stop_id":9,"to_stop_id":1,"geometry":"MULTILINESTRING((14891780.020321 -2909486.054997,-382490.764739 7435586.530983))","attributes":{"title":"Coconut Oil to Imported Fats","distance":"15206.038683"}},{"from_stop_id":10,"to_stop_id":1,"geometry":"MULTILINESTRING((497590.999399 6534001.856289,-382490.764739 7435586.530983))","attributes":{"title":"Coconut Oil to Imported Fats","distance":"757.010534"}},{"from_stop_id":11,"to_stop_id":1,"geometry":"MULTILINESTRING((246433.411424 5816903.713427,-382490.764739 7435586.530983))","attributes":{"title":"Olive Oil to Imported Fats","distance":"1091.316119"}},{"from_stop_id":12,"to_stop_id":1,"geometry":"MULTILINESTRING((-417361.261272 4933551.652462,-382490.764739 7435586.530983))","attributes":{"title":"Olive Oil to Imported Fats","distance":"1658.563742"}},{"from_stop_id":13,"to_stop_id":1,"geometry":"MULTILINESTRING((1398994.342206 5141815.937641,-382490.764739 7435586.530983))","attributes":{"title":"Olive Oil to Imported Fats","distance":"1898.049349"}},{"from_stop_id":14,"to_stop_id":1,"geometry":"MULTILINESTRING((3923268.658903 4716479.684629,-382490.764739 7435586.530983))","attributes":{"title":"Olive Oil to Imported Fats","distance":"3382.457835"}},{"from_stop_id":15,"to_stop_id":1,"geometry":"MULTILINESTRING((1163458.552333 6650655.041174,-382490.764739 7435586.530983))","attributes":{"title":"Palm Oil to Imported Fats","distance":"1032.984767"}},{"from_stop_id":16,"to_stop_id":1,"geometry":"MULTILINESTRING((-1608829.5786 1631344.630706,-382490.764739 7435586.530983))","attributes":{"title":"Palm Oil to Imported Fats","distance":"4643.528333"}},{"from_stop_id":17,"to_stop_id":1,"geometry":"MULTILINESTRING((-113901.435063 887453.057712,-382490.764739 7435586.530983))","attributes":{"title":"Palm Oil to Imported Fats","distance":"5278.458960"}},{"from_stop_id":18,"to_stop_id":1,"geometry":"MULTILINESTRING((378022.433775 719874.393618,-382490.764739 7435586.530983))","attributes":{"title":"Palm Oil to Imported Fats","distance":"5474.010950"}},{"from_stop_id":19,"to_stop_id":1,"geometry":"MULTILINESTRING((965727.418131 1015263.983184,-382490.764739 7435586.530983))","attributes":{"title":"Palm Oil to Imported Fats","distance":"5257.048533"}},{"from_stop_id":20,"to_stop_id":1,"geometry":"MULTILINESTRING((497590.999399 6534001.856289,-382490.764739 7435586.530983))","attributes":{"title":"Tallow to Imported Fats","distance":"757.010534"}},{"from_stop_id":21,"to_stop_id":1,"geometry":"MULTILINESTRING((246433.411424 5816903.713427,-382490.764739 7435586.530983))","attributes":{"title":"Tallow to Imported Fats","distance":"1091.316119"}},{"from_stop_id":22,"to_stop_id":1,"geometry":"MULTILINESTRING((11598978.537043 4281602.659627,-382490.764739 7435586.530983))","attributes":{"title":"Tallow to Imported Fats","distance":"7779.560130"}},{"from_stop_id":23,"to_stop_id":1,"geometry":"MULTILINESTRING((-10654710.288472 4451692.554811,-382490.764739 7435586.530983))","attributes":{"title":"Tallow to Imported Fats","distance":"6830.403467"}},{"from_stop_id":24,"to_stop_id":1,"geometry":"MULTILINESTRING((-6207824.355862 -3832130.824994,-382490.764739 7435586.530983))","attributes":{"title":"Tallow to Imported Fats","distance":"10964.686484"}},{"from_stop_id":25,"to_stop_id":1,"geometry":"MULTILINESTRING((-7081775.533003 -4638374.275084,-382490.764739 7435586.530983))","attributes":{"title":"Tallow to Imported Fats","distance":"11881.867043"}},{"from_stop_id":26,"to_stop_id":1,"geometry":"MULTILINESTRING((16138190.139122 -4552812.418907,-382490.764739 7435586.530983))","attributes":{"title":"Tallow to Imported Fats","distance":"16954.922668"}},{"from_stop_id":27,"to_stop_id":1,"geometry":"MULTILINESTRING((16355181.927468 -3665678.208029,-382490.764739 7435586.530983))","attributes":{"title":"Tallow to Imported Fats","distance":"16469.391859"}},{"from_stop_id":28,"to_stop_id":1,"geometry":"MULTILINESTRING((15885602.540969 -2382052.853692,-382490.764739 7435586.530983))","attributes":{"title":"Tallow to Imported Fats","distance":"15263.187999"}},{"from_stop_id":29,"to_stop_id":1,"geometry":"MULTILINESTRING((19468217.238607 -4997684.890551,-382490.764739 7435586.530983))","attributes":{"title":"Tallow to Imported Fats","distance":"18400.576286"}},{"from_stop_id":30,"to_stop_id":1,"geometry":"MULTILINESTRING((497590.999399 6534001.856289,-382490.764739 7435586.530983))","attributes":{"title":"Castor Oil to Imported Fats","distance":"757.010534"}},{"from_stop_id":31,"to_stop_id":1,"geometry":"MULTILINESTRING((246433.411424 5816903.713427,-382490.764739 7435586.530983))","attributes":{"title":"Castor Oil to Imported Fats","distance":"1091.316119"}},{"from_stop_id":32,"to_stop_id":1,"geometry":"MULTILINESTRING((8933342.715933 1466636.185174,-382490.764739 7435586.530983))","attributes":{"title":"Castor Oil to Imported Fats","distance":"8418.538338"}},{"from_stop_id":33,"to_stop_id":1,"geometry":"MULTILINESTRING((9836623.79591 2580418.563368,-382490.764739 7435586.530983))","attributes":{"title":"Castor Oil to Imported Fats","distance":"8070.332328"}},{"from_stop_id":34,"to_stop_id":1,"geometry":"MULTILINESTRING((-10654710.288472 4451692.554811,-382490.764739 7435586.530983))","attributes":{"title":"Animal Oil to Imported Fats","distance":"6830.403467"}},{"from_stop_id":35,"to_stop_id":1,"geometry":"MULTILINESTRING((942758.756276 8505587.038689,-382490.764739 7435586.530983))","attributes":{"title":"Sperm\/Headmatter to Imported Fats","distance":"900.499826"}},{"from_stop_id":36,"to_stop_id":1,"geometry":"MULTILINESTRING((-7896359.580426 5106641.05625,-382490.764739 7435586.530983))","attributes":{"title":"Sperm\/Headmatter to Imported Fats","distance":"4984.368128"}},{"from_stop_id":37,"to_stop_id":1,"geometry":"MULTILINESTRING((942758.756276 8505587.038689,-382490.764739 7435586.530983))","attributes":{"title":"Train\/Whale  Oil to Imported Fats","distance":"900.499826"}},{"from_stop_id":38,"to_stop_id":1,"geometry":"MULTILINESTRING((1057733.867827 7611135.068229,-382490.764739 7435586.530983))","attributes":{"title":"Train\/Whale  Oil to Imported Fats","distance":"812.937688"}},{"from_stop_id":39,"to_stop_id":1,"geometry":"MULTILINESTRING((1163458.552333 6650655.041174,-382490.764739 7435586.530983))","attributes":{"title":"Train\/Whale  Oil to Imported Fats","distance":"1032.984767"}},{"from_stop_id":40,"to_stop_id":1,"geometry":"MULTILINESTRING((15390245.100361 4328841.562513,-382490.764739 7435586.530983))","attributes":{"title":"Train\/Whale  Oil to Imported Fats","distance":"9200.423242"}},{"from_stop_id":41,"to_stop_id":1,"geometry":"MULTILINESTRING((-7896359.580426 5106641.05625,-382490.764739 7435586.530983))","attributes":{"title":"Train\/Whale  Oil to Imported Fats","distance":"4984.368128"}},{"from_stop_id":42,"to_stop_id":1,"geometry":"MULTILINESTRING((-3116945.742212 8399737.889818,-382490.764739 7435586.530983))","attributes":{"title":"Train\/Whale  Oil to Imported Fats","distance":"1537.056313"}},{"from_stop_id":43,"to_stop_id":1,"geometry":"MULTILINESTRING((-10429581.090073 7858362.0420829,-382490.764739 7435586.530983))","attributes":{"title":"Train\/Whale  Oil to Imported Fats","distance":"5807.429074"}},{"from_stop_id":44,"to_stop_id":1,"geometry":"MULTILINESTRING((-6418730.418966 7008102.877113,-382490.764739 7435586.530983))","attributes":{"title":"Train\/Whale  Oil to Imported Fats","distance":"3441.093620"}},{"from_stop_id":45,"to_stop_id":1,"geometry":"MULTILINESTRING((13555821.564291 1445993.997497,-382490.764739 7435586.530983))","attributes":{"title":"Oil Kernels\/Nuts to Imported Fats","distance":"10876.122854"}},{"from_stop_id":46,"to_stop_id":1,"geometry":"MULTILINESTRING((-17786368.975855 -2420129.316471,-382490.764739 7435586.530983))","attributes":{"title":"Oil Kernels\/Nuts to Imported Fats","distance":"15739.605362"}},{"from_stop_id":47,"to_stop_id":1,"geometry":"MULTILINESTRING((-1311331.245081 945266.170437,-382490.764739 7435586.530983))","attributes":{"title":"Oil Kernels\/Nuts to Imported Fats","distance":"5268.681382"}},{"from_stop_id":48,"to_stop_id":1,"geometry":"MULTILINESTRING((-113901.435063 887453.057712,-382490.764739 7435586.530983))","attributes":{"title":"Oil Kernels\/Nuts to Imported Fats","distance":"5278.458960"}},{"from_stop_id":49,"to_stop_id":1,"geometry":"MULTILINESTRING((378022.433775 719874.393618,-382490.764739 7435586.530983))","attributes":{"title":"Oil Kernels\/Nuts to Imported Fats","distance":"5474.010950"}},{"from_stop_id":50,"to_stop_id":1,"geometry":"MULTILINESTRING((965727.418131 1015263.983184,-382490.764739 7435586.530983))","attributes":{"title":"Oil Kernels\/Nuts to Imported Fats","distance":"5257.048533"}},{"from_stop_id":51,"to_stop_id":1,"geometry":"MULTILINESTRING((8933342.715933 1466636.185174,-382490.764739 7435586.530983))","attributes":{"title":"Oil Kernels\/Nuts to Imported Fats","distance":"8418.538338"}},{"from_stop_id":52,"to_stop_id":1,"geometry":"MULTILINESTRING((11557171.277761 150527.162641,-382490.764739 7435586.530983))","attributes":{"title":"Oil Kernels\/Nuts to Imported Fats","distance":"10960.841937"}},{"from_stop_id":53,"to_stop_id":1,"geometry":"MULTILINESTRING((8991475.312498 879195.517639,-382490.764739 7435586.530983))","attributes":{"title":"Oil Kernels\/Nuts to Imported Fats","distance":"8922.282592"}},{"from_stop_id":54,"to_stop_id":1,"geometry":"MULTILINESTRING((16355181.927468 -3665678.208029,-382490.764739 7435586.530983))","attributes":{"title":"Oil Kernels\/Nuts to Imported Fats","distance":"16469.391859"}},{"from_stop_id":55,"to_stop_id":1,"geometry":"MULTILINESTRING((19468217.238607 -4997684.890551,-382490.764739 7435586.530983))","attributes":{"title":"Oil Kernels\/Nuts to Imported Fats","distance":"18400.576286"}},{"from_stop_id":56,"to_stop_id":1,"geometry":"MULTILINESTRING((3428918.392521 3101070.050794,-382490.764739 7435586.530983))","attributes":{"title":"Cottonseeds to Imported Fats","distance":"4199.897932"}},{"from_stop_id":57,"to_stop_id":1,"geometry":"MULTILINESTRING((-9754904.513941 5142738.902517,-382490.764739 7435586.530983))","attributes":{"title":"Lard to Imported Fats","distance":"5970.217405"}},{"from_stop_id":58,"to_stop_id":1,"geometry":"MULTILINESTRING((-8836895.653825 5411933.999327,-382490.764739 7435586.530983))","attributes":{"title":"Lard to Imported Fats","distance":"5348.146156"}},{"from_stop_id":59,"to_stop_id":1,"geometry":"MULTILINESTRING((4187663.548091 7509053.495697,-382490.764739 7435586.530983))","attributes":{"title":"Flax Seeds to Imported Fats","distance":"2543.711975"}},{"from_stop_id":60,"to_stop_id":1,"geometry":"MULTILINESTRING((-7081775.533003 -4638374.275084,-382490.764739 7435586.530983))","attributes":{"title":"Flax Seeds to Imported Fats","distance":"11881.867043"}},{"from_stop_id":61,"to_stop_id":1,"geometry":"MULTILINESTRING((9836623.79591 2580418.563368,-382490.764739 7435586.530983))","attributes":{"title":"Flax Seeds to Imported Fats","distance":"8070.332328"}},{"from_stop_id":62,"to_stop_id":1,"geometry":"MULTILINESTRING((8112703.544995 2163883.810239,-382490.764739 7435586.530983))","attributes":{"title":"Flax Seeds to Imported Fats","distance":"7413.575661"}},{"from_stop_id":63,"to_stop_id":1,"geometry":"MULTILINESTRING((3422455.89533 5861423.83008,-382490.764739 7435586.530983))","attributes":{"title":"Rape Seeds to Imported Fats","distance":"2557.880612"}}]},"editable":false}