{"type":"FeatureCollection","features":[{"type":"Feature","geometry":{"type":"Point","coordinates":[30.744444399999,46.503611100002]},"properties":{"address":"Port of Odessa","placename":"Port of Odessa, Ukraine","title":"Rape Seeds","description":""}},{"type":"Feature","geometry":{"type":"Point","coordinates":[72.877655899996,19.075983700002]},"properties":{"address":"Mumbai, Maharashtra","placename":"Mumbai, Maharashtra, India","title":"Flax Seeds","description":""}},{"type":"Feature","geometry":{"type":"Point","coordinates":[88.363894999997,22.572645999997]},"properties":{"address":"Kolkata","placename":"Kolkata, West Bengal, India","title":"Flax Seeds","description":""}},{"type":"Feature","geometry":{"type":"Point","coordinates":[-63.616672000003,-38.416096999997]},"properties":{"address":"Argentina","placename":"Argentina","title":"Flax Seeds","description":""}},{"type":"Feature","geometry":{"type":"Point","coordinates":[37.618421700003,55.751241899998]},"properties":{"address":"Moscow","placename":"Moscow, Russia","title":"Flax Seeds","description":""}},{"type":"Feature","geometry":{"type":"Point","coordinates":[-79.383184300004,43.653226000002]},"properties":{"address":"Toronto","placename":"Toronto, ON, Canada","title":"Lard","description":""}},{"type":"Feature","geometry":{"type":"Point","coordinates":[-87.629798199997,41.878113600002]},"properties":{"address":"Chicago","placename":"Chicago, IL, USA","title":"Lard","description":""}},{"type":"Feature","geometry":{"type":"Point","coordinates":[30.802498000002,26.820553000001]},"properties":{"address":"Egypt","placename":"Egypt","title":"Cottonseeds","description":""}},{"type":"Feature","geometry":{"type":"Point","coordinates":[174.885971,-40.900556999999]},"properties":{"address":"New Zealand","placename":"New Zealand","title":"Oil Kernels\/Nuts","description":""}},{"type":"Feature","geometry":{"type":"Point","coordinates":[146.921099,-31.253218299999]},"properties":{"address":"New South Wales","placename":"New South Wales, Australia","title":"Oil Kernels\/Nuts","description":""}},{"type":"Feature","geometry":{"type":"Point","coordinates":[80.771797000003,7.8730540000028]},"properties":{"address":"Sri Lanka","placename":"Sri Lanka","title":"Oil Kernels\/Nuts","description":""}},{"type":"Feature","geometry":{"type":"Point","coordinates":[103.819836,1.3520830000039]},"properties":{"address":"Singapore","placename":"Singapore","title":"Oil Kernels\/Nuts","description":""}},{"type":"Feature","geometry":{"type":"Point","coordinates":[80.249583000004,13.060421999997]},"properties":{"address":"Chennai","placename":"Chennai, Tamil Nadu, India","title":"Oil Kernels\/Nuts","description":""}},{"type":"Feature","geometry":{"type":"Point","coordinates":[8.6752770000036,9.0819989999966]},"properties":{"address":"Nigeria","placename":"Nigeria","title":"Oil Kernels\/Nuts","description":""}},{"type":"Feature","geometry":{"type":"Point","coordinates":[3.3958333000014,6.4530556000005]},"properties":{"address":"Lagos","placename":"Lagos, Nigeria","title":"Oil Kernels\/Nuts","description":""}},{"type":"Feature","geometry":{"type":"Point","coordinates":[-1.0231940000024,7.9465270000027]},"properties":{"address":"Ghana","placename":"Ghana","title":"Oil Kernels\/Nuts","description":""}},{"type":"Feature","geometry":{"type":"Point","coordinates":[-11.779888999997,8.4605550000039]},"properties":{"address":"Sierra Leone","placename":"Sierra Leone","title":"Oil Kernels\/Nuts","description":""}},{"type":"Feature","geometry":{"type":"Point","coordinates":[-159.777671,-21.236735999998]},"properties":{"address":"Cook Islands","placename":"Cook Islands","title":"Oil Kernels\/Nuts","description":""}},{"type":"Feature","geometry":{"type":"Point","coordinates":[121.774017,12.879720999999]},"properties":{"address":"Philippines","placename":"Philippines","title":"Oil Kernels\/Nuts","description":""}},{"type":"Feature","geometry":{"type":"Point","coordinates":[-57.660436400001,53.1355091]},"properties":{"address":"Newfoundland, Canada","placename":"Newfoundland and Labrador, Canada","title":"Train\/Whale  Oil","description":""}},{"type":"Feature","geometry":{"type":"Point","coordinates":[-93.690521001762,57.477566255613]},"properties":{"address":"Canada","placename":"Canada","title":"Train\/Whale  Oil","description":""}},{"type":"Feature","geometry":{"type":"Point","coordinates":[-28.000000000003,59.999999999998]},"properties":{"address":"60,-28","placename":"60,-28","title":"Train\/Whale  Oil","description":""}},{"type":"Feature","geometry":{"type":"Point","coordinates":[-70.934205000003,41.636215200002]},"properties":{"address":"New Bedford, United States","placename":"New Bedford, MA, USA","title":"Train\/Whale  Oil","description":""}},{"type":"Feature","geometry":{"type":"Point","coordinates":[138.252924,36.204824000001]},"properties":{"address":"Japan","placename":"Japan","title":"Train\/Whale  Oil","description":""}},{"type":"Feature","geometry":{"type":"Point","coordinates":[10.451526000003,51.165690999999]},"properties":{"address":"Germany","placename":"Germany","title":"Train\/Whale  Oil","description":""}},{"type":"Feature","geometry":{"type":"Point","coordinates":[9.5017849999985,56.263920000001]},"properties":{"address":"Denmark","placename":"Denmark","title":"Train\/Whale  Oil","description":""}},{"type":"Feature","geometry":{"type":"Point","coordinates":[8.4689460000024,60.472024]},"properties":{"address":"Norway","placename":"Norway","title":"Train\/Whale  Oil","description":""}},{"type":"Feature","geometry":{"type":"Point","coordinates":[-70.934205000003,41.636215200002]},"properties":{"address":"New Bedford, United States","placename":"New Bedford, MA, USA","title":"Sperm\/Headmatter","description":""}},{"type":"Feature","geometry":{"type":"Point","coordinates":[8.4689460000024,60.472024]},"properties":{"address":"Norway","placename":"Norway","title":"Sperm\/Headmatter","description":""}},{"type":"Feature","geometry":{"type":"Point","coordinates":[-95.712890999999,37.090240000003]},"properties":{"address":"United States","placename":"United States","title":"Animal Oil","description":""}},{"type":"Feature","geometry":{"type":"Point","coordinates":[88.363894999997,22.572645999997]},"properties":{"address":"Kolkata, India","placename":"Kolkata, West Bengal, India","title":"Castor Oil","description":""}},{"type":"Feature","geometry":{"type":"Point","coordinates":[80.249583000004,13.060421999997]},"properties":{"address":"Chennai","placename":"Chennai, Tamil Nadu, India","title":"Castor Oil","description":""}},{"type":"Feature","geometry":{"type":"Point","coordinates":[2.2137489999989,46.227638]},"properties":{"address":"France","placename":"France","title":"Castor Oil","description":""}},{"type":"Feature","geometry":{"type":"Point","coordinates":[4.4699360000043,50.503887000001]},"properties":{"address":"Belgium","placename":"Belgium","title":"Castor Oil","description":""}},{"type":"Feature","geometry":{"type":"Point","coordinates":[174.885971,-40.900556999999]},"properties":{"address":"New Zealand","placename":"New Zealand","title":"Tallow","description":""}},{"type":"Feature","geometry":{"type":"Point","coordinates":[142.7027956,-20.917573800002]},"properties":{"address":"Queensland","placename":"Queensland, Australia","title":"Tallow","description":""}},{"type":"Feature","geometry":{"type":"Point","coordinates":[146.921099,-31.253218299999]},"properties":{"address":"New South Wales","placename":"New South Wales, Australia","title":"Tallow","description":""}},{"type":"Feature","geometry":{"type":"Point","coordinates":[144.9718286,-37.811366700003]},"properties":{"address":"melbourne australia","placename":"Melbourne VIC, Australia","title":"Tallow","description":""}},{"type":"Feature","geometry":{"type":"Point","coordinates":[-63.616672000003,-38.416096999997]},"properties":{"address":"Argentina","placename":"Argentina","title":"Tallow","description":""}},{"type":"Feature","geometry":{"type":"Point","coordinates":[-55.765835000003,-32.522779000001]},"properties":{"address":"Uruguay","placename":"Uruguay","title":"Tallow","description":""}},{"type":"Feature","geometry":{"type":"Point","coordinates":[-95.712890999999,37.090240000003]},"properties":{"address":"United States","placename":"United States","title":"Tallow","description":""}},{"type":"Feature","geometry":{"type":"Point","coordinates":[104.195397,35.861660000001]},"properties":{"address":"China","placename":"China","title":"Tallow","description":""}},{"type":"Feature","geometry":{"type":"Point","coordinates":[2.2137489999989,46.227638]},"properties":{"address":"France","placename":"France","title":"Tallow","description":""}},{"type":"Feature","geometry":{"type":"Point","coordinates":[4.4699360000043,50.503887000001]},"properties":{"address":"Belgium","placename":"Belgium","title":"Tallow","description":""}},{"type":"Feature","geometry":{"type":"Point","coordinates":[8.6752770000036,9.0819989999966]},"properties":{"address":"Nigeria","placename":"Nigeria","title":"Palm Oil","description":""}},{"type":"Feature","geometry":{"type":"Point","coordinates":[3.3958333000014,6.4530556000005]},"properties":{"address":"Lagos","placename":"Lagos, Nigeria","title":"Palm Oil","description":""}},{"type":"Feature","geometry":{"type":"Point","coordinates":[-1.0231940000024,7.9465270000027]},"properties":{"address":"Ghana","placename":"Ghana","title":"Palm Oil","description":""}},{"type":"Feature","geometry":{"type":"Point","coordinates":[-14.452361999999,14.497400999997]},"properties":{"address":"Senegal","placename":"Senegal","title":"Palm Oil","description":""}},{"type":"Feature","geometry":{"type":"Point","coordinates":[10.451526000003,51.165690999999]},"properties":{"address":"Germany","placename":"Germany","title":"Palm Oil","description":""}},{"type":"Feature","geometry":{"type":"Point","coordinates":[35.243321999997,38.963745000001]},"properties":{"address":"Turkey","placename":"Turkey","title":"Olive Oil","description":""}},{"type":"Feature","geometry":{"type":"Point","coordinates":[12.567380000004,41.871939999999]},"properties":{"address":"Itally","placename":"Italy","title":"Olive Oil","description":""}},{"type":"Feature","geometry":{"type":"Point","coordinates":[-3.7492200000004,40.463667000002]},"properties":{"address":"Spain","placename":"Spain","title":"Olive Oil","description":""}},{"type":"Feature","geometry":{"type":"Point","coordinates":[2.2137489999989,46.227638]},"properties":{"address":"France","placename":"France","title":"Olive Oil","description":""}},{"type":"Feature","geometry":{"type":"Point","coordinates":[4.4699360000043,50.503887000001]},"properties":{"address":"Belgium","placename":"Belgium","title":"Coconut Oil","description":""}},{"type":"Feature","geometry":{"type":"Point","coordinates":[133.775136,-25.274397999999]},"properties":{"address":"Australia","placename":"Australia","title":"Coconut Oil","description":""}},{"type":"Feature","geometry":{"type":"Point","coordinates":[80.771797000003,7.8730540000028]},"properties":{"address":"Sri Lanka","placename":"Sri Lanka","title":"Coconut Oil","description":""}},{"type":"Feature","geometry":{"type":"Point","coordinates":[80.249583000004,13.060421999997]},"properties":{"address":"Chennai","placename":"Chennai, Tamil Nadu, India","title":"Coconut Oil","description":""}},{"type":"Feature","geometry":{"type":"Point","coordinates":[-95.712890999999,37.090240000003]},"properties":{"address":"United States","placename":"United States","title":"Seed Oil","description":""}},{"type":"Feature","geometry":{"type":"Point","coordinates":[2.2137489999989,46.227638]},"properties":{"address":"France","placename":"France","title":"Seed Oil","description":""}},{"type":"Feature","geometry":{"type":"Point","coordinates":[4.4699360000043,50.503887000001]},"properties":{"address":"Belgium","placename":"Belgium","title":"Seed Oil","description":""}},{"type":"Feature","geometry":{"type":"Point","coordinates":[5.2912660000021,52.132633000001]},"properties":{"address":"Holland","placename":"The Netherlands","title":"Seed Oil","description":""}},{"type":"Feature","geometry":{"type":"Point","coordinates":[10.451526000003,51.165690999999]},"properties":{"address":"Germany","placename":"Germany","title":"Seed Oil","description":""}},{"type":"Feature","geometry":{"type":"Point","coordinates":[-3.4359729999961,55.378051000001]},"properties":{"address":"United Kingdom","placename":"United Kingdom","title":"Imported Fats","description":""}},{"type":"Feature","geometry":{"type":"LineString","coordinates":[[10.451526000003,51.165690999999],[-3.4359729999961,55.378051000001]]},"properties":{"title":"Seed Oil to Imported Fats","distance":"1032.984767"}},{"type":"Feature","geometry":{"type":"LineString","coordinates":[[5.2912660000021,52.132633000001],[-3.4359729999961,55.378051000001]]},"properties":{"title":"Seed Oil to Imported Fats","distance":"677.070324"}},{"type":"Feature","geometry":{"type":"LineString","coordinates":[[4.4699360000043,50.503887000001],[-3.4359729999961,55.378051000001]]},"properties":{"title":"Seed Oil to Imported Fats","distance":"757.010534"}},{"type":"Feature","geometry":{"type":"LineString","coordinates":[[2.2137489999989,46.227638],[-3.4359729999961,55.378051000001]]},"properties":{"title":"Seed Oil to Imported Fats","distance":"1091.316119"}},{"type":"Feature","geometry":{"type":"LineString","coordinates":[[-95.712890999999,37.090240000003],[-3.4359729999961,55.378051000001]]},"properties":{"title":"Seed Oil to Imported Fats","distance":"6830.403467"}},{"type":"Feature","geometry":{"type":"LineString","coordinates":[[80.249583000004,13.060421999997],[-3.4359729999961,55.378051000001]]},"properties":{"title":"Coconut Oil to Imported Fats","distance":"8418.538338"}},{"type":"Feature","geometry":{"type":"LineString","coordinates":[[80.771797000003,7.8730540000028],[-3.4359729999961,55.378051000001]]},"properties":{"title":"Coconut Oil to Imported Fats","distance":"8922.282592"}},{"type":"Feature","geometry":{"type":"LineString","coordinates":[[133.775136,-25.274397999999],[-3.4359729999961,55.378051000001]]},"properties":{"title":"Coconut Oil to Imported Fats","distance":"15206.038683"}},{"type":"Feature","geometry":{"type":"LineString","coordinates":[[4.4699360000043,50.503887000001],[-3.4359729999961,55.378051000001]]},"properties":{"title":"Coconut Oil to Imported Fats","distance":"757.010534"}},{"type":"Feature","geometry":{"type":"LineString","coordinates":[[2.2137489999989,46.227638],[-3.4359729999961,55.378051000001]]},"properties":{"title":"Olive Oil to Imported Fats","distance":"1091.316119"}},{"type":"Feature","geometry":{"type":"LineString","coordinates":[[-3.7492200000004,40.463667000002],[-3.4359729999961,55.378051000001]]},"properties":{"title":"Olive Oil to Imported Fats","distance":"1658.563742"}},{"type":"Feature","geometry":{"type":"LineString","coordinates":[[12.567380000004,41.871939999999],[-3.4359729999961,55.378051000001]]},"properties":{"title":"Olive Oil to Imported Fats","distance":"1898.049349"}},{"type":"Feature","geometry":{"type":"LineString","coordinates":[[35.243321999997,38.963745000001],[-3.4359729999961,55.378051000001]]},"properties":{"title":"Olive Oil to Imported Fats","distance":"3382.457835"}},{"type":"Feature","geometry":{"type":"LineString","coordinates":[[10.451526000003,51.165690999999],[-3.4359729999961,55.378051000001]]},"properties":{"title":"Palm Oil to Imported Fats","distance":"1032.984767"}},{"type":"Feature","geometry":{"type":"LineString","coordinates":[[-14.452361999999,14.497400999997],[-3.4359729999961,55.378051000001]]},"properties":{"title":"Palm Oil to Imported Fats","distance":"4643.528333"}},{"type":"Feature","geometry":{"type":"LineString","coordinates":[[-1.0231940000024,7.9465270000027],[-3.4359729999961,55.378051000001]]},"properties":{"title":"Palm Oil to Imported Fats","distance":"5278.458960"}},{"type":"Feature","geometry":{"type":"LineString","coordinates":[[3.3958333000014,6.4530556000005],[-3.4359729999961,55.378051000001]]},"properties":{"title":"Palm Oil to Imported Fats","distance":"5474.010950"}},{"type":"Feature","geometry":{"type":"LineString","coordinates":[[8.6752770000036,9.0819989999966],[-3.4359729999961,55.378051000001]]},"properties":{"title":"Palm Oil to Imported Fats","distance":"5257.048533"}},{"type":"Feature","geometry":{"type":"LineString","coordinates":[[4.4699360000043,50.503887000001],[-3.4359729999961,55.378051000001]]},"properties":{"title":"Tallow to Imported Fats","distance":"757.010534"}},{"type":"Feature","geometry":{"type":"LineString","coordinates":[[2.2137489999989,46.227638],[-3.4359729999961,55.378051000001]]},"properties":{"title":"Tallow to Imported Fats","distance":"1091.316119"}},{"type":"Feature","geometry":{"type":"LineString","coordinates":[[104.195397,35.861660000001],[-3.4359729999961,55.378051000001]]},"properties":{"title":"Tallow to Imported Fats","distance":"7779.560130"}},{"type":"Feature","geometry":{"type":"LineString","coordinates":[[-95.712890999999,37.090240000003],[-3.4359729999961,55.378051000001]]},"properties":{"title":"Tallow to Imported Fats","distance":"6830.403467"}},{"type":"Feature","geometry":{"type":"LineString","coordinates":[[-55.765835000003,-32.522779000001],[-3.4359729999961,55.378051000001]]},"properties":{"title":"Tallow to Imported Fats","distance":"10964.686484"}},{"type":"Feature","geometry":{"type":"LineString","coordinates":[[-63.616672000003,-38.416096999997],[-3.4359729999961,55.378051000001]]},"properties":{"title":"Tallow to Imported Fats","distance":"11881.867043"}},{"type":"Feature","geometry":{"type":"LineString","coordinates":[[144.9718286,-37.811366700003],[-3.4359729999961,55.378051000001]]},"properties":{"title":"Tallow to Imported Fats","distance":"16954.922668"}},{"type":"Feature","geometry":{"type":"LineString","coordinates":[[146.921099,-31.253218299999],[-3.4359729999961,55.378051000001]]},"properties":{"title":"Tallow to Imported Fats","distance":"16469.391859"}},{"type":"Feature","geometry":{"type":"LineString","coordinates":[[142.7027956,-20.917573800002],[-3.4359729999961,55.378051000001]]},"properties":{"title":"Tallow to Imported Fats","distance":"15263.187999"}},{"type":"Feature","geometry":{"type":"LineString","coordinates":[[174.885971,-40.900556999999],[-3.4359729999961,55.378051000001]]},"properties":{"title":"Tallow to Imported Fats","distance":"18400.576286"}},{"type":"Feature","geometry":{"type":"LineString","coordinates":[[4.4699360000043,50.503887000001],[-3.4359729999961,55.378051000001]]},"properties":{"title":"Castor Oil to Imported Fats","distance":"757.010534"}},{"type":"Feature","geometry":{"type":"LineString","coordinates":[[2.2137489999989,46.227638],[-3.4359729999961,55.378051000001]]},"properties":{"title":"Castor Oil to Imported Fats","distance":"1091.316119"}},{"type":"Feature","geometry":{"type":"LineString","coordinates":[[80.249583000004,13.060421999997],[-3.4359729999961,55.378051000001]]},"properties":{"title":"Castor Oil to Imported Fats","distance":"8418.538338"}},{"type":"Feature","geometry":{"type":"LineString","coordinates":[[88.363894999997,22.572645999997],[-3.4359729999961,55.378051000001]]},"properties":{"title":"Castor Oil to Imported Fats","distance":"8070.332328"}},{"type":"Feature","geometry":{"type":"LineString","coordinates":[[-95.712890999999,37.090240000003],[-3.4359729999961,55.378051000001]]},"properties":{"title":"Animal Oil to Imported Fats","distance":"6830.403467"}},{"type":"Feature","geometry":{"type":"LineString","coordinates":[[8.4689460000024,60.472024],[-3.4359729999961,55.378051000001]]},"properties":{"title":"Sperm\/Headmatter to Imported Fats","distance":"900.499826"}},{"type":"Feature","geometry":{"type":"LineString","coordinates":[[-70.934205000003,41.636215200002],[-3.4359729999961,55.378051000001]]},"properties":{"title":"Sperm\/Headmatter to Imported Fats","distance":"4984.368128"}},{"type":"Feature","geometry":{"type":"LineString","coordinates":[[8.4689460000024,60.472024],[-3.4359729999961,55.378051000001]]},"properties":{"title":"Train\/Whale  Oil to Imported Fats","distance":"900.499826"}},{"type":"Feature","geometry":{"type":"LineString","coordinates":[[9.5017849999985,56.263920000001],[-3.4359729999961,55.378051000001]]},"properties":{"title":"Train\/Whale  Oil to Imported Fats","distance":"812.937688"}},{"type":"Feature","geometry":{"type":"LineString","coordinates":[[10.451526000003,51.165690999999],[-3.4359729999961,55.378051000001]]},"properties":{"title":"Train\/Whale  Oil to Imported Fats","distance":"1032.984767"}},{"type":"Feature","geometry":{"type":"LineString","coordinates":[[138.252924,36.204824000001],[-3.4359729999961,55.378051000001]]},"properties":{"title":"Train\/Whale  Oil to Imported Fats","distance":"9200.423242"}},{"type":"Feature","geometry":{"type":"LineString","coordinates":[[-70.934205000003,41.636215200002],[-3.4359729999961,55.378051000001]]},"properties":{"title":"Train\/Whale  Oil to Imported Fats","distance":"4984.368128"}},{"type":"Feature","geometry":{"type":"LineString","coordinates":[[-28.000000000003,59.999999999998],[-3.4359729999961,55.378051000001]]},"properties":{"title":"Train\/Whale  Oil to Imported Fats","distance":"1537.056313"}},{"type":"Feature","geometry":{"type":"LineString","coordinates":[[-93.690521001765,57.477566255613],[-3.4359729999961,55.378051000001]]},"properties":{"title":"Train\/Whale  Oil to Imported Fats","distance":"5807.429074"}},{"type":"Feature","geometry":{"type":"LineString","coordinates":[[-57.660436400001,53.1355091],[-3.4359729999961,55.378051000001]]},"properties":{"title":"Train\/Whale  Oil to Imported Fats","distance":"3441.093620"}},{"type":"Feature","geometry":{"type":"LineString","coordinates":[[121.774017,12.879720999999],[-3.4359729999961,55.378051000001]]},"properties":{"title":"Oil Kernels\/Nuts to Imported Fats","distance":"10876.122854"}},{"type":"Feature","geometry":{"type":"LineString","coordinates":[[-159.777671,-21.236735999998],[-3.4359729999961,55.378051000001]]},"properties":{"title":"Oil Kernels\/Nuts to Imported Fats","distance":"15739.605362"}},{"type":"Feature","geometry":{"type":"LineString","coordinates":[[-11.779888999997,8.4605550000039],[-3.4359729999961,55.378051000001]]},"properties":{"title":"Oil Kernels\/Nuts to Imported Fats","distance":"5268.681382"}},{"type":"Feature","geometry":{"type":"LineString","coordinates":[[-1.0231940000024,7.9465270000027],[-3.4359729999961,55.378051000001]]},"properties":{"title":"Oil Kernels\/Nuts to Imported Fats","distance":"5278.458960"}},{"type":"Feature","geometry":{"type":"LineString","coordinates":[[3.3958333000014,6.4530556000005],[-3.4359729999961,55.378051000001]]},"properties":{"title":"Oil Kernels\/Nuts to Imported Fats","distance":"5474.010950"}},{"type":"Feature","geometry":{"type":"LineString","coordinates":[[8.6752770000036,9.0819989999966],[-3.4359729999961,55.378051000001]]},"properties":{"title":"Oil Kernels\/Nuts to Imported Fats","distance":"5257.048533"}},{"type":"Feature","geometry":{"type":"LineString","coordinates":[[80.249583000004,13.060421999997],[-3.4359729999961,55.378051000001]]},"properties":{"title":"Oil Kernels\/Nuts to Imported Fats","distance":"8418.538338"}},{"type":"Feature","geometry":{"type":"LineString","coordinates":[[103.819836,1.3520830000039],[-3.4359729999961,55.378051000001]]},"properties":{"title":"Oil Kernels\/Nuts to Imported Fats","distance":"10960.841937"}},{"type":"Feature","geometry":{"type":"LineString","coordinates":[[80.771797000003,7.8730540000028],[-3.4359729999961,55.378051000001]]},"properties":{"title":"Oil Kernels\/Nuts to Imported Fats","distance":"8922.282592"}},{"type":"Feature","geometry":{"type":"LineString","coordinates":[[146.921099,-31.253218299999],[-3.4359729999961,55.378051000001]]},"properties":{"title":"Oil Kernels\/Nuts to Imported Fats","distance":"16469.391859"}},{"type":"Feature","geometry":{"type":"LineString","coordinates":[[174.885971,-40.900556999999],[-3.4359729999961,55.378051000001]]},"properties":{"title":"Oil Kernels\/Nuts to Imported Fats","distance":"18400.576286"}},{"type":"Feature","geometry":{"type":"LineString","coordinates":[[30.802498000002,26.820553000001],[-3.4359729999961,55.378051000001]]},"properties":{"title":"Cottonseeds to Imported Fats","distance":"4199.897932"}},{"type":"Feature","geometry":{"type":"LineString","coordinates":[[-87.629798199997,41.878113600002],[-3.4359729999961,55.378051000001]]},"properties":{"title":"Lard to Imported Fats","distance":"5970.217405"}},{"type":"Feature","geometry":{"type":"LineString","coordinates":[[-79.383184300004,43.653226000002],[-3.4359729999961,55.378051000001]]},"properties":{"title":"Lard to Imported Fats","distance":"5348.146156"}},{"type":"Feature","geometry":{"type":"LineString","coordinates":[[37.618421700003,55.751241899998],[-3.4359729999961,55.378051000001]]},"properties":{"title":"Flax Seeds to Imported Fats","distance":"2543.711975"}},{"type":"Feature","geometry":{"type":"LineString","coordinates":[[-63.616672000003,-38.416096999997],[-3.4359729999961,55.378051000001]]},"properties":{"title":"Flax Seeds to Imported Fats","distance":"11881.867043"}},{"type":"Feature","geometry":{"type":"LineString","coordinates":[[88.363894999997,22.572645999997],[-3.4359729999961,55.378051000001]]},"properties":{"title":"Flax Seeds to Imported Fats","distance":"8070.332328"}},{"type":"Feature","geometry":{"type":"LineString","coordinates":[[72.877655899996,19.075983700002],[-3.4359729999961,55.378051000001]]},"properties":{"title":"Flax Seeds to Imported Fats","distance":"7413.575661"}},{"type":"Feature","geometry":{"type":"LineString","coordinates":[[30.744444399999,46.503611100002],[-3.4359729999961,55.378051000001]]},"properties":{"title":"Rape Seeds to Imported Fats","distance":"2557.880612"}}],"properties":{"sm:ui:tileset":"satellite","title":"British Fats Imports 1894-1898","description":"This is the first draft. Weighting by quantities to come.","tags":""}}