{"type":"FeatureCollection","features":[{"type":"Feature","geometry":{"type":"Point","coordinates":[-61.326853500003,-4.4420385000025]},"properties":{"address":"Latin America","placename":"Latin America","title":"Retailers"}},{"type":"Feature","geometry":{"type":"Point","coordinates":[-83.753427999999,9.7489169999974]},"properties":{"address":"Costa Rica","placename":"Costa Rica","title":"Florida Bebidas"}},{"type":"Feature","geometry":{"type":"Point","coordinates":[-51.925279999999,-14.235004]},"properties":{"address":"Brazil","placename":"Brazil","title":"Distributors to Retailers"}},{"type":"Feature","geometry":{"type":"Point","coordinates":[19.145136,51.919437999998]},"properties":{"address":"Poland","placename":"Poland","title":"Distributors to Retailers"}},{"type":"Feature","geometry":{"type":"Point","coordinates":[-3.7492200000004,40.463667000002]},"properties":{"address":"Spain","placename":"Spain","title":"Distributors to Retailers"}},{"type":"Feature","geometry":{"type":"Point","coordinates":[10.451526000003,51.165690999999]},"properties":{"address":"Germany","placename":"Germany","title":"Distributors to Retailers"}},{"type":"Feature","geometry":{"type":"Point","coordinates":[2.2137489999989,46.227638]},"properties":{"address":"France","placename":"France","title":"Distributors to Retailers"}},{"type":"Feature","geometry":{"type":"Point","coordinates":[12.567380000004,41.871939999999]},"properties":{"address":"Italy","placename":"Italy","title":"Retailers"}},{"type":"Feature","geometry":{"type":"Point","coordinates":[12.460773699998,41.901514099999]},"properties":{"address":"Roma","placename":"Rome, Italy","title":"Xin Shi"}},{"type":"Feature","geometry":{"type":"Point","coordinates":[-3.4359729999961,55.378051000001]},"properties":{"address":"United Kingdom","placename":"United Kingdom","title":"Retailers"}},{"type":"Feature","geometry":{"type":"Point","coordinates":[-2.991572599999,53.408371400001]},"properties":{"address":"Liverpool, UK","placename":"Liverpool, Merseyside, UK","title":"Halewood International"}},{"type":"Feature","geometry":{"type":"Point","coordinates":[-95.712890999999,37.090240000003]},"properties":{"address":"United States","placename":"United States","title":"Retailers"}},{"type":"Feature","geometry":{"type":"Point","coordinates":[-74.005973100003,40.7143528]},"properties":{"address":"New York, US","placename":"New York, NY, USA","title":"Monarch Import"}},{"type":"Feature","geometry":{"type":"Point","coordinates":[-106.346771,56.130366000001]},"properties":{"address":"Canadad","placename":"Canada","title":"Retailers"}},{"type":"Feature","geometry":{"type":"Point","coordinates":[-123.1139268,49.261225999998]},"properties":{"address":"Vancouver, CA","placename":"Vancouver, BC, Canada","title":"Qinghua International Trade Development Corporation"}},{"type":"Feature","geometry":{"type":"Point","coordinates":[117.020411,36.668627]},"properties":{"address":"Shandong, China","placename":"Shandong, China","title":"Retailers"}},{"type":"Feature","geometry":{"type":"Point","coordinates":[120.38264,36.067082000004]},"properties":{"address":"Qingdao, China","placename":"Qingdao, Shandong, China","title":"Domestic Dealers"}},{"type":"Feature","geometry":{"type":"Point","coordinates":[103.826308,36.059421000001]},"properties":{"address":"Gansu, China","placename":"Gansu, China","title":"Rice, Hops, and Yeast"}},{"type":"Feature","geometry":{"type":"Point","coordinates":[118.763232,32.061707000001]},"properties":{"address":"Jiangsu, China","placename":"Jiangsu, China","title":"Rice, Hops, and Yeast"}},{"type":"Feature","geometry":{"type":"Point","coordinates":[111.765618,40.817498000003]},"properties":{"address":"Inner Mongolia, China","placename":"Inner Mongolia, China","title":"Rice, Hops, and Yeast"}},{"type":"Feature","geometry":{"type":"Point","coordinates":[87.627812000003,43.793028000003]},"properties":{"address":"Xinjiang, China","placename":"Xinjiang, China","title":"Rice, Hops, and Yeast"}},{"type":"Feature","geometry":{"type":"Point","coordinates":[2.2137489999989,46.227638]},"properties":{"address":"France","placename":"France","title":"Barley"}},{"type":"Feature","geometry":{"type":"Point","coordinates":[-106.346771,56.130366000001]},"properties":{"address":"Canada","placename":"Canada","title":"Barley"}},{"type":"Feature","geometry":{"type":"Point","coordinates":[133.775136,-25.274397999999]},"properties":{"address":"Austrialia","placename":"Australia","title":"Barley"}},{"type":"Feature","geometry":{"type":"Point","coordinates":[120.38264,36.067082000004]},"properties":{"address":"Qingdao, China","placename":"Qingdao, Shandong, China","title":"Water"}},{"type":"Feature","geometry":{"type":"Point","coordinates":[120.38264,36.067082000004]},"properties":{"address":"Qingdao, China","placename":"Qingdao, Shandong, China","title":"Tsingtao Beer"}},{"type":"Feature","geometry":{"type":"LineString","coordinates":[[120.38264,36.067082000004],[120.38264,36.067082000004]]},"properties":[]},{"type":"Feature","geometry":{"type":"LineString","coordinates":[[133.775136,-25.274397999999],[120.38264,36.067082000004]]},"properties":[]},{"type":"Feature","geometry":{"type":"LineString","coordinates":[[-106.346771,56.130366000001],[120.38264,36.067082000004]]},"properties":[]},{"type":"Feature","geometry":{"type":"LineString","coordinates":[[2.2137489999989,46.227638],[120.38264,36.067082000004]]},"properties":[]},{"type":"Feature","geometry":{"type":"LineString","coordinates":[[87.627812000003,43.793028000003],[120.38264,36.067082000004]]},"properties":[]},{"type":"Feature","geometry":{"type":"LineString","coordinates":[[111.765618,40.817498000003],[120.38264,36.067082000004]]},"properties":[]},{"type":"Feature","geometry":{"type":"LineString","coordinates":[[118.763232,32.061707000001],[120.38264,36.067082000004]]},"properties":[]},{"type":"Feature","geometry":{"type":"LineString","coordinates":[[103.826308,36.059421000001],[120.38264,36.067082000004]]},"properties":[]},{"type":"Feature","geometry":{"type":"LineString","coordinates":[[120.38264,36.067082000004],[120.38264,36.067082000004]]},"properties":[]},{"type":"Feature","geometry":{"type":"LineString","coordinates":[[120.38264,36.067082000004],[117.020411,36.668627]]},"properties":[]},{"type":"Feature","geometry":{"type":"LineString","coordinates":[[120.38264,36.067082000004],[-123.1139268,49.261225999998]]},"properties":[]},{"type":"Feature","geometry":{"type":"LineString","coordinates":[[-123.1139268,49.261225999998],[-106.346771,56.130366000001]]},"properties":[]},{"type":"Feature","geometry":{"type":"LineString","coordinates":[[120.38264,36.067082000004],[-74.005973100003,40.7143528]]},"properties":[]},{"type":"Feature","geometry":{"type":"LineString","coordinates":[[-74.005973100003,40.7143528],[-95.712890999999,37.090240000003]]},"properties":[]},{"type":"Feature","geometry":{"type":"LineString","coordinates":[[120.38264,36.067082000004],[-2.991572599999,53.408371400001]]},"properties":[]},{"type":"Feature","geometry":{"type":"LineString","coordinates":[[-2.991572599999,53.408371400001],[-3.4359729999961,55.378051000001]]},"properties":[]},{"type":"Feature","geometry":{"type":"LineString","coordinates":[[120.38264,36.067082000004],[12.460773699998,41.901514099999]]},"properties":[]},{"type":"Feature","geometry":{"type":"LineString","coordinates":[[12.460773699998,41.901514099999],[12.567380000004,41.871939999999]]},"properties":[]},{"type":"Feature","geometry":{"type":"LineString","coordinates":[[120.38264,36.067082000004],[2.2137489999989,46.227638]]},"properties":[]},{"type":"Feature","geometry":{"type":"LineString","coordinates":[[120.38264,36.067082000004],[10.451526000003,51.165690999999]]},"properties":[]},{"type":"Feature","geometry":{"type":"LineString","coordinates":[[120.38264,36.067082000004],[-3.7492200000004,40.463667000002]]},"properties":[]},{"type":"Feature","geometry":{"type":"LineString","coordinates":[[120.38264,36.067082000004],[19.145136,51.919437999998]]},"properties":[]},{"type":"Feature","geometry":{"type":"LineString","coordinates":[[120.38264,36.067082000004],[-51.925279999999,-14.235004]]},"properties":[]},{"type":"Feature","geometry":{"type":"LineString","coordinates":[[120.38264,36.067082000004],[-83.753427999999,9.7489169999974]]},"properties":[]},{"type":"Feature","geometry":{"type":"LineString","coordinates":[[-83.753427999999,9.7489169999974],[-61.326853500003,-4.4420385000025]]},"properties":[]}],"properties":{"tags":"","description":"","title":"Tsingtao Beer Supply Chain"}}