{"supplychain":{"category":null,"created":1352248025,"enable_comments":true,"flags":0,"id":4472,"modified":1352248025,"other_perms":1,"passcode":null,"user_featured":false,"usergroup_id":null,"usergroup_perms":0,"user_id":3905,"owner":{"id":3905,"name":"Anna (Zhean) Shen","avatar":"http:\/\/free.sourcemap.com\/assets\/images\/default-user.png","banner_url":null,"display_name":null},"taxonomy":null,"attributes":{"tags":"","description":"","title":"Commodity Chain"},"stops":[{"local_stop_id":32,"id":32,"geometry":"POINT(13400053.759297 4312682.941066)","attributes":{"address":"Shibei Distirct, Qingdao, China","placename":"Shibei, Qingdao, Shandong, China","title":"Dealers"}},{"local_stop_id":31,"id":31,"geometry":"POINT(-11416123.694313 2708933.292233)","attributes":{"address":"Mexico","placename":"Mexico","title":"Dealers"}},{"local_stop_id":30,"id":30,"geometry":"POINT(-9323388.957151 1090519.231591)","attributes":{"address":"Costa Rica","placename":"Costa Rica","title":"Dealers"}},{"local_stop_id":29,"id":29,"geometry":"POINT(-5780295.728898 -1601191.813438)","attributes":{"address":"Brazil","placename":"Brazil","title":"Dealers"}},{"local_stop_id":28,"id":28,"geometry":"POINT(2131226.790688 6785571.898792)","attributes":{"address":"Poland","placename":"Poland","title":"Dealers"}},{"local_stop_id":27,"id":27,"geometry":"POINT(-417361.261272 4933551.652462)","attributes":{"address":"Spain","placename":"Spain","title":"Dealers"}},{"local_stop_id":26,"id":26,"geometry":"POINT(1163458.552333 6650655.041174)","attributes":{"address":"Germany","placename":"Germany","title":"Dealers"}},{"local_stop_id":25,"id":25,"geometry":"POINT(246433.411424 5816903.713427)","attributes":{"address":"France","placename":"France","title":"Dealers"}},{"local_stop_id":24,"id":24,"geometry":"POINT(1387126.983174 5146238.131284)","attributes":{"address":"Roma, Italy","placename":"Rome, Italy","title":"Xin Shi"}},{"local_stop_id":23,"id":23,"geometry":"POINT(-333020.338503 7058895.725627)","attributes":{"address":"Liverpool, UK","placename":"Liverpool, Merseyside, UK","title":"Halewood International"}},{"local_stop_id":22,"id":22,"geometry":"POINT(-8238307.241153 4970299.628631)","attributes":{"address":"New York, US","placename":"New York, NY, USA","title":"Monarch Import"}},{"local_stop_id":21,"id":21,"geometry":"POINT(-13704979.640936 6319302.780575)","attributes":{"address":"Vancouver, CA","placename":"Vancouver, BC, Canada","title":"Qinghua International Trade Development Corporation"}},{"local_stop_id":20,"id":20,"geometry":"POINT(13358929.144529 4407384.003947)","attributes":{"address":"Dengzhou Rd, Qingdao China","placename":"Dengzhou Rd, Pingdu, Qingdao, Shandong, China","title":"Merchants"}},{"local_stop_id":19,"id":19,"geometry":"POINT(13220662.511203 3771413.358139)","attributes":{"address":"Jiangsu, China","placename":"Jiangsu, China","title":"Labour"}},{"local_stop_id":18,"id":18,"geometry":"POINT(12742593.499586 4584662.04757)","attributes":{"address":"Hebei,China","placename":"Hebei, China","title":"Labour"}},{"local_stop_id":17,"id":17,"geometry":"POINT(13951233.738925 5449374.691533)","attributes":{"address":"Jilin, China","placename":"Jilin, China","title":"Labour"}},{"local_stop_id":16,"id":16,"geometry":"POINT(14099912.496106 5739155.845421)","attributes":{"address":"Heilongjiang, China","placename":"Heilongjiang, China","title":"Labour"}},{"local_stop_id":15,"id":15,"geometry":"POINT(13265025.999952 4398313.296182)","attributes":{"address":"Weifang, China","placename":"Weifang, Shandong, China","title":"Labour"}},{"local_stop_id":14,"id":14,"geometry":"POINT(13305672.308265 4220610.070806)","attributes":{"address":"Rizhao, China","placename":"Rizhao, Shandong, China","title":"Labour"}},{"local_stop_id":13,"id":13,"geometry":"POINT(12855247.822393 4195692.381998)","attributes":{"address":"Heze, China","placename":"Heze, Shandong, China","title":"Labour"}},{"local_stop_id":12,"id":12,"geometry":"POINT(12978416.493745 4220411.190764)","attributes":{"address":"Jining, China","placename":"Jining, Shandong, China","title":"Labour"}},{"local_stop_id":11,"id":11,"geometry":"POINT(12857584.975102 4421104.335862)","attributes":{"address":"Linxi, China","placename":"Linxi, Xingtai, Hebei, China","title":"Labour"}},{"local_stop_id":10,"id":10,"geometry":"POINT(13400934.18515 4309855.681985)","attributes":{"address":"Qingdao, China","placename":"Qingdao, Shandong, China","title":"Labour"}},{"local_stop_id":9,"id":9,"geometry":"POINT(11557891.737506 4308800.693386)","attributes":{"address":"Gansu, China","placename":"Gansu, China","title":"Rice, Hops, and Yeast"}},{"local_stop_id":8,"id":8,"geometry":"POINT(13220662.511203 3771413.358139)","attributes":{"address":"Jiangsu, China","placename":"Jiangsu, China","title":"Rice, Hops, and Yeast"}},{"local_stop_id":7,"id":7,"geometry":"POINT(12441691.683956 4985459.814577)","attributes":{"address":"Inner Mongolia, China","placename":"Inner Mongolia, China","title":"Rice, Hops, and Yeast"}},{"local_stop_id":6,"id":6,"geometry":"POINT(9754683.411169 5433468.456365)","attributes":{"address":"Xinjiang, China","placename":"Xinjiang, China","title":"Rice, Hops, and Yeast"}},{"local_stop_id":5,"id":5,"geometry":"POINT(246433.411424 5816903.713427)","attributes":{"address":"France","placename":"France","title":"Barley"}},{"local_stop_id":4,"id":4,"geometry":"POINT(-11838468.395229 7584411.732747)","attributes":{"address":"Canada","placename":"Canada","title":"Barley"}},{"local_stop_id":3,"id":3,"geometry":"POINT(14891780.020321 -2909486.054997)","attributes":{"address":"Austrialia","placename":"Australia","title":"Barley"}},{"local_stop_id":2,"id":2,"geometry":"POINT(13410542.838317 4315428.541835)","attributes":{"address":"Laoshan, Qingdao, China","placename":"Laoshan, Qingdao, Shandong, China","title":"Water"}},{"local_stop_id":1,"id":1,"geometry":"POINT(13360023.493047 4407399.985693)","attributes":{"address":"56 Dengzhou Rd, Qingdao, China","placename":"56\u53f7 Dengzhou Rd, Pingdu, Qingdao, Shandong, China","title":"Tsingtao Beer"}}],"hops":[{"from_stop_id":2,"to_stop_id":1,"geometry":"MULTILINESTRING((13410542.838317 4315428.541835,13360023.493047 4407399.985693))","attributes":{}},{"from_stop_id":3,"to_stop_id":1,"geometry":"MULTILINESTRING((14891780.020321 -2909486.054997,13360023.493047 4407399.985693))","attributes":{}},{"from_stop_id":4,"to_stop_id":1,"geometry":"MULTILINESTRING((-11838468.395229 7584411.732747,13360023.493047 4407399.985693))","attributes":{}},{"from_stop_id":5,"to_stop_id":1,"geometry":"MULTILINESTRING((246433.411424 5816903.713427,13360023.493047 4407399.985693))","attributes":{}},{"from_stop_id":6,"to_stop_id":1,"geometry":"MULTILINESTRING((9754683.411169 5433468.456365,13360023.493047 4407399.985693))","attributes":{}},{"from_stop_id":7,"to_stop_id":1,"geometry":"MULTILINESTRING((12441691.683956 4985459.814577,13360023.493047 4407399.985693))","attributes":{}},{"from_stop_id":8,"to_stop_id":1,"geometry":"MULTILINESTRING((13220662.511203 3771413.358139,13360023.493047 4407399.985693))","attributes":{}},{"from_stop_id":9,"to_stop_id":1,"geometry":"MULTILINESTRING((11557891.737506 4308800.693386,13360023.493047 4407399.985693))","attributes":{}},{"from_stop_id":10,"to_stop_id":1,"geometry":"MULTILINESTRING((13400934.18515 4309855.681985,13360023.493047 4407399.985693))","attributes":{}},{"from_stop_id":11,"to_stop_id":1,"geometry":"MULTILINESTRING((12857584.975102 4421104.335862,13360023.493047 4407399.985693))","attributes":{}},{"from_stop_id":12,"to_stop_id":1,"geometry":"MULTILINESTRING((12978416.493745 4220411.190764,13360023.493047 4407399.985693))","attributes":{}},{"from_stop_id":13,"to_stop_id":1,"geometry":"MULTILINESTRING((12855247.822393 4195692.381998,13360023.493047 4407399.985693))","attributes":{}},{"from_stop_id":14,"to_stop_id":1,"geometry":"MULTILINESTRING((13305672.308265 4220610.070806,13360023.493047 4407399.985693))","attributes":{}},{"from_stop_id":15,"to_stop_id":1,"geometry":"MULTILINESTRING((13265025.999952 4398313.296182,13360023.493047 4407399.985693))","attributes":{}},{"from_stop_id":16,"to_stop_id":1,"geometry":"MULTILINESTRING((14099912.496106 5739155.845421,13360023.493047 4407399.985693))","attributes":{}},{"from_stop_id":17,"to_stop_id":1,"geometry":"MULTILINESTRING((13951233.738925 5449374.691533,13360023.493047 4407399.985693))","attributes":{}},{"from_stop_id":18,"to_stop_id":1,"geometry":"MULTILINESTRING((12742593.499586 4584662.04757,13360023.493047 4407399.985693))","attributes":{}},{"from_stop_id":19,"to_stop_id":1,"geometry":"MULTILINESTRING((13220662.511203 3771413.358139,13360023.493047 4407399.985693))","attributes":{}},{"from_stop_id":1,"to_stop_id":20,"geometry":"MULTILINESTRING((13360023.493047 4407399.985693,13358929.144529 4407384.003947))","attributes":{}},{"from_stop_id":1,"to_stop_id":21,"geometry":"MULTILINESTRING((13360023.493047 4407399.985693,-13704979.640936 6319302.780575))","attributes":{}},{"from_stop_id":1,"to_stop_id":22,"geometry":"MULTILINESTRING((13360023.493047 4407399.985693,-8238307.241153 4970299.628631))","attributes":{}},{"from_stop_id":1,"to_stop_id":23,"geometry":"MULTILINESTRING((13360023.493047 4407399.985693,-333020.338503 7058895.725627))","attributes":{}},{"from_stop_id":1,"to_stop_id":24,"geometry":"MULTILINESTRING((13360023.493047 4407399.985693,1387126.983174 5146238.131284))","attributes":{}},{"from_stop_id":1,"to_stop_id":25,"geometry":"MULTILINESTRING((13360023.493047 4407399.985693,246433.411424 5816903.713427))","attributes":{}},{"from_stop_id":1,"to_stop_id":26,"geometry":"MULTILINESTRING((13360023.493047 4407399.985693,1163458.552333 6650655.041174))","attributes":{}},{"from_stop_id":1,"to_stop_id":27,"geometry":"MULTILINESTRING((13360023.493047 4407399.985693,-417361.261272 4933551.652462))","attributes":{}},{"from_stop_id":1,"to_stop_id":28,"geometry":"MULTILINESTRING((13360023.493047 4407399.985693,2131226.790688 6785571.898792))","attributes":{}},{"from_stop_id":1,"to_stop_id":29,"geometry":"MULTILINESTRING((13360023.493047 4407399.985693,-5780295.728898 -1601191.813438))","attributes":{}},{"from_stop_id":1,"to_stop_id":30,"geometry":"MULTILINESTRING((13360023.493047 4407399.985693,-9323388.957151 1090519.231591))","attributes":{}},{"from_stop_id":1,"to_stop_id":31,"geometry":"MULTILINESTRING((13360023.493047 4407399.985693,-11416123.694313 2708933.292233))","attributes":{}},{"from_stop_id":1,"to_stop_id":32,"geometry":"MULTILINESTRING((13360023.493047 4407399.985693,13400053.759297 4312682.941066))","attributes":{}}]},"editable":false}