{"type":"FeatureCollection","features":[{"type":"Feature","geometry":{"type":"Point","coordinates":[151.2069902,-33.867486899999]},"properties":{"address":"Sydney","placename":"Sydney NSW, Australia","title":"Silicon"}},{"type":"Feature","geometry":{"type":"Point","coordinates":[37.618421700003,55.751241899998]},"properties":{"address":"Moscow","placename":"Moscow, Russia","title":"circuit board"}},{"type":"Feature","geometry":{"type":"Point","coordinates":[116.407526,39.90403]},"properties":{"address":"Beijing","placename":"Beijing, China","title":"circuit board"}},{"type":"Feature","geometry":{"type":"Point","coordinates":[126.9779692,37.566535]},"properties":{"address":"Seoul","placename":"Seoul, South Korea","title":"Cables"}},{"type":"Feature","geometry":{"type":"Point","coordinates":[-83.045753800004,42.331427]},"properties":{"address":"Detroit","placename":"Detroit, MI, USA","title":"Charger"}},{"type":"Feature","geometry":{"type":"Point","coordinates":[30.523399999996,50.450099999999]},"properties":{"address":"Kiev","placename":"Kiev, Kyiv city, Ukraine","title":"Keybord"}},{"type":"Feature","geometry":{"type":"Point","coordinates":[121.5598345,25.091075000004]},"properties":{"address":"Taipei","placename":"Taipei City, Taiwan","title":"Processor"}},{"type":"Feature","geometry":{"type":"Point","coordinates":[100.4938889,13.752222200004]},"properties":{"address":"Bangkok","placename":"Bangkok, Thailand","title":"Display"}},{"type":"Feature","geometry":{"type":"Point","coordinates":[121.473704,31.230393]},"properties":{"address":"Shanghai","placename":"Shanghai, China","title":"Display"}},{"type":"Feature","geometry":{"type":"Point","coordinates":[13.846120799999,58.390278199999]},"properties":{"address":"Sk\u00f6vde","placename":"Sk\u00f6vde, Sweden","title":"Laptop"}},{"type":"Feature","geometry":{"type":"LineString","coordinates":[[121.473704,31.230393],[13.846120799999,58.390278199999]]},"properties":[]},{"type":"Feature","geometry":{"type":"LineString","coordinates":[[100.4938889,13.752222200004],[13.846120799999,58.390278199999]]},"properties":[]},{"type":"Feature","geometry":{"type":"LineString","coordinates":[[121.5598345,25.091075000004],[13.846120799999,58.390278199999]]},"properties":[]},{"type":"Feature","geometry":{"type":"LineString","coordinates":[[30.523399999996,50.450099999999],[13.846120799999,58.390278199999]]},"properties":[]},{"type":"Feature","geometry":{"type":"LineString","coordinates":[[-83.045753800004,42.331427],[13.846120799999,58.390278199999]]},"properties":[]},{"type":"Feature","geometry":{"type":"LineString","coordinates":[[126.9779692,37.566535],[-83.045753800004,42.331427]]},"properties":[]},{"type":"Feature","geometry":{"type":"LineString","coordinates":[[116.407526,39.90403],[-83.045753800004,42.331427]]},"properties":[]},{"type":"Feature","geometry":{"type":"LineString","coordinates":[[37.618421700003,55.751241899998],[-83.045753800004,42.331427]]},"properties":[]},{"type":"Feature","geometry":{"type":"LineString","coordinates":[[151.2069902,-33.867486899999],[37.618421700003,55.751241899998]]},"properties":[]}],"properties":{"tags":"","description":"","title":"Test laptop"}}