{"type":"FeatureCollection","features":[{"type":"Feature","geometry":{"type":"Point","coordinates":[135.7680294,35.011636299999]},"properties":{"address":"kyoto","placename":"Kyoto, Kyoto Prefecture, Japan","title":"plastic"}},{"type":"Feature","geometry":{"type":"Point","coordinates":[126.9779692,37.566535]},"properties":{"address":"Seoul","placename":"Seoul, South Korea","title":"Cables"}},{"type":"Feature","geometry":{"type":"Point","coordinates":[-83.045753800004,42.331427]},"properties":{"address":"Detroit","placename":"Detroit, MI, USA","title":"Charger"}},{"type":"Feature","geometry":{"type":"Point","coordinates":[30.523399999996,50.450099999999]},"properties":{"address":"Kiev","placename":"Kiev, Kyiv city, Ukraine","title":"Keybord"}},{"type":"Feature","geometry":{"type":"Point","coordinates":[135.7680294,35.011636299999]},"properties":{"address":"kyoto","placename":"Kyoto, Kyoto Prefecture, Japan","title":"plastic"}},{"type":"Feature","geometry":{"type":"Point","coordinates":[103.819836,1.3520830000039]},"properties":{"address":"singapore","placename":"Singapore","title":"fan"}},{"type":"Feature","geometry":{"type":"Point","coordinates":[151.2069902,-33.867486899999]},"properties":{"address":"sydney","placename":"Sydney NSW, Australia","title":"silicon"}},{"type":"Feature","geometry":{"type":"Point","coordinates":[116.407526,39.90403]},"properties":{"address":"Beijing","placename":"Beijing, China","title":"circuit board"}},{"type":"Feature","geometry":{"type":"Point","coordinates":[121.5598345,25.091075000004]},"properties":{"address":"Taipei","placename":"Taipei City, Taiwan","title":"Processor"}},{"type":"Feature","geometry":{"type":"Point","coordinates":[105.85,21.033333300001]},"properties":{"address":"hanoi","placename":"Hanoi, Hoan Kiem District, Hanoi, Vietnam","title":"glass"}},{"type":"Feature","geometry":{"type":"Point","coordinates":[100.4938889,13.752222200004]},"properties":{"address":"Bangkok","placename":"Bangkok, Thailand","title":"Display"}},{"type":"Feature","geometry":{"type":"Point","coordinates":[31.235711600004,30.0444196]},"properties":{"address":"kairo","placename":"Cairo, Cairo Governorate, Egypt","title":"glass"}},{"type":"Feature","geometry":{"type":"Point","coordinates":[121.473704,31.230393]},"properties":{"address":"Shanghai","placename":"Shanghai, China","title":"Display"}},{"type":"Feature","geometry":{"type":"Point","coordinates":[13.846120799999,58.390278199999]},"properties":{"address":"Sk\u00f6vde","placename":"Sk\u00f6vde, Sweden","title":"Laptop"}},{"type":"Feature","geometry":{"type":"LineString","coordinates":[[121.473704,31.230393],[13.846120799999,58.390278199999]]},"properties":[]},{"type":"Feature","geometry":{"type":"LineString","coordinates":[[31.235711600004,30.0444196],[121.473704,31.230393]]},"properties":[]},{"type":"Feature","geometry":{"type":"LineString","coordinates":[[100.4938889,13.752222200004],[13.846120799999,58.390278199999]]},"properties":[]},{"type":"Feature","geometry":{"type":"LineString","coordinates":[[105.85,21.033333300001],[100.4938889,13.752222200004]]},"properties":[]},{"type":"Feature","geometry":{"type":"LineString","coordinates":[[121.5598345,25.091075000004],[13.846120799999,58.390278199999]]},"properties":[]},{"type":"Feature","geometry":{"type":"LineString","coordinates":[[116.407526,39.90403],[121.5598345,25.091075000004]]},"properties":[]},{"type":"Feature","geometry":{"type":"LineString","coordinates":[[151.2069902,-33.867486899999],[116.407526,39.90403]]},"properties":[]},{"type":"Feature","geometry":{"type":"LineString","coordinates":[[103.819836,1.3520830000039],[121.5598345,25.091075000004]]},"properties":[]},{"type":"Feature","geometry":{"type":"LineString","coordinates":[[135.7680294,35.011636299999],[103.819836,1.3520830000039]]},"properties":[]},{"type":"Feature","geometry":{"type":"LineString","coordinates":[[30.523399999996,50.450099999999],[13.846120799999,58.390278199999]]},"properties":[]},{"type":"Feature","geometry":{"type":"LineString","coordinates":[[-83.045753800004,42.331427],[13.846120799999,58.390278199999]]},"properties":[]},{"type":"Feature","geometry":{"type":"LineString","coordinates":[[126.9779692,37.566535],[-83.045753800004,42.331427]]},"properties":[]},{"type":"Feature","geometry":{"type":"LineString","coordinates":[[135.7680294,35.011636299999],[126.9779692,37.566535]]},"properties":[]}],"properties":{"title":"Test laptop2","description":"","tags":""}}