{"type":"FeatureCollection","features":[{"type":"Feature","geometry":{"type":"Point","coordinates":[-102.552784,23.634501000001]},"properties":{"address":"Mexico","placename":"Mexico","title":"Dealers"}},{"type":"Feature","geometry":{"type":"Point","coordinates":[-51.925279999999,-14.235004]},"properties":{"address":"Brazil","placename":"Brazil","title":"Dealers"}},{"type":"Feature","geometry":{"type":"Point","coordinates":[138.252924,36.204824000001]},"properties":{"address":"Japn","placename":"Japan","title":"Dealers"}},{"type":"Feature","geometry":{"type":"Point","coordinates":[10.451526000003,51.165690999999]},"properties":{"address":"Germany","placename":"Germany","title":"Dealers"}},{"type":"Feature","geometry":{"type":"Point","coordinates":[2.2137489999989,46.227638]},"properties":{"address":"France","placename":"France","title":"Dealers"}},{"type":"Feature","geometry":{"type":"Point","coordinates":[12.567380000004,41.871939999999]},"properties":{"address":"Italy","placename":"Italy","title":"Dealers"}},{"type":"Feature","geometry":{"type":"Point","coordinates":[-3.4359729999961,55.378051000001]},"properties":{"address":"United Kingdom","placename":"United Kingdom","title":"Dealers"}},{"type":"Feature","geometry":{"type":"Point","coordinates":[-95.712890999999,37.090240000003]},"properties":{"address":"USA","placename":"United States","title":"Dealers"}},{"type":"Feature","geometry":{"type":"Point","coordinates":[-106.346771,56.130366000001]},"properties":{"address":"Canada","placename":"Canada","title":"Dealers"}},{"type":"Feature","geometry":{"type":"Point","coordinates":[120.38264,36.067082000004]},"properties":{"address":"Qingdao China","placename":"Qingdao, Shandong, China","title":"Dealers"}},{"type":"Feature","geometry":{"type":"Point","coordinates":[120.38264,36.067082000004]},"properties":{"address":"Qingdao, China","placename":"Qingdao, Shandong, China","title":"packaging materials"}},{"type":"Feature","geometry":{"type":"Point","coordinates":[10.451526000003,51.165690999999]},"properties":{"address":"Germany","placename":"Germany","title":"Yeast"}},{"type":"Feature","geometry":{"type":"Point","coordinates":[87.627812000003,43.793028000003]},"properties":{"address":"Xinjiang, China","placename":"Xinjiang, China","title":"Hops"}},{"type":"Feature","geometry":{"type":"Point","coordinates":[118.763232,32.061707000001]},"properties":{"address":"Jiangsu, China","placename":"Jiangsu, China","title":"Rice"}},{"type":"Feature","geometry":{"type":"Point","coordinates":[120.38264,36.067082000004]},"properties":{"address":"Qingdao, China","placename":"Qingdao, Shandong, China","title":"Equipment"}},{"type":"Feature","geometry":{"type":"Point","coordinates":[10.451526000003,51.165690999999]},"properties":{"address":"Germany","placename":"Germany","title":"Equipment"}},{"type":"Feature","geometry":{"type":"Point","coordinates":[133.775136,-25.274397999999]},"properties":{"address":"Austrialia","placename":"Australia","title":"Barley"}},{"type":"Feature","geometry":{"type":"Point","coordinates":[120.38264,36.067082000004]},"properties":{"address":"Qingdao, China","placename":"Qingdao, Shandong, China","title":"Water"}},{"type":"Feature","geometry":{"type":"Point","coordinates":[120.38264,36.067082000004]},"properties":{"address":"Qingdao, China","placename":"Qingdao, Shandong, China","title":"Tsingtao Beer"}},{"type":"Feature","geometry":{"type":"LineString","coordinates":[[120.38264,36.067082000004],[120.38264,36.067082000004]]},"properties":[]},{"type":"Feature","geometry":{"type":"LineString","coordinates":[[133.775136,-25.274397999999],[120.38264,36.067082000004]]},"properties":[]},{"type":"Feature","geometry":{"type":"LineString","coordinates":[[10.451526000003,51.165690999999],[120.38264,36.067082000004]]},"properties":[]},{"type":"Feature","geometry":{"type":"LineString","coordinates":[[120.38264,36.067082000004],[120.38264,36.067082000004]]},"properties":[]},{"type":"Feature","geometry":{"type":"LineString","coordinates":[[118.763232,32.061707000001],[120.38264,36.067082000004]]},"properties":[]},{"type":"Feature","geometry":{"type":"LineString","coordinates":[[87.627812000003,43.793028000003],[120.38264,36.067082000004]]},"properties":[]},{"type":"Feature","geometry":{"type":"LineString","coordinates":[[10.451526000003,51.165690999999],[120.38264,36.067082000004]]},"properties":[]},{"type":"Feature","geometry":{"type":"LineString","coordinates":[[120.38264,36.067082000004],[120.38264,36.067082000004]]},"properties":[]},{"type":"Feature","geometry":{"type":"LineString","coordinates":[[120.38264,36.067082000004],[120.38264,36.067082000004]]},"properties":[]},{"type":"Feature","geometry":{"type":"LineString","coordinates":[[120.38264,36.067082000004],[-106.346771,56.130366000001]]},"properties":[]},{"type":"Feature","geometry":{"type":"LineString","coordinates":[[120.38264,36.067082000004],[-95.712890999999,37.090240000003]]},"properties":[]},{"type":"Feature","geometry":{"type":"LineString","coordinates":[[120.38264,36.067082000004],[-3.4359729999961,55.378051000001]]},"properties":[]},{"type":"Feature","geometry":{"type":"LineString","coordinates":[[120.38264,36.067082000004],[12.567380000004,41.871939999999]]},"properties":[]},{"type":"Feature","geometry":{"type":"LineString","coordinates":[[120.38264,36.067082000004],[2.2137489999989,46.227638]]},"properties":[]},{"type":"Feature","geometry":{"type":"LineString","coordinates":[[120.38264,36.067082000004],[10.451526000003,51.165690999999]]},"properties":[]},{"type":"Feature","geometry":{"type":"LineString","coordinates":[[120.38264,36.067082000004],[138.252924,36.204824000001]]},"properties":[]},{"type":"Feature","geometry":{"type":"LineString","coordinates":[[120.38264,36.067082000004],[-51.925279999999,-14.235004]]},"properties":[]},{"type":"Feature","geometry":{"type":"LineString","coordinates":[[120.38264,36.067082000004],[-102.552784,23.634501000001]]},"properties":[]}],"properties":{"tags":"","description":"","title":"Tsingtao Beer"}}