{"type":"FeatureCollection","features":[{"type":"Feature","geometry":{"type":"Point","coordinates":[118.763232,32.061707000001]},"properties":{"address":"Jiangsu, China","placename":"Jiangsu, China","title":"Labour"}},{"type":"Feature","geometry":{"type":"Point","coordinates":[114.468665,38.037056999997]},"properties":{"address":"Hebei,China","placename":"Hebei, China","title":"Labour"}},{"type":"Feature","geometry":{"type":"Point","coordinates":[125.326065,43.896082]},"properties":{"address":"Jilin, China","placename":"Jilin, China","title":"Labour"}},{"type":"Feature","geometry":{"type":"Point","coordinates":[126.661669,45.742346999997]},"properties":{"address":"Heilongjiang, China","placename":"Heilongjiang, China","title":"Labour"}},{"type":"Feature","geometry":{"type":"Point","coordinates":[119.161756,36.706774000002]},"properties":{"address":"Weifang, China","placename":"Weifang, Shandong, China","title":"Labour"}},{"type":"Feature","geometry":{"type":"Point","coordinates":[119.526888,35.416376999997]},"properties":{"address":"Rizhao, China","placename":"Rizhao, Shandong, China","title":"Labour"}},{"type":"Feature","geometry":{"type":"Point","coordinates":[115.480656,35.233750000004]},"properties":{"address":"Heze, China","placename":"Heze, Shandong, China","title":"Labour"}},{"type":"Feature","geometry":{"type":"Point","coordinates":[116.587099,35.414921000003]},"properties":{"address":"Jining, China","placename":"Jining, Shandong, China","title":"Labour"}},{"type":"Feature","geometry":{"type":"Point","coordinates":[115.501651,36.870735999997]},"properties":{"address":"Linxi, China","placename":"Linxi, Xingtai, Hebei, China","title":"Labour"}},{"type":"Feature","geometry":{"type":"Point","coordinates":[120.38264,36.067082000004]},"properties":{"address":"Qingdao, China","placename":"Qingdao, Shandong, China","title":"Labour"}},{"type":"Feature","geometry":{"type":"Point","coordinates":[120.38264,36.067082000004]},"properties":{"address":"Qingdao, China","placename":"Qingdao, Shandong, China","title":"Tsingtao Beer"}},{"type":"Feature","geometry":{"type":"LineString","coordinates":[[120.38264,36.067082000004],[120.38264,36.067082000004]]},"properties":[]},{"type":"Feature","geometry":{"type":"LineString","coordinates":[[115.501651,36.870735999997],[120.38264,36.067082000004]]},"properties":[]},{"type":"Feature","geometry":{"type":"LineString","coordinates":[[116.587099,35.414921000003],[120.38264,36.067082000004]]},"properties":[]},{"type":"Feature","geometry":{"type":"LineString","coordinates":[[115.480656,35.233750000004],[120.38264,36.067082000004]]},"properties":[]},{"type":"Feature","geometry":{"type":"LineString","coordinates":[[119.526888,35.416376999997],[120.38264,36.067082000004]]},"properties":[]},{"type":"Feature","geometry":{"type":"LineString","coordinates":[[119.161756,36.706774000002],[120.38264,36.067082000004]]},"properties":[]},{"type":"Feature","geometry":{"type":"LineString","coordinates":[[126.661669,45.742346999997],[120.38264,36.067082000004]]},"properties":[]},{"type":"Feature","geometry":{"type":"LineString","coordinates":[[125.326065,43.896082],[120.38264,36.067082000004]]},"properties":[]},{"type":"Feature","geometry":{"type":"LineString","coordinates":[[114.468665,38.037056999997],[120.38264,36.067082000004]]},"properties":[]},{"type":"Feature","geometry":{"type":"LineString","coordinates":[[118.763232,32.061707000001],[120.38264,36.067082000004]]},"properties":[]}],"properties":{"tags":"","description":"","title":"Tsingtao Beer"}}