{"type":"FeatureCollection","features":[{"type":"Feature","geometry":{"type":"Point","coordinates":[138.252924,36.204824000001]},"properties":{"address":"Japan","placename":"Japan","title":"Milk"}},{"type":"Feature","geometry":{"type":"Point","coordinates":[114.109497,22.396428000004]},"properties":{"address":"Hongkong","placename":"Hong Kong","title":"Milk"}},{"type":"Feature","geometry":{"type":"Point","coordinates":[78.962879999997,20.593684000004]},"properties":{"address":"India","placename":"India","title":"Milk"}},{"type":"Feature","geometry":{"type":"Point","coordinates":[100.992541,15.870032]},"properties":{"address":"Thailand","placename":"Thailand","title":"Milk"}},{"type":"Feature","geometry":{"type":"Point","coordinates":[-95.712890999999,37.090240000003]},"properties":{"address":"USA","placename":"United States","title":"Milk"}},{"type":"Feature","geometry":{"type":"Point","coordinates":[-106.346771,56.130366000001]},"properties":{"address":"Canada","placename":"Canada","title":"Milk"}},{"type":"Feature","geometry":{"type":"Point","coordinates":[103.846656,46.862495999999]},"properties":{"address":"Mongolia","placename":"Mongolia","title":"Milk"}},{"type":"Feature","geometry":{"type":"Point","coordinates":[0,0]},"properties":{"title":"Mengniu Dairy"}},{"type":"Feature","geometry":{"type":"Point","coordinates":[174.885971,-40.900556999999]},"properties":{"address":"New Zealand","placename":"New Zealand","title":"Dairy Cows"}},{"type":"Feature","geometry":{"type":"Point","coordinates":[133.775136,-25.274397999999]},"properties":{"address":"Australia","placename":"Australia","title":"Dairy Cows"}},{"type":"Feature","geometry":{"type":"Point","coordinates":[126.661669,45.742346999997]},"properties":{"address":"Heilongjiang, China","placename":"Heilongjiang, China","title":"Dairy Cows"}},{"type":"Feature","geometry":{"type":"Point","coordinates":[85.111626399997,27.844442000003]},"properties":{"address":"Jiling, China","placename":"Jiling 44900, Nepal","title":"Dairy Cows"}},{"type":"Feature","geometry":{"type":"Point","coordinates":[87.627812000003,43.793028000003]},"properties":{"address":"Xinjiang, China","placename":"Xinjiang, China","title":"Dairy Cows"}},{"type":"Feature","geometry":{"type":"Point","coordinates":[111.765618,40.817498000003]},"properties":{"address":"Inner Mongloia, China","placename":"Inner Mongolia, China","title":"Mengniu Dairy"}},{"type":"Feature","geometry":{"type":"LineString","coordinates":[[87.627812000003,43.793028000003],[111.765618,40.817498000003]]},"properties":[]},{"type":"Feature","geometry":{"type":"LineString","coordinates":[[85.111626399997,27.844442000003],[111.765618,40.817498000003]]},"properties":[]},{"type":"Feature","geometry":{"type":"LineString","coordinates":[[126.661669,45.742346999997],[111.765618,40.817498000003]]},"properties":[]},{"type":"Feature","geometry":{"type":"LineString","coordinates":[[133.775136,-25.274397999999],[111.765618,40.817498000003]]},"properties":[]},{"type":"Feature","geometry":{"type":"LineString","coordinates":[[174.885971,-40.900556999999],[111.765618,40.817498000003]]},"properties":[]},{"type":"Feature","geometry":{"type":"LineString","coordinates":[[0,0],[103.846656,46.862495999999]]},"properties":[]},{"type":"Feature","geometry":{"type":"LineString","coordinates":[[0,0],[-106.346771,56.130366000001]]},"properties":[]},{"type":"Feature","geometry":{"type":"LineString","coordinates":[[0,0],[-95.712890999999,37.090240000003]]},"properties":[]},{"type":"Feature","geometry":{"type":"LineString","coordinates":[[0,0],[100.992541,15.870032]]},"properties":[]},{"type":"Feature","geometry":{"type":"LineString","coordinates":[[0,0],[78.962879999997,20.593684000004]]},"properties":[]},{"type":"Feature","geometry":{"type":"LineString","coordinates":[[0,0],[114.109497,22.396428000004]]},"properties":[]},{"type":"Feature","geometry":{"type":"LineString","coordinates":[[0,0],[138.252924,36.204824000001]]},"properties":[]}],"properties":{"tags":"","description":"","title":"Mengniu"}}