{"supplychain":{"category":null,"created":1352784478,"enable_comments":true,"flags":0,"id":4543,"modified":1352784478,"other_perms":1,"passcode":null,"user_featured":false,"usergroup_id":null,"usergroup_perms":0,"user_id":3905,"owner":{"id":3905,"name":"Anna (Zhean) Shen","avatar":"http:\/\/free.sourcemap.com\/assets\/images\/default-user.png","banner_url":null,"display_name":null},"taxonomy":null,"attributes":{"tags":"","description":"","title":"Mengniu"},"stops":[{"local_stop_id":14,"id":14,"geometry":"POINT(15390245.100361 4328841.562513)","attributes":{"address":"Japan","placename":"Japan","title":"Milk"}},{"local_stop_id":13,"id":13,"geometry":"POINT(12702611.100717 2559188.1802)","attributes":{"address":"Hongkong","placename":"Hong Kong","title":"Milk"}},{"local_stop_id":12,"id":12,"geometry":"POINT(8790107.59317 2343495.165705)","attributes":{"address":"India","placename":"India","title":"Milk"}},{"local_stop_id":11,"id":11,"geometry":"POINT(11242438.238039 1789676.623494)","attributes":{"address":"Thailand","placename":"Thailand","title":"Milk"}},{"local_stop_id":10,"id":10,"geometry":"POINT(-10654710.288472 4451692.554811)","attributes":{"address":"USA","placename":"United States","title":"Milk"}},{"local_stop_id":9,"id":9,"geometry":"POINT(-11838468.395229 7584411.732747)","attributes":{"address":"Canada","placename":"Canada","title":"Milk"}},{"local_stop_id":8,"id":8,"geometry":"POINT(11560156.866504 5919658.729761)","attributes":{"address":"Mongolia","placename":"Mongolia","title":"Milk"}},{"local_stop_id":7,"id":7,"geometry":"POINT(0 -0)","attributes":{"title":"Mengniu Dairy"}},{"local_stop_id":6,"id":6,"geometry":"POINT(19468217.238607 -4997684.890551)","attributes":{"address":"New Zealand","placename":"New Zealand","title":"Dairy Cows"}},{"local_stop_id":5,"id":5,"geometry":"POINT(14891780.020321 -2909486.054997)","attributes":{"address":"Australia","placename":"Australia","title":"Dairy Cows"}},{"local_stop_id":4,"id":4,"geometry":"POINT(14099912.496106 5739155.845421)","attributes":{"address":"Heilongjiang, China","placename":"Heilongjiang, China","title":"Dairy Cows"}},{"local_stop_id":3,"id":3,"geometry":"POINT(9474582.911435 3229375.603222)","attributes":{"address":"Jiling, China","placename":"Jiling 44900, Nepal","title":"Dairy Cows"}},{"local_stop_id":2,"id":2,"geometry":"POINT(9754683.411169 5433468.456365)","attributes":{"address":"Xinjiang, China","placename":"Xinjiang, China","title":"Dairy Cows"}},{"local_stop_id":1,"id":1,"geometry":"POINT(12441691.683956 4985459.814577)","attributes":{"address":"Inner Mongloia, China","placename":"Inner Mongolia, China","title":"Mengniu Dairy"}}],"hops":[{"from_stop_id":2,"to_stop_id":1,"geometry":"MULTILINESTRING((9754683.411169 5433468.456365,12441691.683956 4985459.814577))","attributes":{}},{"from_stop_id":3,"to_stop_id":1,"geometry":"MULTILINESTRING((9474582.911435 3229375.603222,12441691.683956 4985459.814577))","attributes":{}},{"from_stop_id":4,"to_stop_id":1,"geometry":"MULTILINESTRING((14099912.496106 5739155.845421,12441691.683956 4985459.814577))","attributes":{}},{"from_stop_id":5,"to_stop_id":1,"geometry":"MULTILINESTRING((14891780.020321 -2909486.054997,12441691.683956 4985459.814577))","attributes":{}},{"from_stop_id":6,"to_stop_id":1,"geometry":"MULTILINESTRING((19468217.238607 -4997684.890551,12441691.683956 4985459.814577))","attributes":{}},{"from_stop_id":7,"to_stop_id":8,"geometry":"MULTILINESTRING((0 0,11560156.866504 5919658.729761))","attributes":{}},{"from_stop_id":7,"to_stop_id":9,"geometry":"MULTILINESTRING((0 0,-11838468.395229 7584411.732747))","attributes":{}},{"from_stop_id":7,"to_stop_id":10,"geometry":"MULTILINESTRING((0 0,-10654710.288472 4451692.554811))","attributes":{}},{"from_stop_id":7,"to_stop_id":11,"geometry":"MULTILINESTRING((0 0,11242438.238039 1789676.623494))","attributes":{}},{"from_stop_id":7,"to_stop_id":12,"geometry":"MULTILINESTRING((0 0,8790107.59317 2343495.165705))","attributes":{}},{"from_stop_id":7,"to_stop_id":13,"geometry":"MULTILINESTRING((0 0,12702611.100717 2559188.1802))","attributes":{}},{"from_stop_id":7,"to_stop_id":14,"geometry":"MULTILINESTRING((0 0,15390245.100361 4328841.562513))","attributes":{}}]},"editable":false}