{"supplychain":{"category":null,"created":1354293595,"enable_comments":true,"flags":0,"id":4723,"modified":1354293596,"other_perms":1,"passcode":null,"user_featured":false,"usergroup_id":null,"usergroup_perms":0,"user_id":1404,"owner":{"id":1404,"name":"footprint","avatar":"http:\/\/prod-accountpics.s3-website-us-east-1.amazonaws.com\/footprint.jpg?AWSAccessKeyId=AKIAIDYFSB4C2GNEML7Q&Expires=1380254457&Signature=0UB%2F0ug5x7wN1IH9MQ1aZFrIiD0%3D","banner_url":null,"display_name":null},"taxonomy":null,"attributes":{"tags":"","description":"","title":"Shippensburg footprint"},"stops":[{"local_stop_id":79,"id":79,"geometry":"POINT(-10654710.288472 4451692.554811)","attributes":{"size":"4","description":"67; 3.93%","address":"United States","placename":"United States","title":"Paving Machines"}},{"local_stop_id":78,"id":78,"geometry":"POINT(-11838468.395229 7584411.732747)","attributes":{"size":"1","description":"6; 0.35%","address":"Canada","placename":"Canada","title":"Paving Machines"}},{"local_stop_id":77,"id":77,"geometry":"POINT(14891780.020321 -2909486.054997)","attributes":{"size":"1","description":"4; 0.23%","address":"Australia","placename":"Australia","title":"Paving Machines"}},{"local_stop_id":76,"id":76,"geometry":"POINT(-320835.908166 6635544.549434)","attributes":{"size":"1","description":"8; 0.47%","address":"Other","placename":"Othery, Somerset TA7, UK","title":"Paving Machines"}},{"local_stop_id":75,"id":75,"geometry":"POINT(-10654710.288472 4451692.554811)","attributes":{"size":"11","description":"198; 11.61%","address":"United States","placename":"United States","title":"Motor Graders"}},{"local_stop_id":74,"id":74,"geometry":"POINT(2075385.037924 8428326.96544)","attributes":{"size":"1","description":"4; 0.23%","address":"Sweden","placename":"Sweden","title":"Motor Graders"}},{"local_stop_id":73,"id":73,"geometry":"POINT(2779287.009958 5771245.404432)","attributes":{"size":"1","description":"1; 0.06%","address":"Romania","placename":"Romania","title":"Motor Graders"}},{"local_stop_id":72,"id":72,"geometry":"POINT(2131226.790688 6785571.898792)","attributes":{"size":"1","description":"6; 0.35%","address":"Poland","placename":"Poland","title":"Motor Graders"}},{"local_stop_id":71,"id":71,"geometry":"POINT(6225348.270102 2453104.641232)","attributes":{"size":"1","description":"1; 0.06%","address":"Oman","placename":"Oman","title":"Motor Graders"}},{"local_stop_id":70,"id":70,"geometry":"POINT(942758.756276 8505587.038689)","attributes":{"size":"1","description":"3; 0.18%","address":"Norway","placename":"Norway","title":"Motor Graders"}},{"local_stop_id":69,"id":69,"geometry":"POINT(15390245.100361 4328841.562513)","attributes":{"size":"1","description":"2; 0.12%","address":"Japan","placename":"Japan","title":"Motor Graders"}},{"local_stop_id":68,"id":68,"geometry":"POINT(3879663.701165 3638731.187583)","attributes":{"size":"1","description":"3; 0.18%","address":"Israel","placename":"Israel","title":"Motor Graders"}},{"local_stop_id":67,"id":67,"geometry":"POINT(16118364.404978 1510538.962254)","attributes":{"size":"1","description":"1; 0.06%","address":"Guam","placename":"Guam","title":"Motor Graders"}},{"local_stop_id":66,"id":66,"geometry":"POINT(-11838468.395229 7584411.732747)","attributes":{"size":"8","description":"142; 8.32%","address":"Canada","placename":"Canada","title":"Motor Graders"}},{"local_stop_id":65,"id":65,"geometry":"POINT(-320835.908166 6635544.549434)","attributes":{"size":"1","description":"4; 0.23%","address":"Other","placename":"Othery, Somerset TA7, UK","title":"Motor Graders"}},{"local_stop_id":64,"id":64,"geometry":"POINT(-10654710.288472 4451692.554811)","attributes":{"size":"1","description":"3; 0.18%","address":"United States","placename":"United States","title":"Milling Machines"}},{"local_stop_id":63,"id":63,"geometry":"POINT(-320835.908166 6635544.549434)","attributes":{"size":"1","description":"3; 0.18%","address":"Other","placename":"Othery, Somerset TA7, UK","title":"Milling Machines"}},{"local_stop_id":62,"id":62,"geometry":"POINT(0 -0)","attributes":{"size":"1","description":"9; 0.53%","address":"Venezuela, Bolivarian Republic of","title":"Compaction Machines"}},{"local_stop_id":61,"id":61,"geometry":"POINT(-10654710.288472 4451692.554811)","attributes":{"size":"44","description":"767; 44.96%","address":"United States","placename":"United States","title":"Compaction Machines"}},{"local_stop_id":60,"id":60,"geometry":"POINT(-382490.764739 7435586.530983)","attributes":{"size":"1","description":"1; 0.06%","address":"United Kingdom","placename":"United Kingdom","title":"Compaction Machines"}},{"local_stop_id":59,"id":59,"geometry":"POINT(5994311.680089 2683384.657664)","attributes":{"size":"1","description":"6; 0.35%","address":"United Arab Emirates","placename":"United Arab Emirates","title":"Compaction Machines"}},{"local_stop_id":58,"id":58,"geometry":"POINT(11242438.238039 1789676.623494)","attributes":{"size":"1","description":"2; 0.12%","address":"Thailand","placename":"Thailand","title":"Compaction Machines"}},{"local_stop_id":57,"id":57,"geometry":"POINT(915882.446336 5912448.054871)","attributes":{"size":"1","description":"1; 0.06%","address":"Switzerland","placename":"Switzerland","title":"Compaction Machines"}},{"local_stop_id":56,"id":56,"geometry":"POINT(2075385.037924 8428326.96544)","attributes":{"size":"1","description":"20; 1.17%","address":"Sweden","placename":"Sweden","title":"Compaction Machines"}},{"local_stop_id":55,"id":55,"geometry":"POINT(2553391.487988 -3575670.675527)","attributes":{"size":"1","description":"7; 0.41%","address":"South Africa","placename":"South Africa","title":"Compaction Machines"}},{"local_stop_id":54,"id":54,"geometry":"POINT(-1311331.245081 945266.170437)","attributes":{"size":"1","description":"2; 0.12%","address":"Sierra Leone","placename":"Sierra Leone","title":"Compaction Machines"}},{"local_stop_id":53,"id":53,"geometry":"POINT(5018189.359227 2739515.791932)","attributes":{"size":"2","description":"39; 2.29%","address":"Saudi Arabia","placename":"Saudi Arabia","title":"Compaction Machines"}},{"local_stop_id":52,"id":52,"geometry":"POINT(11724030.288901 8747149.04879)","attributes":{"size":"1","description":"4; 0.23%","address":"Russian Federation","placename":"Russian Federation","title":"Compaction Machines"}},{"local_stop_id":51,"id":51,"geometry":"POINT(5697763.903702 2919390.332888)","attributes":{"size":"1","description":"7; 0.41%","address":"Qatar","placename":"Qatar","title":"Compaction Machines"}},{"local_stop_id":50,"id":50,"geometry":"POINT(2131226.790688 6785571.898792)","attributes":{"size":"1","description":"6; 0.35%","address":"Poland","placename":"Poland","title":"Compaction Machines"}},{"local_stop_id":49,"id":49,"geometry":"POINT(16025058.522866 -704409.432655)","attributes":{"size":"1","description":"4; 0.23%","address":"Papua New Guinea","placename":"Papua New Guinea","title":"Compaction Machines"}},{"local_stop_id":48,"id":48,"geometry":"POINT(-8992625.242838 953980.901355)","attributes":{"size":"1","description":"15; 0.88%","address":"Panama","placename":"Panama","title":"Compaction Machines"}},{"local_stop_id":47,"id":47,"geometry":"POINT(6225348.270102 2453104.641232)","attributes":{"size":"1","description":"8; 0.47%","address":"Oman","placename":"Oman","title":"Compaction Machines"}},{"local_stop_id":46,"id":46,"geometry":"POINT(942758.756276 8505587.038689)","attributes":{"size":"1","description":"3; 0.18%","address":"Norway","placename":"Norway","title":"Compaction Machines"}},{"local_stop_id":45,"id":45,"geometry":"POINT(965727.418131 1015263.983184)","attributes":{"size":"1","description":"1; 0.06%","address":"Nigeria","placename":"Nigeria","title":"Compaction Machines"}},{"local_stop_id":44,"id":44,"geometry":"POINT(19468217.238607 -4997684.890551)","attributes":{"size":"1","description":"2; 0.12%","address":"New Zealand","placename":"New Zealand","title":"Compaction Machines"}},{"local_stop_id":43,"id":43,"geometry":"POINT(18436516.101619 -2380471.632631)","attributes":{"size":"1","description":"6; 0.35%","address":"New Caledonia","placename":"New Caledonia","title":"Compaction Machines"}},{"local_stop_id":42,"id":42,"geometry":"POINT(-789546.84679 3735999.22766)","attributes":{"size":"1","description":"4; 0.23%","address":"Morocco","placename":"Morocco","title":"Compaction Machines"}},{"local_stop_id":41,"id":41,"geometry":"POINT(-11416123.694313 2708933.292233)","attributes":{"size":"2","description":"36; 2.11%","address":"Mexico","placename":"Mexico","title":"Compaction Machines"}},{"local_stop_id":40,"id":40,"geometry":"POINT(3992171.304883 4009311.247656)","attributes":{"size":"1","description":"4; 0.23%","address":"Lebanon","placename":"Lebanon","title":"Compaction Machines"}},{"local_stop_id":39,"id":39,"geometry":"POINT(-8234182.842887 4975714.164706)","attributes":{"size":"1","description":"25; 1.47%","address":"Korea, Republic of","placename":"Republic of Korea Mission to the U.N., 335 E 45th St #7, New York, NY 10017, USA","title":"Compaction Machines"}},{"local_stop_id":38,"id":38,"geometry":"POINT(3879663.701165 3638731.187583)","attributes":{"size":"1","description":"4; 0.23%","address":"Israel","placename":"Israel","title":"Compaction Machines"}},{"local_stop_id":37,"id":37,"geometry":"POINT(-113901.435063 887453.057712)","attributes":{"size":"1","description":"3; 0.18%","address":"Ghana","placename":"Ghana","title":"Compaction Machines"}},{"local_stop_id":36,"id":36,"geometry":"POINT(1163458.552333 6650655.041174)","attributes":{"size":"1","description":"1; 0.06%","address":"Germany","placename":"Germany","title":"Compaction Machines"}},{"local_stop_id":35,"id":35,"geometry":"POINT(246433.411424 5816903.713427)","attributes":{"size":"1","description":"2; 0.12%","address":"France","placename":"France","title":"Compaction Machines"}},{"local_stop_id":34,"id":34,"geometry":"POINT(2866271.058188 8841170.394214)","attributes":{"size":"1","description":"6; 0.35%","address":"Finland","placename":"Finland","title":"Compaction Machines"}},{"local_stop_id":33,"id":33,"geometry":"POINT(-8703336.944404 -203887.308284)","attributes":{"size":"1","description":"18; 1.06%","address":"Ecuador","placename":"Ecuador","title":"Compaction Machines"}},{"local_stop_id":32,"id":32,"geometry":"POINT(-617498.12099 841780.906412)","attributes":{"size":"1","description":"4; 0.23%","address":"C\u00f4te D'Ivoire","placename":"C\u00f4te d'Ivoire","title":"Compaction Machines"}},{"local_stop_id":31,"id":31,"geometry":"POINT(-9323388.957151 1090519.231591)","attributes":{"size":"1","description":"6; 0.35%","address":"Costa Rica","placename":"Costa Rica","title":"Compaction Machines"}},{"local_stop_id":30,"id":30,"geometry":"POINT(1711166.298931 -480284.196323)","attributes":{"size":"1","description":"9; 0.53%","address":"Congo, The Democratic Republic Of The","placename":"Congo River","title":"Compaction Machines"}},{"local_stop_id":29,"id":29,"geometry":"POINT(1761926.94033 -25383.248614)","attributes":{"size":"1","description":"1; 0.06%","address":"Congo","placename":"Congo","title":"Compaction Machines"}},{"local_stop_id":28,"id":28,"geometry":"POINT(-8270741.276858 509367.281339)","attributes":{"size":"1","description":"28; 1.64%","address":"Colombia","placename":"Colombia","title":"Compaction Machines"}},{"local_stop_id":27,"id":27,"geometry":"POINT(11598978.537043 4281602.659627)","attributes":{"size":"1","description":"1; 0.06%","address":"China","placename":"China","title":"Compaction Machines"}},{"local_stop_id":26,"id":26,"geometry":"POINT(-11838468.395229 7584411.732747)","attributes":{"size":"6","description":"101; 5.92%","address":"Canada","placename":"Canada","title":"Compaction Machines"}},{"local_stop_id":25,"id":25,"geometry":"POINT(-5780295.728898 -1601191.813438)","attributes":{"size":"1","description":"23; 1.35%","address":"Brazil","placename":"Brazil","title":"Compaction Machines"}},{"local_stop_id":24,"id":24,"geometry":"POINT(1619706.606045 6026746.974644)","attributes":{"size":"1","description":"2; 0.12%","address":"Austria","placename":"Austria","title":"Compaction Machines"}},{"local_stop_id":23,"id":23,"geometry":"POINT(14891780.020321 -2909486.054997)","attributes":{"size":"1","description":"17; 1.00%","address":"Australia","placename":"Australia","title":"Compaction Machines"}},{"local_stop_id":22,"id":22,"geometry":"POINT(-7081775.533003 -4638374.275084)","attributes":{"size":"1","description":"4; 0.23%","address":"Argentina","placename":"Argentina","title":"Compaction Machines"}},{"local_stop_id":21,"id":21,"geometry":"POINT(7537437.489596 4020628.914252)","attributes":{"size":"1","description":"2; 0.12%","address":"Afghanistan","placename":"Afghanistan","title":"Compaction Machines"}},{"local_stop_id":20,"id":20,"geometry":"POINT(-320835.908166 6635544.549434)","attributes":{"size":"2","description":"38; 2.23%","address":"Other","placename":"Othery, Somerset TA7, UK","title":"Compaction Machines"}},{"local_stop_id":19,"id":19,"geometry":"POINT(-10654710.288472 4451692.554811)","attributes":{"size":"66","description":"$94,651,873.26; 65.92%","address":"US","placename":"United States","title":"Parts"}},{"local_stop_id":18,"id":18,"geometry":"POINT(2075385.037924 8428326.96544)","attributes":{"size":"3","description":"$4,366,207.64; 3.04%","address":"Sweden","placename":"Sweden","title":"Parts"}},{"local_stop_id":17,"id":17,"geometry":"POINT(942758.756276 8505587.038689)","attributes":{"size":"1","description":"$5,110.29; 0.00%","address":"Norway","placename":"Norway","title":"Parts"}},{"local_stop_id":16,"id":16,"geometry":"POINT(589021.036772 6824142.821624)","attributes":{"size":"1","description":"$99,224.58; 0.07%","address":"Netherlands","placename":"The Netherlands","title":"Parts"}},{"local_stop_id":15,"id":15,"geometry":"POINT(-11416123.694313 2708933.292233)","attributes":{"size":"1","description":"$1,254.00; 0.00%","address":"Mexico","placename":"Mexico","title":"Parts"}},{"local_stop_id":14,"id":14,"geometry":"POINT(2658451.372494 7394820.260241)","attributes":{"size":"1","description":"$92,520.46; 0.06%","address":"Lithuania","placename":"Lithuania","title":"Parts"}},{"local_stop_id":13,"id":13,"geometry":"POINT(1398994.342206 5141815.937641)","attributes":{"size":"1","description":"$1,970,076.05; 1.37%","address":"Italy","placename":"Italy","title":"Parts"}},{"local_stop_id":12,"id":12,"geometry":"POINT(8790107.59317 2343495.165705)","attributes":{"size":"1","description":"$36,003.80; 0.03%","address":"India","placename":"India","title":"Parts"}},{"local_stop_id":11,"id":11,"geometry":"POINT(-382490.764739 7435586.530983)","attributes":{"size":"1","description":"$703,972.26; 0.49%","address":"United Kingdom","placename":"United Kingdom","title":"Parts"}},{"local_stop_id":10,"id":10,"geometry":"POINT(246433.411424 5816903.713427)","attributes":{"size":"1","description":"$1,818,138.94; 1.27%","address":"France","placename":"France","title":"Parts"}},{"local_stop_id":9,"id":9,"geometry":"POINT(2866271.058188 8841170.394214)","attributes":{"size":"1","description":"$2,314.15; 0.00%","address":"Finland","placename":"Finland","title":"Parts"}},{"local_stop_id":8,"id":8,"geometry":"POINT(-417361.261272 4933551.652462)","attributes":{"size":"1","description":"$159,285.17; 0.11%","address":"Spain","placename":"Spain","title":"Parts"}},{"local_stop_id":7,"id":7,"geometry":"POINT(1057733.867827 7611135.068229)","attributes":{"size":"1","description":"$69,993.37; 0.05%","address":"Denmark","placename":"Denmark","title":"Parts"}},{"local_stop_id":6,"id":6,"geometry":"POINT(1163458.552333 6650655.041174)","attributes":{"size":"6","description":"$9,289,029.91; 6.47%","address":"Germany","placename":"Germany","title":"Parts"}},{"local_stop_id":5,"id":5,"geometry":"POINT(1722442.250904 6414728.45895)","attributes":{"size":"1","description":"$2,108,947.85; 1.47%","address":"Czech Republic","placename":"Czech Republic","title":"Parts"}},{"local_stop_id":4,"id":4,"geometry":"POINT(11598978.537043 4281602.659627)","attributes":{"size":"1","description":"$326,484.82; 0.23%","address":"China","placename":"China","title":"Parts"}},{"local_stop_id":3,"id":3,"geometry":"POINT(-11838468.395229 7584411.732747)","attributes":{"size":"17","description":"$24,703,695.74; 17.20%","address":"Canada","placename":"Canada","title":"Parts"}},{"local_stop_id":2,"id":2,"geometry":"POINT(-5780295.728898 -1601191.813438)","attributes":{"size":"2","description":"$3,183,524.46; 2.22%","address":"Brazil","placename":"Brazil","title":"Parts"}},{"local_stop_id":1,"id":1,"geometry":"POINT(-8629516.392564 4873304.648119)","attributes":{"description":"","address":"Shippensburg, USA","placename":"Shippensburg, PA 17257, USA","title":"Shippensburg"}}],"hops":[{"from_stop_id":2,"to_stop_id":1,"geometry":"MULTILINESTRING((-5780295.728898 -1601191.813438,-8629516.392564 4873304.648119))","attributes":{}},{"from_stop_id":3,"to_stop_id":1,"geometry":"MULTILINESTRING((-11838468.395229 7584411.732747,-8629516.392564 4873304.648119))","attributes":{}},{"from_stop_id":4,"to_stop_id":1,"geometry":"MULTILINESTRING((11598978.537043 4281602.659627,-8629516.392564 4873304.648119))","attributes":{}},{"from_stop_id":5,"to_stop_id":1,"geometry":"MULTILINESTRING((1722442.250904 6414728.45895,-8629516.392564 4873304.648119))","attributes":{}},{"from_stop_id":6,"to_stop_id":1,"geometry":"MULTILINESTRING((1163458.552333 6650655.041174,-8629516.392564 4873304.648119))","attributes":{}},{"from_stop_id":7,"to_stop_id":1,"geometry":"MULTILINESTRING((1057733.867827 7611135.068229,-8629516.392564 4873304.648119))","attributes":{}},{"from_stop_id":8,"to_stop_id":1,"geometry":"MULTILINESTRING((-417361.261272 4933551.652462,-8629516.392564 4873304.648119))","attributes":{}},{"from_stop_id":9,"to_stop_id":1,"geometry":"MULTILINESTRING((2866271.058188 8841170.394214,-8629516.392564 4873304.648119))","attributes":{}},{"from_stop_id":10,"to_stop_id":1,"geometry":"MULTILINESTRING((246433.411424 5816903.713427,-8629516.392564 4873304.648119))","attributes":{}},{"from_stop_id":11,"to_stop_id":1,"geometry":"MULTILINESTRING((-382490.764739 7435586.530983,-8629516.392564 4873304.648119))","attributes":{}},{"from_stop_id":12,"to_stop_id":1,"geometry":"MULTILINESTRING((8790107.59317 2343495.165705,-8629516.392564 4873304.648119))","attributes":{}},{"from_stop_id":13,"to_stop_id":1,"geometry":"MULTILINESTRING((1398994.342206 5141815.937641,-8629516.392564 4873304.648119))","attributes":{}},{"from_stop_id":14,"to_stop_id":1,"geometry":"MULTILINESTRING((2658451.372494 7394820.260241,-8629516.392564 4873304.648119))","attributes":{}},{"from_stop_id":15,"to_stop_id":1,"geometry":"MULTILINESTRING((-11416123.694313 2708933.292233,-8629516.392564 4873304.648119))","attributes":{}},{"from_stop_id":16,"to_stop_id":1,"geometry":"MULTILINESTRING((589021.036772 6824142.821624,-8629516.392564 4873304.648119))","attributes":{}},{"from_stop_id":17,"to_stop_id":1,"geometry":"MULTILINESTRING((942758.756276 8505587.038689,-8629516.392564 4873304.648119))","attributes":{}},{"from_stop_id":18,"to_stop_id":1,"geometry":"MULTILINESTRING((2075385.037924 8428326.96544,-8629516.392564 4873304.648119))","attributes":{}},{"from_stop_id":19,"to_stop_id":1,"geometry":"MULTILINESTRING((-10654710.288472 4451692.554811,-8629516.392564 4873304.648119))","attributes":{}},{"from_stop_id":1,"to_stop_id":20,"geometry":"MULTILINESTRING((-8629516.392564 4873304.648119,-320835.908166 6635544.549434))","attributes":{}},{"from_stop_id":1,"to_stop_id":21,"geometry":"MULTILINESTRING((-8629516.392564 4873304.648119,7537437.489596 4020628.914252))","attributes":{}},{"from_stop_id":1,"to_stop_id":22,"geometry":"MULTILINESTRING((-8629516.392564 4873304.648119,-7081775.533003 -4638374.275084))","attributes":{}},{"from_stop_id":1,"to_stop_id":23,"geometry":"MULTILINESTRING((-8629516.392564 4873304.648119,14891780.020321 -2909486.054997))","attributes":{}},{"from_stop_id":1,"to_stop_id":24,"geometry":"MULTILINESTRING((-8629516.392564 4873304.648119,1619706.606045 6026746.974644))","attributes":{}},{"from_stop_id":1,"to_stop_id":25,"geometry":"MULTILINESTRING((-8629516.392564 4873304.648119,-5780295.728898 -1601191.813438))","attributes":{}},{"from_stop_id":1,"to_stop_id":26,"geometry":"MULTILINESTRING((-8629516.392564 4873304.648119,-11838468.395229 7584411.732747))","attributes":{}},{"from_stop_id":1,"to_stop_id":27,"geometry":"MULTILINESTRING((-8629516.392564 4873304.648119,11598978.537043 4281602.659627))","attributes":{}},{"from_stop_id":1,"to_stop_id":28,"geometry":"MULTILINESTRING((-8629516.392564 4873304.648119,-8270741.276858 509367.281339))","attributes":{}},{"from_stop_id":1,"to_stop_id":29,"geometry":"MULTILINESTRING((-8629516.392564 4873304.648119,1761926.94033 -25383.248614))","attributes":{}},{"from_stop_id":1,"to_stop_id":30,"geometry":"MULTILINESTRING((-8629516.392564 4873304.648119,1711166.298931 -480284.196323))","attributes":{}},{"from_stop_id":1,"to_stop_id":31,"geometry":"MULTILINESTRING((-8629516.392564 4873304.648119,-9323388.957151 1090519.231591))","attributes":{}},{"from_stop_id":1,"to_stop_id":32,"geometry":"MULTILINESTRING((-8629516.392564 4873304.648119,-617498.12099 841780.906412))","attributes":{}},{"from_stop_id":1,"to_stop_id":33,"geometry":"MULTILINESTRING((-8629516.392564 4873304.648119,-8703336.944404 -203887.308284))","attributes":{}},{"from_stop_id":1,"to_stop_id":34,"geometry":"MULTILINESTRING((-8629516.392564 4873304.648119,2866271.058188 8841170.394214))","attributes":{}},{"from_stop_id":1,"to_stop_id":35,"geometry":"MULTILINESTRING((-8629516.392564 4873304.648119,246433.411424 5816903.713427))","attributes":{}},{"from_stop_id":1,"to_stop_id":36,"geometry":"MULTILINESTRING((-8629516.392564 4873304.648119,1163458.552333 6650655.041174))","attributes":{}},{"from_stop_id":1,"to_stop_id":37,"geometry":"MULTILINESTRING((-8629516.392564 4873304.648119,-113901.435063 887453.057712))","attributes":{}},{"from_stop_id":1,"to_stop_id":38,"geometry":"MULTILINESTRING((-8629516.392564 4873304.648119,3879663.701165 3638731.187583))","attributes":{}},{"from_stop_id":1,"to_stop_id":39,"geometry":"MULTILINESTRING((-8629516.392564 4873304.648119,-8234182.842887 4975714.164706))","attributes":{}},{"from_stop_id":1,"to_stop_id":40,"geometry":"MULTILINESTRING((-8629516.392564 4873304.648119,3992171.304883 4009311.247656))","attributes":{}},{"from_stop_id":1,"to_stop_id":41,"geometry":"MULTILINESTRING((-8629516.392564 4873304.648119,-11416123.694313 2708933.292233))","attributes":{}},{"from_stop_id":1,"to_stop_id":42,"geometry":"MULTILINESTRING((-8629516.392564 4873304.648119,-789546.84679 3735999.22766))","attributes":{}},{"from_stop_id":1,"to_stop_id":43,"geometry":"MULTILINESTRING((-8629516.392564 4873304.648119,18436516.101619 -2380471.632631))","attributes":{}},{"from_stop_id":1,"to_stop_id":44,"geometry":"MULTILINESTRING((-8629516.392564 4873304.648119,19468217.238607 -4997684.890551))","attributes":{}},{"from_stop_id":1,"to_stop_id":45,"geometry":"MULTILINESTRING((-8629516.392564 4873304.648119,965727.418131 1015263.983184))","attributes":{}},{"from_stop_id":1,"to_stop_id":46,"geometry":"MULTILINESTRING((-8629516.392564 4873304.648119,942758.756276 8505587.038689))","attributes":{}},{"from_stop_id":1,"to_stop_id":47,"geometry":"MULTILINESTRING((-8629516.392564 4873304.648119,6225348.270102 2453104.641232))","attributes":{}},{"from_stop_id":1,"to_stop_id":48,"geometry":"MULTILINESTRING((-8629516.392564 4873304.648119,-8992625.242838 953980.901355))","attributes":{}},{"from_stop_id":1,"to_stop_id":49,"geometry":"MULTILINESTRING((-8629516.392564 4873304.648119,16025058.522866 -704409.432655))","attributes":{}},{"from_stop_id":1,"to_stop_id":50,"geometry":"MULTILINESTRING((-8629516.392564 4873304.648119,2131226.790688 6785571.898792))","attributes":{}},{"from_stop_id":1,"to_stop_id":51,"geometry":"MULTILINESTRING((-8629516.392564 4873304.648119,5697763.903702 2919390.332888))","attributes":{}},{"from_stop_id":1,"to_stop_id":52,"geometry":"MULTILINESTRING((-8629516.392564 4873304.648119,11724030.288901 8747149.04879))","attributes":{}},{"from_stop_id":1,"to_stop_id":53,"geometry":"MULTILINESTRING((-8629516.392564 4873304.648119,5018189.359227 2739515.791932))","attributes":{}},{"from_stop_id":1,"to_stop_id":54,"geometry":"MULTILINESTRING((-8629516.392564 4873304.648119,-1311331.245081 945266.170437))","attributes":{}},{"from_stop_id":1,"to_stop_id":55,"geometry":"MULTILINESTRING((-8629516.392564 4873304.648119,2553391.487988 -3575670.675527))","attributes":{}},{"from_stop_id":1,"to_stop_id":56,"geometry":"MULTILINESTRING((-8629516.392564 4873304.648119,2075385.037924 8428326.96544))","attributes":{}},{"from_stop_id":1,"to_stop_id":57,"geometry":"MULTILINESTRING((-8629516.392564 4873304.648119,915882.446336 5912448.054871))","attributes":{}},{"from_stop_id":1,"to_stop_id":58,"geometry":"MULTILINESTRING((-8629516.392564 4873304.648119,11242438.238039 1789676.623494))","attributes":{}},{"from_stop_id":1,"to_stop_id":59,"geometry":"MULTILINESTRING((-8629516.392564 4873304.648119,5994311.680089 2683384.657664))","attributes":{}},{"from_stop_id":1,"to_stop_id":60,"geometry":"MULTILINESTRING((-8629516.392564 4873304.648119,-382490.764739 7435586.530983))","attributes":{}},{"from_stop_id":1,"to_stop_id":61,"geometry":"MULTILINESTRING((-8629516.392564 4873304.648119,-10654710.288472 4451692.554811))","attributes":{}},{"from_stop_id":1,"to_stop_id":62,"geometry":"MULTILINESTRING((-8629516.392564 4873304.648119,0 0))","attributes":{}},{"from_stop_id":1,"to_stop_id":63,"geometry":"MULTILINESTRING((-8629516.392564 4873304.648119,-320835.908166 6635544.549434))","attributes":{}},{"from_stop_id":1,"to_stop_id":64,"geometry":"MULTILINESTRING((-8629516.392564 4873304.648119,-10654710.288472 4451692.554811))","attributes":{}},{"from_stop_id":1,"to_stop_id":65,"geometry":"MULTILINESTRING((-8629516.392564 4873304.648119,-320835.908166 6635544.549434))","attributes":{}},{"from_stop_id":1,"to_stop_id":66,"geometry":"MULTILINESTRING((-8629516.392564 4873304.648119,-11838468.395229 7584411.732747))","attributes":{}},{"from_stop_id":1,"to_stop_id":67,"geometry":"MULTILINESTRING((-8629516.392564 4873304.648119,16118364.404978 1510538.962254))","attributes":{}},{"from_stop_id":1,"to_stop_id":68,"geometry":"MULTILINESTRING((-8629516.392564 4873304.648119,3879663.701165 3638731.187583))","attributes":{}},{"from_stop_id":1,"to_stop_id":69,"geometry":"MULTILINESTRING((-8629516.392564 4873304.648119,15390245.100361 4328841.562513))","attributes":{}},{"from_stop_id":1,"to_stop_id":70,"geometry":"MULTILINESTRING((-8629516.392564 4873304.648119,942758.756276 8505587.038689))","attributes":{}},{"from_stop_id":1,"to_stop_id":71,"geometry":"MULTILINESTRING((-8629516.392564 4873304.648119,6225348.270102 2453104.641232))","attributes":{}},{"from_stop_id":1,"to_stop_id":72,"geometry":"MULTILINESTRING((-8629516.392564 4873304.648119,2131226.790688 6785571.898792))","attributes":{}},{"from_stop_id":1,"to_stop_id":73,"geometry":"MULTILINESTRING((-8629516.392564 4873304.648119,2779287.009958 5771245.404432))","attributes":{}},{"from_stop_id":1,"to_stop_id":74,"geometry":"MULTILINESTRING((-8629516.392564 4873304.648119,2075385.037924 8428326.96544))","attributes":{}},{"from_stop_id":1,"to_stop_id":75,"geometry":"MULTILINESTRING((-8629516.392564 4873304.648119,-10654710.288472 4451692.554811))","attributes":{}},{"from_stop_id":1,"to_stop_id":76,"geometry":"MULTILINESTRING((-8629516.392564 4873304.648119,-320835.908166 6635544.549434))","attributes":{}},{"from_stop_id":1,"to_stop_id":77,"geometry":"MULTILINESTRING((-8629516.392564 4873304.648119,14891780.020321 -2909486.054997))","attributes":{}},{"from_stop_id":1,"to_stop_id":78,"geometry":"MULTILINESTRING((-8629516.392564 4873304.648119,-11838468.395229 7584411.732747))","attributes":{}},{"from_stop_id":1,"to_stop_id":79,"geometry":"MULTILINESTRING((-8629516.392564 4873304.648119,-10654710.288472 4451692.554811))","attributes":{}}]},"editable":false}