{"type":"FeatureCollection","features":[{"type":"Feature","geometry":{"type":"Point","coordinates":[-95.712890999999,37.090240000003]},"properties":{"size":"4","description":"67; 3.93%","address":"United States","placename":"United States","title":"Paving Machines"}},{"type":"Feature","geometry":{"type":"Point","coordinates":[-106.346771,56.130366000001]},"properties":{"size":"1","description":"6; 0.35%","address":"Canada","placename":"Canada","title":"Paving Machines"}},{"type":"Feature","geometry":{"type":"Point","coordinates":[133.775136,-25.274397999999]},"properties":{"size":"1","description":"4; 0.23%","address":"Australia","placename":"Australia","title":"Paving Machines"}},{"type":"Feature","geometry":{"type":"Point","coordinates":[-2.8821179999988,51.080493999999]},"properties":{"size":"1","description":"8; 0.47%","address":"Other","placename":"Othery, Somerset TA7, UK","title":"Paving Machines"}},{"type":"Feature","geometry":{"type":"Point","coordinates":[-95.712890999999,37.090240000003]},"properties":{"size":"11","description":"198; 11.61%","address":"United States","placename":"United States","title":"Motor Graders"}},{"type":"Feature","geometry":{"type":"Point","coordinates":[18.643501000001,60.128160999999]},"properties":{"size":"1","description":"4; 0.23%","address":"Sweden","placename":"Sweden","title":"Motor Graders"}},{"type":"Feature","geometry":{"type":"Point","coordinates":[24.966760000001,45.943161000003]},"properties":{"size":"1","description":"1; 0.06%","address":"Romania","placename":"Romania","title":"Motor Graders"}},{"type":"Feature","geometry":{"type":"Point","coordinates":[19.145136,51.919437999998]},"properties":{"size":"1","description":"6; 0.35%","address":"Poland","placename":"Poland","title":"Motor Graders"}},{"type":"Feature","geometry":{"type":"Point","coordinates":[55.923254999996,21.512583000003]},"properties":{"size":"1","description":"1; 0.06%","address":"Oman","placename":"Oman","title":"Motor Graders"}},{"type":"Feature","geometry":{"type":"Point","coordinates":[8.4689460000024,60.472024]},"properties":{"size":"1","description":"3; 0.18%","address":"Norway","placename":"Norway","title":"Motor Graders"}},{"type":"Feature","geometry":{"type":"Point","coordinates":[138.252924,36.204824000001]},"properties":{"size":"1","description":"2; 0.12%","address":"Japan","placename":"Japan","title":"Motor Graders"}},{"type":"Feature","geometry":{"type":"Point","coordinates":[34.851612000002,31.046051]},"properties":{"size":"1","description":"3; 0.18%","address":"Israel","placename":"Israel","title":"Motor Graders"}},{"type":"Feature","geometry":{"type":"Point","coordinates":[144.793731,13.444304000001]},"properties":{"size":"1","description":"1; 0.06%","address":"Guam","placename":"Guam","title":"Motor Graders"}},{"type":"Feature","geometry":{"type":"Point","coordinates":[-106.346771,56.130366000001]},"properties":{"size":"8","description":"142; 8.32%","address":"Canada","placename":"Canada","title":"Motor Graders"}},{"type":"Feature","geometry":{"type":"Point","coordinates":[-2.8821179999988,51.080493999999]},"properties":{"size":"1","description":"4; 0.23%","address":"Other","placename":"Othery, Somerset TA7, UK","title":"Motor Graders"}},{"type":"Feature","geometry":{"type":"Point","coordinates":[-95.712890999999,37.090240000003]},"properties":{"size":"1","description":"3; 0.18%","address":"United States","placename":"United States","title":"Milling Machines"}},{"type":"Feature","geometry":{"type":"Point","coordinates":[-2.8821179999988,51.080493999999]},"properties":{"size":"1","description":"3; 0.18%","address":"Other","placename":"Othery, Somerset TA7, UK","title":"Milling Machines"}},{"type":"Feature","geometry":{"type":"Point","coordinates":[0,0]},"properties":{"size":"1","description":"9; 0.53%","address":"Venezuela, Bolivarian Republic of","title":"Compaction Machines"}},{"type":"Feature","geometry":{"type":"Point","coordinates":[-95.712890999999,37.090240000003]},"properties":{"size":"44","description":"767; 44.96%","address":"United States","placename":"United States","title":"Compaction Machines"}},{"type":"Feature","geometry":{"type":"Point","coordinates":[-3.4359729999961,55.378051000001]},"properties":{"size":"1","description":"1; 0.06%","address":"United Kingdom","placename":"United Kingdom","title":"Compaction Machines"}},{"type":"Feature","geometry":{"type":"Point","coordinates":[53.847818000001,23.424076000003]},"properties":{"size":"1","description":"6; 0.35%","address":"United Arab Emirates","placename":"United Arab Emirates","title":"Compaction Machines"}},{"type":"Feature","geometry":{"type":"Point","coordinates":[100.992541,15.870032]},"properties":{"size":"1","description":"2; 0.12%","address":"Thailand","placename":"Thailand","title":"Compaction Machines"}},{"type":"Feature","geometry":{"type":"Point","coordinates":[8.2275120000041,46.818187999999]},"properties":{"size":"1","description":"1; 0.06%","address":"Switzerland","placename":"Switzerland","title":"Compaction Machines"}},{"type":"Feature","geometry":{"type":"Point","coordinates":[18.643501000001,60.128160999999]},"properties":{"size":"1","description":"20; 1.17%","address":"Sweden","placename":"Sweden","title":"Compaction Machines"}},{"type":"Feature","geometry":{"type":"Point","coordinates":[22.937506000003,-30.559481999999]},"properties":{"size":"1","description":"7; 0.41%","address":"South Africa","placename":"South Africa","title":"Compaction Machines"}},{"type":"Feature","geometry":{"type":"Point","coordinates":[-11.779888999997,8.4605550000039]},"properties":{"size":"1","description":"2; 0.12%","address":"Sierra Leone","placename":"Sierra Leone","title":"Compaction Machines"}},{"type":"Feature","geometry":{"type":"Point","coordinates":[45.079161999996,23.885942]},"properties":{"size":"2","description":"39; 2.29%","address":"Saudi Arabia","placename":"Saudi Arabia","title":"Compaction Machines"}},{"type":"Feature","geometry":{"type":"Point","coordinates":[105.318756,61.52401]},"properties":{"size":"1","description":"4; 0.23%","address":"Russian Federation","placename":"Russian Federation","title":"Compaction Machines"}},{"type":"Feature","geometry":{"type":"Point","coordinates":[51.183884,25.354825999999]},"properties":{"size":"1","description":"7; 0.41%","address":"Qatar","placename":"Qatar","title":"Compaction Machines"}},{"type":"Feature","geometry":{"type":"Point","coordinates":[19.145136,51.919437999998]},"properties":{"size":"1","description":"6; 0.35%","address":"Poland","placename":"Poland","title":"Compaction Machines"}},{"type":"Feature","geometry":{"type":"Point","coordinates":[143.95555,-6.3149930000017]},"properties":{"size":"1","description":"4; 0.23%","address":"Papua New Guinea","placename":"Papua New Guinea","title":"Compaction Machines"}},{"type":"Feature","geometry":{"type":"Point","coordinates":[-80.782127000004,8.5379810000007]},"properties":{"size":"1","description":"15; 0.88%","address":"Panama","placename":"Panama","title":"Compaction Machines"}},{"type":"Feature","geometry":{"type":"Point","coordinates":[55.923254999996,21.512583000003]},"properties":{"size":"1","description":"8; 0.47%","address":"Oman","placename":"Oman","title":"Compaction Machines"}},{"type":"Feature","geometry":{"type":"Point","coordinates":[8.4689460000024,60.472024]},"properties":{"size":"1","description":"3; 0.18%","address":"Norway","placename":"Norway","title":"Compaction Machines"}},{"type":"Feature","geometry":{"type":"Point","coordinates":[8.6752770000036,9.0819989999966]},"properties":{"size":"1","description":"1; 0.06%","address":"Nigeria","placename":"Nigeria","title":"Compaction Machines"}},{"type":"Feature","geometry":{"type":"Point","coordinates":[174.885971,-40.900556999999]},"properties":{"size":"1","description":"2; 0.12%","address":"New Zealand","placename":"New Zealand","title":"Compaction Machines"}},{"type":"Feature","geometry":{"type":"Point","coordinates":[165.618042,-20.904305000001]},"properties":{"size":"1","description":"6; 0.35%","address":"New Caledonia","placename":"New Caledonia","title":"Compaction Machines"}},{"type":"Feature","geometry":{"type":"Point","coordinates":[-7.0926199999983,31.791702]},"properties":{"size":"1","description":"4; 0.23%","address":"Morocco","placename":"Morocco","title":"Compaction Machines"}},{"type":"Feature","geometry":{"type":"Point","coordinates":[-102.552784,23.634501000001]},"properties":{"size":"2","description":"36; 2.11%","address":"Mexico","placename":"Mexico","title":"Compaction Machines"}},{"type":"Feature","geometry":{"type":"Point","coordinates":[35.862284999998,33.854721000002]},"properties":{"size":"1","description":"4; 0.23%","address":"Lebanon","placename":"Lebanon","title":"Compaction Machines"}},{"type":"Feature","geometry":{"type":"Point","coordinates":[-73.968923000001,40.751209999999]},"properties":{"size":"1","description":"25; 1.47%","address":"Korea, Republic of","placename":"Republic of Korea Mission to the U.N., 335 E 45th St #7, New York, NY 10017, USA","title":"Compaction Machines"}},{"type":"Feature","geometry":{"type":"Point","coordinates":[34.851612000002,31.046051]},"properties":{"size":"1","description":"4; 0.23%","address":"Israel","placename":"Israel","title":"Compaction Machines"}},{"type":"Feature","geometry":{"type":"Point","coordinates":[-1.0231940000024,7.9465270000027]},"properties":{"size":"1","description":"3; 0.18%","address":"Ghana","placename":"Ghana","title":"Compaction Machines"}},{"type":"Feature","geometry":{"type":"Point","coordinates":[10.451526000003,51.165690999999]},"properties":{"size":"1","description":"1; 0.06%","address":"Germany","placename":"Germany","title":"Compaction Machines"}},{"type":"Feature","geometry":{"type":"Point","coordinates":[2.2137489999989,46.227638]},"properties":{"size":"1","description":"2; 0.12%","address":"France","placename":"France","title":"Compaction Machines"}},{"type":"Feature","geometry":{"type":"Point","coordinates":[25.748150999997,61.924109999999]},"properties":{"size":"1","description":"6; 0.35%","address":"Finland","placename":"Finland","title":"Compaction Machines"}},{"type":"Feature","geometry":{"type":"Point","coordinates":[-78.183406000002,-1.8312390000011]},"properties":{"size":"1","description":"18; 1.06%","address":"Ecuador","placename":"Ecuador","title":"Compaction Machines"}},{"type":"Feature","geometry":{"type":"Point","coordinates":[-5.547080000004,7.5399890000007]},"properties":{"size":"1","description":"4; 0.23%","address":"C\u00f4te D'Ivoire","placename":"C\u00f4te d'Ivoire","title":"Compaction Machines"}},{"type":"Feature","geometry":{"type":"Point","coordinates":[-83.753427999999,9.7489169999974]},"properties":{"size":"1","description":"6; 0.35%","address":"Costa Rica","placename":"Costa Rica","title":"Compaction Machines"}},{"type":"Feature","geometry":{"type":"Point","coordinates":[15.3716684,-4.3103946999997]},"properties":{"size":"1","description":"9; 0.53%","address":"Congo, The Democratic Republic Of The","placename":"Congo River","title":"Compaction Machines"}},{"type":"Feature","geometry":{"type":"Point","coordinates":[15.827659000004,-0.22802099999814]},"properties":{"size":"1","description":"1; 0.06%","address":"Congo","placename":"Congo","title":"Compaction Machines"}},{"type":"Feature","geometry":{"type":"Point","coordinates":[-74.297332999997,4.5708679999982]},"properties":{"size":"1","description":"28; 1.64%","address":"Colombia","placename":"Colombia","title":"Compaction Machines"}},{"type":"Feature","geometry":{"type":"Point","coordinates":[104.195397,35.861660000001]},"properties":{"size":"1","description":"1; 0.06%","address":"China","placename":"China","title":"Compaction Machines"}},{"type":"Feature","geometry":{"type":"Point","coordinates":[-106.346771,56.130366000001]},"properties":{"size":"6","description":"101; 5.92%","address":"Canada","placename":"Canada","title":"Compaction Machines"}},{"type":"Feature","geometry":{"type":"Point","coordinates":[-51.925279999999,-14.235004]},"properties":{"size":"1","description":"23; 1.35%","address":"Brazil","placename":"Brazil","title":"Compaction Machines"}},{"type":"Feature","geometry":{"type":"Point","coordinates":[14.550071999996,47.516230999997]},"properties":{"size":"1","description":"2; 0.12%","address":"Austria","placename":"Austria","title":"Compaction Machines"}},{"type":"Feature","geometry":{"type":"Point","coordinates":[133.775136,-25.274397999999]},"properties":{"size":"1","description":"17; 1.00%","address":"Australia","placename":"Australia","title":"Compaction Machines"}},{"type":"Feature","geometry":{"type":"Point","coordinates":[-63.616672000003,-38.416096999997]},"properties":{"size":"1","description":"4; 0.23%","address":"Argentina","placename":"Argentina","title":"Compaction Machines"}},{"type":"Feature","geometry":{"type":"Point","coordinates":[67.709952999996,33.939110000002]},"properties":{"size":"1","description":"2; 0.12%","address":"Afghanistan","placename":"Afghanistan","title":"Compaction Machines"}},{"type":"Feature","geometry":{"type":"Point","coordinates":[-2.8821179999988,51.080493999999]},"properties":{"size":"2","description":"38; 2.23%","address":"Other","placename":"Othery, Somerset TA7, UK","title":"Compaction Machines"}},{"type":"Feature","geometry":{"type":"Point","coordinates":[-95.712890999999,37.090240000003]},"properties":{"size":"66","description":"$94,651,873.26; 65.92%","address":"US","placename":"United States","title":"Parts"}},{"type":"Feature","geometry":{"type":"Point","coordinates":[18.643501000001,60.128160999999]},"properties":{"size":"3","description":"$4,366,207.64; 3.04%","address":"Sweden","placename":"Sweden","title":"Parts"}},{"type":"Feature","geometry":{"type":"Point","coordinates":[8.4689460000024,60.472024]},"properties":{"size":"1","description":"$5,110.29; 0.00%","address":"Norway","placename":"Norway","title":"Parts"}},{"type":"Feature","geometry":{"type":"Point","coordinates":[5.2912660000021,52.132633000001]},"properties":{"size":"1","description":"$99,224.58; 0.07%","address":"Netherlands","placename":"The Netherlands","title":"Parts"}},{"type":"Feature","geometry":{"type":"Point","coordinates":[-102.552784,23.634501000001]},"properties":{"size":"1","description":"$1,254.00; 0.00%","address":"Mexico","placename":"Mexico","title":"Parts"}},{"type":"Feature","geometry":{"type":"Point","coordinates":[23.881274999999,55.169437999999]},"properties":{"size":"1","description":"$92,520.46; 0.06%","address":"Lithuania","placename":"Lithuania","title":"Parts"}},{"type":"Feature","geometry":{"type":"Point","coordinates":[12.567380000004,41.871939999999]},"properties":{"size":"1","description":"$1,970,076.05; 1.37%","address":"Italy","placename":"Italy","title":"Parts"}},{"type":"Feature","geometry":{"type":"Point","coordinates":[78.962879999997,20.593684000004]},"properties":{"size":"1","description":"$36,003.80; 0.03%","address":"India","placename":"India","title":"Parts"}},{"type":"Feature","geometry":{"type":"Point","coordinates":[-3.4359729999961,55.378051000001]},"properties":{"size":"1","description":"$703,972.26; 0.49%","address":"United Kingdom","placename":"United Kingdom","title":"Parts"}},{"type":"Feature","geometry":{"type":"Point","coordinates":[2.2137489999989,46.227638]},"properties":{"size":"1","description":"$1,818,138.94; 1.27%","address":"France","placename":"France","title":"Parts"}},{"type":"Feature","geometry":{"type":"Point","coordinates":[25.748150999997,61.924109999999]},"properties":{"size":"1","description":"$2,314.15; 0.00%","address":"Finland","placename":"Finland","title":"Parts"}},{"type":"Feature","geometry":{"type":"Point","coordinates":[-3.7492200000004,40.463667000002]},"properties":{"size":"1","description":"$159,285.17; 0.11%","address":"Spain","placename":"Spain","title":"Parts"}},{"type":"Feature","geometry":{"type":"Point","coordinates":[9.5017849999985,56.263920000001]},"properties":{"size":"1","description":"$69,993.37; 0.05%","address":"Denmark","placename":"Denmark","title":"Parts"}},{"type":"Feature","geometry":{"type":"Point","coordinates":[10.451526000003,51.165690999999]},"properties":{"size":"6","description":"$9,289,029.91; 6.47%","address":"Germany","placename":"Germany","title":"Parts"}},{"type":"Feature","geometry":{"type":"Point","coordinates":[15.472962000003,49.817492]},"properties":{"size":"1","description":"$2,108,947.85; 1.47%","address":"Czech Republic","placename":"Czech Republic","title":"Parts"}},{"type":"Feature","geometry":{"type":"Point","coordinates":[104.195397,35.861660000001]},"properties":{"size":"1","description":"$326,484.82; 0.23%","address":"China","placename":"China","title":"Parts"}},{"type":"Feature","geometry":{"type":"Point","coordinates":[-106.346771,56.130366000001]},"properties":{"size":"17","description":"$24,703,695.74; 17.20%","address":"Canada","placename":"Canada","title":"Parts"}},{"type":"Feature","geometry":{"type":"Point","coordinates":[-51.925279999999,-14.235004]},"properties":{"size":"2","description":"$3,183,524.46; 2.22%","address":"Brazil","placename":"Brazil","title":"Parts"}},{"type":"Feature","geometry":{"type":"Point","coordinates":[-77.520264700002,40.0506453]},"properties":{"description":"","address":"Shippensburg, USA","placename":"Shippensburg, PA 17257, USA","title":"Shippensburg"}},{"type":"Feature","geometry":{"type":"LineString","coordinates":[[-51.925279999999,-14.235004],[-77.520264700002,40.0506453]]},"properties":[]},{"type":"Feature","geometry":{"type":"LineString","coordinates":[[-106.346771,56.130366000001],[-77.520264700002,40.0506453]]},"properties":[]},{"type":"Feature","geometry":{"type":"LineString","coordinates":[[104.195397,35.861660000001],[-77.520264700002,40.0506453]]},"properties":[]},{"type":"Feature","geometry":{"type":"LineString","coordinates":[[15.472962000003,49.817492],[-77.520264700002,40.0506453]]},"properties":[]},{"type":"Feature","geometry":{"type":"LineString","coordinates":[[10.451526000003,51.165690999999],[-77.520264700002,40.0506453]]},"properties":[]},{"type":"Feature","geometry":{"type":"LineString","coordinates":[[9.5017849999985,56.263920000001],[-77.520264700002,40.0506453]]},"properties":[]},{"type":"Feature","geometry":{"type":"LineString","coordinates":[[-3.7492200000004,40.463667000002],[-77.520264700002,40.0506453]]},"properties":[]},{"type":"Feature","geometry":{"type":"LineString","coordinates":[[25.748150999997,61.924109999999],[-77.520264700002,40.0506453]]},"properties":[]},{"type":"Feature","geometry":{"type":"LineString","coordinates":[[2.2137489999989,46.227638],[-77.520264700002,40.0506453]]},"properties":[]},{"type":"Feature","geometry":{"type":"LineString","coordinates":[[-3.4359729999961,55.378051000001],[-77.520264700002,40.0506453]]},"properties":[]},{"type":"Feature","geometry":{"type":"LineString","coordinates":[[78.962879999997,20.593684000004],[-77.520264700002,40.0506453]]},"properties":[]},{"type":"Feature","geometry":{"type":"LineString","coordinates":[[12.567380000004,41.871939999999],[-77.520264700002,40.0506453]]},"properties":[]},{"type":"Feature","geometry":{"type":"LineString","coordinates":[[23.881274999999,55.169437999999],[-77.520264700002,40.0506453]]},"properties":[]},{"type":"Feature","geometry":{"type":"LineString","coordinates":[[-102.552784,23.634501000001],[-77.520264700002,40.0506453]]},"properties":[]},{"type":"Feature","geometry":{"type":"LineString","coordinates":[[5.2912660000021,52.132633000001],[-77.520264700002,40.0506453]]},"properties":[]},{"type":"Feature","geometry":{"type":"LineString","coordinates":[[8.4689460000024,60.472024],[-77.520264700002,40.0506453]]},"properties":[]},{"type":"Feature","geometry":{"type":"LineString","coordinates":[[18.643501000001,60.128160999999],[-77.520264700002,40.0506453]]},"properties":[]},{"type":"Feature","geometry":{"type":"LineString","coordinates":[[-95.712890999999,37.090240000003],[-77.520264700002,40.0506453]]},"properties":[]},{"type":"Feature","geometry":{"type":"LineString","coordinates":[[-77.520264700002,40.0506453],[-2.8821179999988,51.080493999999]]},"properties":[]},{"type":"Feature","geometry":{"type":"LineString","coordinates":[[-77.520264700002,40.0506453],[67.709952999996,33.939110000002]]},"properties":[]},{"type":"Feature","geometry":{"type":"LineString","coordinates":[[-77.520264700002,40.0506453],[-63.616672000003,-38.416096999997]]},"properties":[]},{"type":"Feature","geometry":{"type":"LineString","coordinates":[[-77.520264700002,40.0506453],[133.775136,-25.274397999999]]},"properties":[]},{"type":"Feature","geometry":{"type":"LineString","coordinates":[[-77.520264700002,40.0506453],[14.550071999996,47.516230999997]]},"properties":[]},{"type":"Feature","geometry":{"type":"LineString","coordinates":[[-77.520264700002,40.0506453],[-51.925279999999,-14.235004]]},"properties":[]},{"type":"Feature","geometry":{"type":"LineString","coordinates":[[-77.520264700002,40.0506453],[-106.346771,56.130366000001]]},"properties":[]},{"type":"Feature","geometry":{"type":"LineString","coordinates":[[-77.520264700002,40.0506453],[104.195397,35.861660000001]]},"properties":[]},{"type":"Feature","geometry":{"type":"LineString","coordinates":[[-77.520264700002,40.0506453],[-74.297332999997,4.5708679999982]]},"properties":[]},{"type":"Feature","geometry":{"type":"LineString","coordinates":[[-77.520264700002,40.0506453],[15.827659000004,-0.22802099999814]]},"properties":[]},{"type":"Feature","geometry":{"type":"LineString","coordinates":[[-77.520264700002,40.0506453],[15.3716684,-4.3103946999997]]},"properties":[]},{"type":"Feature","geometry":{"type":"LineString","coordinates":[[-77.520264700002,40.0506453],[-83.753427999999,9.7489169999974]]},"properties":[]},{"type":"Feature","geometry":{"type":"LineString","coordinates":[[-77.520264700002,40.0506453],[-5.547080000004,7.5399890000007]]},"properties":[]},{"type":"Feature","geometry":{"type":"LineString","coordinates":[[-77.520264700002,40.0506453],[-78.183406000002,-1.8312390000011]]},"properties":[]},{"type":"Feature","geometry":{"type":"LineString","coordinates":[[-77.520264700002,40.0506453],[25.748150999997,61.924109999999]]},"properties":[]},{"type":"Feature","geometry":{"type":"LineString","coordinates":[[-77.520264700002,40.0506453],[2.2137489999989,46.227638]]},"properties":[]},{"type":"Feature","geometry":{"type":"LineString","coordinates":[[-77.520264700002,40.0506453],[10.451526000003,51.165690999999]]},"properties":[]},{"type":"Feature","geometry":{"type":"LineString","coordinates":[[-77.520264700002,40.0506453],[-1.0231940000024,7.9465270000027]]},"properties":[]},{"type":"Feature","geometry":{"type":"LineString","coordinates":[[-77.520264700002,40.0506453],[34.851612000002,31.046051]]},"properties":[]},{"type":"Feature","geometry":{"type":"LineString","coordinates":[[-77.520264700002,40.0506453],[-73.968923000001,40.751209999999]]},"properties":[]},{"type":"Feature","geometry":{"type":"LineString","coordinates":[[-77.520264700002,40.0506453],[35.862284999998,33.854721000002]]},"properties":[]},{"type":"Feature","geometry":{"type":"LineString","coordinates":[[-77.520264700002,40.0506453],[-102.552784,23.634501000001]]},"properties":[]},{"type":"Feature","geometry":{"type":"LineString","coordinates":[[-77.520264700002,40.0506453],[-7.0926199999983,31.791702]]},"properties":[]},{"type":"Feature","geometry":{"type":"LineString","coordinates":[[-77.520264700002,40.0506453],[165.618042,-20.904305000001]]},"properties":[]},{"type":"Feature","geometry":{"type":"LineString","coordinates":[[-77.520264700002,40.0506453],[174.885971,-40.900556999999]]},"properties":[]},{"type":"Feature","geometry":{"type":"LineString","coordinates":[[-77.520264700002,40.0506453],[8.6752770000036,9.0819989999966]]},"properties":[]},{"type":"Feature","geometry":{"type":"LineString","coordinates":[[-77.520264700002,40.0506453],[8.4689460000024,60.472024]]},"properties":[]},{"type":"Feature","geometry":{"type":"LineString","coordinates":[[-77.520264700002,40.0506453],[55.923254999996,21.512583000003]]},"properties":[]},{"type":"Feature","geometry":{"type":"LineString","coordinates":[[-77.520264700002,40.0506453],[-80.782127000004,8.5379810000007]]},"properties":[]},{"type":"Feature","geometry":{"type":"LineString","coordinates":[[-77.520264700002,40.0506453],[143.95555,-6.3149930000017]]},"properties":[]},{"type":"Feature","geometry":{"type":"LineString","coordinates":[[-77.520264700002,40.0506453],[19.145136,51.919437999998]]},"properties":[]},{"type":"Feature","geometry":{"type":"LineString","coordinates":[[-77.520264700002,40.0506453],[51.183884,25.354825999999]]},"properties":[]},{"type":"Feature","geometry":{"type":"LineString","coordinates":[[-77.520264700002,40.0506453],[105.318756,61.52401]]},"properties":[]},{"type":"Feature","geometry":{"type":"LineString","coordinates":[[-77.520264700002,40.0506453],[45.079161999996,23.885942]]},"properties":[]},{"type":"Feature","geometry":{"type":"LineString","coordinates":[[-77.520264700002,40.0506453],[-11.779888999997,8.4605550000039]]},"properties":[]},{"type":"Feature","geometry":{"type":"LineString","coordinates":[[-77.520264700002,40.0506453],[22.937506000003,-30.559481999999]]},"properties":[]},{"type":"Feature","geometry":{"type":"LineString","coordinates":[[-77.520264700002,40.0506453],[18.643501000001,60.128160999999]]},"properties":[]},{"type":"Feature","geometry":{"type":"LineString","coordinates":[[-77.520264700002,40.0506453],[8.2275120000041,46.818187999999]]},"properties":[]},{"type":"Feature","geometry":{"type":"LineString","coordinates":[[-77.520264700002,40.0506453],[100.992541,15.870032]]},"properties":[]},{"type":"Feature","geometry":{"type":"LineString","coordinates":[[-77.520264700002,40.0506453],[53.847818000001,23.424076000003]]},"properties":[]},{"type":"Feature","geometry":{"type":"LineString","coordinates":[[-77.520264700002,40.0506453],[-3.4359729999961,55.378051000001]]},"properties":[]},{"type":"Feature","geometry":{"type":"LineString","coordinates":[[-77.520264700002,40.0506453],[-95.712890999999,37.090240000003]]},"properties":[]},{"type":"Feature","geometry":{"type":"LineString","coordinates":[[-77.520264700002,40.0506453],[0,0]]},"properties":[]},{"type":"Feature","geometry":{"type":"LineString","coordinates":[[-77.520264700002,40.0506453],[-2.8821179999988,51.080493999999]]},"properties":[]},{"type":"Feature","geometry":{"type":"LineString","coordinates":[[-77.520264700002,40.0506453],[-95.712890999999,37.090240000003]]},"properties":[]},{"type":"Feature","geometry":{"type":"LineString","coordinates":[[-77.520264700002,40.0506453],[-2.8821179999988,51.080493999999]]},"properties":[]},{"type":"Feature","geometry":{"type":"LineString","coordinates":[[-77.520264700002,40.0506453],[-106.346771,56.130366000001]]},"properties":[]},{"type":"Feature","geometry":{"type":"LineString","coordinates":[[-77.520264700002,40.0506453],[144.793731,13.444304000001]]},"properties":[]},{"type":"Feature","geometry":{"type":"LineString","coordinates":[[-77.520264700002,40.0506453],[34.851612000002,31.046051]]},"properties":[]},{"type":"Feature","geometry":{"type":"LineString","coordinates":[[-77.520264700002,40.0506453],[138.252924,36.204824000001]]},"properties":[]},{"type":"Feature","geometry":{"type":"LineString","coordinates":[[-77.520264700002,40.0506453],[8.4689460000024,60.472024]]},"properties":[]},{"type":"Feature","geometry":{"type":"LineString","coordinates":[[-77.520264700002,40.0506453],[55.923254999996,21.512583000003]]},"properties":[]},{"type":"Feature","geometry":{"type":"LineString","coordinates":[[-77.520264700002,40.0506453],[19.145136,51.919437999998]]},"properties":[]},{"type":"Feature","geometry":{"type":"LineString","coordinates":[[-77.520264700002,40.0506453],[24.966760000001,45.943161000003]]},"properties":[]},{"type":"Feature","geometry":{"type":"LineString","coordinates":[[-77.520264700002,40.0506453],[18.643501000001,60.128160999999]]},"properties":[]},{"type":"Feature","geometry":{"type":"LineString","coordinates":[[-77.520264700002,40.0506453],[-95.712890999999,37.090240000003]]},"properties":[]},{"type":"Feature","geometry":{"type":"LineString","coordinates":[[-77.520264700002,40.0506453],[-2.8821179999988,51.080493999999]]},"properties":[]},{"type":"Feature","geometry":{"type":"LineString","coordinates":[[-77.520264700002,40.0506453],[133.775136,-25.274397999999]]},"properties":[]},{"type":"Feature","geometry":{"type":"LineString","coordinates":[[-77.520264700002,40.0506453],[-106.346771,56.130366000001]]},"properties":[]},{"type":"Feature","geometry":{"type":"LineString","coordinates":[[-77.520264700002,40.0506453],[-95.712890999999,37.090240000003]]},"properties":[]}],"properties":{"tags":"","description":"","title":"Shippensburg footprint"}}