{"supplychain":{"category":null,"created":1354563683,"enable_comments":true,"flags":0,"id":4760,"modified":1354578425,"other_perms":1,"passcode":null,"user_featured":false,"usergroup_id":null,"usergroup_perms":0,"user_id":3524,"owner":{"id":3524,"name":"sjanekeller","avatar":"http:\/\/free.sourcemap.com\/assets\/images\/default-user.png","banner_url":null,"display_name":null},"taxonomy":null,"attributes":{"title":"CFL","description":"","tags":""},"stops":[{"local_stop_id":39,"id":39,"geometry":"POINT(-11669835.897621 4826701.608898)","attributes":{"address":"Aurora, Colorado","placename":"Aurora, CO, USA","title":"Landfill"}},{"local_stop_id":38,"id":38,"geometry":"POINT(-11686845.337703 4827879.196195)","attributes":{"address":"Denver, Colorado","placename":"Denver, CO, USA","title":"User"}},{"local_stop_id":37,"id":37,"geometry":"POINT(-13162826.792588 4035817.961317)","attributes":{"address":"Los Angeles, California","placename":"Los Angeles, CA, USA","title":"Port of Los Angeles"}},{"local_stop_id":36,"id":36,"geometry":"POINT(13522390.874053 3662706.345758)","attributes":{"address":"Shanghai, China","placename":"Shanghai, China","title":"Port of Shanghai"}},{"local_stop_id":35,"id":35,"geometry":"POINT(13522390.874053 3662706.345758)","attributes":{"address":"Shanghai, China","placename":"Shanghai, China","title":"CFL Lightbulb"}},{"local_stop_id":34,"id":34,"geometry":"POINT(13375347.62283 3537974.193976)","attributes":{"address":"Zhejiang, China","placename":"Zhejiang, China","title":"ABS Plastic Base"}},{"local_stop_id":33,"id":33,"geometry":"POINT(11878614.545069 3073360.464859)","attributes":{"address":"Guizhou, China","placename":"Guizhou, China","title":"Mercury"}},{"local_stop_id":32,"id":32,"geometry":"POINT(12227371.496596 4961946.01357)","attributes":{"address":"Baotou, China","placename":"Baotou, Inner Mongolia, China","title":"Terbium"}},{"local_stop_id":31,"id":31,"geometry":"POINT(12227371.496596 4961946.01357)","attributes":{"address":"Baotou, China","placename":"Baotou, Inner Mongolia, China","title":"Lanthanum"}},{"local_stop_id":30,"id":30,"geometry":"POINT(11384347.656985 3234055.828101)","attributes":{"address":"Liangshan Autonomous Prefecture, Sichuan Province, China","placename":"Liangshan, Sichuan, China","title":"Yttrium"}},{"local_stop_id":29,"id":29,"geometry":"POINT(12227371.496596 4961946.01357)","attributes":{"address":"Baotou, China","placename":"Baotou, Inner Mongolia, China","title":"Europium"}},{"local_stop_id":28,"id":28,"geometry":"POINT(13474698.041973 3452091.062118)","attributes":{"address":"Shangdong, China","placename":"Shangdong, Shengzhou, Shaoxing, China","title":"Silica"}},{"local_stop_id":27,"id":27,"geometry":"POINT(13474698.041973 3452091.062118)","attributes":{"address":"Shangdong, China","placename":"Shangdong, Shengzhou, Shaoxing, China","title":"Glass Tube"}},{"local_stop_id":26,"id":26,"geometry":"POINT(12902946.109128 3334272.534804)","attributes":{"address":"Jiangxi Province, China","placename":"Jiangxi, China","title":"Tungsten"}},{"local_stop_id":25,"id":25,"geometry":"POINT(-7959559.117385 -1860384.097532)","attributes":{"address":"Mari\u00e1tegui Region,Peru","placename":"Mariategui, Arequipa, Peru","title":"Tin"}},{"local_stop_id":24,"id":24,"geometry":"POINT(11806992.464117 -254819.990239)","attributes":{"address":"Bangka Island, Indonesia","placename":"Bangka Island, Indonesia","title":"Tin"}},{"local_stop_id":23,"id":23,"geometry":"POINT(12058967.259605 2609719.02315)","attributes":{"address":"Guangxi Zhuang Autonomous Region","placename":"Guangxi, China","title":"Tin"}},{"local_stop_id":22,"id":22,"geometry":"POINT(-8634155.877245 -1042673.138412)","attributes":{"address":"Ancash, Peru","placename":"Ancash Region, Peru","title":"Zinc"}},{"local_stop_id":21,"id":21,"geometry":"POINT(12989024.317266 -3292566.621649)","attributes":{"address":"Yalgoo, Western Australia","placename":"Yalgoo WA 6635, Australia","title":"Zinc"}},{"local_stop_id":20,"id":20,"geometry":"POINT(11592546.719504 4375850.02952)","attributes":{"address":"Baiyin, China","placename":"Baiyin, Gansu, China","title":"Zinc"}},{"local_stop_id":19,"id":19,"geometry":"POINT(13417105.52305 -205743.838556)","attributes":{"address":"Sulawesi, Indonesia","placename":"Celebes, Indonesia","title":"Nickel"}},{"local_stop_id":18,"id":18,"geometry":"POINT(-8386946.012373 -1270209.236313)","attributes":{"address":"Junin, Peru","placename":"Jun\u00edn Region, Peru","title":"Nickel"}},{"local_stop_id":17,"id":17,"geometry":"POINT(9818441.204243 10860365.861717)","attributes":{"address":"Norlisk, Russia","placename":"Norilsk, Krasnoyarsk Krai, Russia","title":"Nickel"}},{"local_stop_id":16,"id":16,"geometry":"POINT(12058967.259605 2609719.02315)","attributes":{"address":"Guangxi, China","placename":"Guangxi, China","title":"Aluminum"}},{"local_stop_id":15,"id":15,"geometry":"POINT(16602339.683687 -3943515.297484)","attributes":{"address":"Huntly Mine, Australia","placename":"Phoenix Mine Rd, Huntley NSW 2800, Australia","title":"Aluminum"}},{"local_stop_id":14,"id":14,"geometry":"POINT(-8637835.888104 -739358.4045)","attributes":{"address":"Cerro Verde, Peru","placename":"Cerro Verde, Peru","title":"Copper"}},{"local_stop_id":13,"id":13,"geometry":"POINT(-12170312.554256 3901905.615058)","attributes":{"address":"Morenci, Arizona","placename":"Morenci, AZ 85540, USA","title":"Copper"}},{"local_stop_id":12,"id":12,"geometry":"POINT(-7824161.565824 -2091477.789552)","attributes":{"address":"El Teniente, Chile","placename":"El Teniente, Arica, Arica and Parinacota Region, Chile","title":"Copper"}},{"local_stop_id":11,"id":11,"geometry":"POINT(11598978.537043 4281602.659627)","attributes":{"address":"China","placename":"China","title":"Ferrite"}},{"local_stop_id":10,"id":10,"geometry":"POINT(13951233.738925 5449374.691533)","attributes":{"address":"Jilin, China","placename":"Jilin, China","title":"Silicon Wafer Fabrication"}},{"local_stop_id":9,"id":9,"geometry":"POINT(11557171.277761 150527.162641)","attributes":{"address":"Singapore","placename":"Singapore","title":"Silicon Wafer Fabrication"}},{"local_stop_id":8,"id":8,"geometry":"POINT(12662999.284432 4132062.677005)","attributes":{"address":"Henan, China","placename":"Henan, China","title":"Iron"}},{"local_stop_id":7,"id":7,"geometry":"POINT(13522390.874053 3662706.345758)","attributes":{"address":"Shanghai, China","placename":"Shanghai, China","title":"Polypropolene film"}},{"local_stop_id":6,"id":6,"geometry":"POINT(13375347.62283 3537974.193976)","attributes":{"address":"Zhejiang, China","placename":"Zhejiang, China","title":"Plastic"}},{"local_stop_id":5,"id":5,"geometry":"POINT(12608772.554841 2648012.750165)","attributes":{"address":"Guangdong, China","placename":"Guangdong, China","title":"Plastic"}},{"local_stop_id":4,"id":4,"geometry":"POINT(-6277992.036535 -165880.174146)","attributes":{"address":"Porto Trombetas, Brazil","placename":"Porto Trombetas Airport (TMT) - Oriximin\u00e1 - Par\u00e1, Brazil","title":"Aluminum"}},{"local_stop_id":3,"id":3,"geometry":"POINT(12058967.259605 2609719.02315)","attributes":{"address":"Guangxi, China","placename":"Guangxi, China","title":"Aluminum"}},{"local_stop_id":2,"id":2,"geometry":"POINT(16602339.683687 -3943515.297484)","attributes":{"address":"Huntly Mine, Australia","placename":"Phoenix Mine Rd, Huntley NSW 2800, Australia","title":"Aluminum"}},{"local_stop_id":1,"id":1,"geometry":"POINT(13522390.874053 3662706.345758)","attributes":{"address":"Shanghai, China","placename":"Shanghai, China","title":"CFL Manufacture"}}],"hops":[{"from_stop_id":2,"to_stop_id":1,"geometry":"MULTILINESTRING((16602339.683687 -3943515.297484,13522390.874053 3662706.345758))","attributes":{}},{"from_stop_id":3,"to_stop_id":1,"geometry":"MULTILINESTRING((12058967.259605 2609719.02315,13522390.874053 3662706.345758))","attributes":{}},{"from_stop_id":4,"to_stop_id":1,"geometry":"MULTILINESTRING((-6277992.036535 -165880.174146,13522390.874053 3662706.345758))","attributes":{}},{"from_stop_id":5,"to_stop_id":1,"geometry":"MULTILINESTRING((12608772.554841 2648012.750165,13522390.874053 3662706.345758))","attributes":{}},{"from_stop_id":6,"to_stop_id":1,"geometry":"MULTILINESTRING((13375347.62283 3537974.193976,13522390.874053 3662706.345758))","attributes":{}},{"from_stop_id":7,"to_stop_id":1,"geometry":"MULTILINESTRING((13522390.874053 3662706.345758,13522390.874053 3662706.345758))","attributes":{}},{"from_stop_id":8,"to_stop_id":1,"geometry":"MULTILINESTRING((12662999.284432 4132062.677005,13522390.874053 3662706.345758))","attributes":{}},{"from_stop_id":9,"to_stop_id":1,"geometry":"MULTILINESTRING((11557171.277761 150527.162641,13522390.874053 3662706.345758))","attributes":{}},{"from_stop_id":10,"to_stop_id":1,"geometry":"MULTILINESTRING((13951233.738925 5449374.691533,13522390.874053 3662706.345758))","attributes":{}},{"from_stop_id":11,"to_stop_id":1,"geometry":"MULTILINESTRING((11598978.537043 4281602.659627,13522390.874053 3662706.345758))","attributes":{}},{"from_stop_id":12,"to_stop_id":1,"geometry":"MULTILINESTRING((-7824161.565824 -2091477.789552,13522390.874053 3662706.345758))","attributes":{}},{"from_stop_id":13,"to_stop_id":1,"geometry":"MULTILINESTRING((-12170312.554256 3901905.615058,13522390.874053 3662706.345758))","attributes":{}},{"from_stop_id":14,"to_stop_id":1,"geometry":"MULTILINESTRING((-8637835.888104 -739358.4045,13522390.874053 3662706.345758))","attributes":{}},{"from_stop_id":15,"to_stop_id":1,"geometry":"MULTILINESTRING((16602339.683687 -3943515.297484,13522390.874053 3662706.345758))","attributes":{}},{"from_stop_id":16,"to_stop_id":1,"geometry":"MULTILINESTRING((12058967.259605 2609719.02315,13522390.874053 3662706.345758))","attributes":{}},{"from_stop_id":17,"to_stop_id":1,"geometry":"MULTILINESTRING((9818441.204243 10860365.861717,13522390.874053 3662706.345758))","attributes":{}},{"from_stop_id":18,"to_stop_id":1,"geometry":"MULTILINESTRING((-8386946.012373 -1270209.236313,13522390.874053 3662706.345758))","attributes":{}},{"from_stop_id":19,"to_stop_id":1,"geometry":"MULTILINESTRING((13417105.52305 -205743.838556,13522390.874053 3662706.345758))","attributes":{}},{"from_stop_id":20,"to_stop_id":1,"geometry":"MULTILINESTRING((11592546.719504 4375850.02952,13522390.874053 3662706.345758))","attributes":{}},{"from_stop_id":21,"to_stop_id":1,"geometry":"MULTILINESTRING((12989024.317266 -3292566.621649,13522390.874053 3662706.345758))","attributes":{}},{"from_stop_id":22,"to_stop_id":1,"geometry":"MULTILINESTRING((-8634155.877245 -1042673.138412,13522390.874053 3662706.345758))","attributes":{}},{"from_stop_id":23,"to_stop_id":1,"geometry":"MULTILINESTRING((12058967.259605 2609719.02315,13522390.874053 3662706.345758))","attributes":{}},{"from_stop_id":24,"to_stop_id":1,"geometry":"MULTILINESTRING((11806992.464117 -254819.990239,13522390.874053 3662706.345758))","attributes":{}},{"from_stop_id":25,"to_stop_id":1,"geometry":"MULTILINESTRING((-7959559.117385 -1860384.097532,13522390.874053 3662706.345758))","attributes":{}},{"from_stop_id":26,"to_stop_id":1,"geometry":"MULTILINESTRING((12902946.109128 3334272.534804,13522390.874053 3662706.345758))","attributes":{}},{"from_stop_id":27,"to_stop_id":1,"geometry":"MULTILINESTRING((13474698.041973 3452091.062118,13522390.874053 3662706.345758))","attributes":{}},{"from_stop_id":28,"to_stop_id":1,"geometry":"MULTILINESTRING((13474698.041973 3452091.062118,13522390.874053 3662706.345758))","attributes":{}},{"from_stop_id":29,"to_stop_id":1,"geometry":"MULTILINESTRING((12227371.496596 4961946.01357,13522390.874053 3662706.345758))","attributes":{}},{"from_stop_id":30,"to_stop_id":1,"geometry":"MULTILINESTRING((11384347.656985 3234055.828101,13522390.874053 3662706.345758))","attributes":{}},{"from_stop_id":31,"to_stop_id":1,"geometry":"MULTILINESTRING((12227371.496596 4961946.01357,13522390.874053 3662706.345758))","attributes":{}},{"from_stop_id":32,"to_stop_id":1,"geometry":"MULTILINESTRING((12227371.496596 4961946.01357,13522390.874053 3662706.345758))","attributes":{}},{"from_stop_id":33,"to_stop_id":1,"geometry":"MULTILINESTRING((11878614.545069 3073360.464859,13522390.874053 3662706.345758))","attributes":{}},{"from_stop_id":34,"to_stop_id":1,"geometry":"MULTILINESTRING((13375347.62283 3537974.193976,13522390.874053 3662706.345758))","attributes":{}},{"from_stop_id":35,"to_stop_id":36,"geometry":"MULTILINESTRING((13522390.874053 3662706.345758,13522390.874053 3662706.345758))","attributes":{}},{"from_stop_id":36,"to_stop_id":37,"geometry":"MULTILINESTRING((13522390.874053 3662706.345758,-13162826.792588 4035817.961317))","attributes":{}},{"from_stop_id":37,"to_stop_id":38,"geometry":"MULTILINESTRING((-13162826.792588 4035817.961317,-11686845.337703 4827879.196195))","attributes":{}},{"from_stop_id":38,"to_stop_id":39,"geometry":"MULTILINESTRING((-11686845.337703 4827879.196195,-11669835.897621 4826701.608898))","attributes":{}}]},"editable":false}