{"type":"FeatureCollection","features":[{"type":"Feature","geometry":{"type":"Point","coordinates":[-104.8319195,39.729431900001]},"properties":{"address":"Aurora, Colorado","placename":"Aurora, CO, USA","title":"Landfill"}},{"type":"Feature","geometry":{"type":"Point","coordinates":[-104.9847179,39.737567000003]},"properties":{"address":"Denver, Colorado","placename":"Denver, CO, USA","title":"User"}},{"type":"Feature","geometry":{"type":"Point","coordinates":[-118.2436849,34.052234200001]},"properties":{"address":"Los Angeles, California","placename":"Los Angeles, CA, USA","title":"Port of Los Angeles"}},{"type":"Feature","geometry":{"type":"Point","coordinates":[121.473704,31.230393]},"properties":{"address":"Shanghai, China","placename":"Shanghai, China","title":"Port of Shanghai"}},{"type":"Feature","geometry":{"type":"Point","coordinates":[121.473704,31.230393]},"properties":{"address":"Shanghai, China","placename":"Shanghai, China","title":"CFL Lightbulb"}},{"type":"Feature","geometry":{"type":"Point","coordinates":[120.152792,30.267446999997]},"properties":{"address":"Zhejiang, China","placename":"Zhejiang, China","title":"ABS Plastic Base"}},{"type":"Feature","geometry":{"type":"Point","coordinates":[106.70741,26.598194000001]},"properties":{"address":"Guizhou, China","placename":"Guizhou, China","title":"Mercury"}},{"type":"Feature","geometry":{"type":"Point","coordinates":[109.840347,40.657449000003]},"properties":{"address":"Baotou, China","placename":"Baotou, Inner Mongolia, China","title":"Terbium"}},{"type":"Feature","geometry":{"type":"Point","coordinates":[109.840347,40.657449000003]},"properties":{"address":"Baotou, China","placename":"Baotou, Inner Mongolia, China","title":"Lanthanum"}},{"type":"Feature","geometry":{"type":"Point","coordinates":[102.267335,27.881610999999]},"properties":{"address":"Liangshan Autonomous Prefecture, Sichuan Province, China","placename":"Liangshan, Sichuan, China","title":"Yttrium"}},{"type":"Feature","geometry":{"type":"Point","coordinates":[109.840347,40.657449000003]},"properties":{"address":"Baotou, China","placename":"Baotou, Inner Mongolia, China","title":"Europium"}},{"type":"Feature","geometry":{"type":"Point","coordinates":[121.045272,29.598863999997]},"properties":{"address":"Shangdong, China","placename":"Shangdong, Shengzhou, Shaoxing, China","title":"Silica"}},{"type":"Feature","geometry":{"type":"Point","coordinates":[121.045272,29.598863999997]},"properties":{"address":"Shangdong, China","placename":"Shangdong, Shengzhou, Shaoxing, China","title":"Glass Tube"}},{"type":"Feature","geometry":{"type":"Point","coordinates":[115.909137,28.674425]},"properties":{"address":"Jiangxi Province, China","placename":"Jiangxi, China","title":"Tungsten"}},{"type":"Feature","geometry":{"type":"Point","coordinates":[-71.501936099998,-16.480061299999]},"properties":{"address":"Mari\u00e1tegui Region,Peru","placename":"Mariategui, Arequipa, Peru","title":"Tin"}},{"type":"Feature","geometry":{"type":"Point","coordinates":[106.0640179,-2.2884781999978]},"properties":{"address":"Bangka Island, Indonesia","placename":"Bangka Island, Indonesia","title":"Tin"}},{"type":"Feature","geometry":{"type":"Point","coordinates":[108.327546,22.815477999999]},"properties":{"address":"Guangxi Zhuang Autonomous Region","placename":"Guangxi, China","title":"Tin"}},{"type":"Feature","geometry":{"type":"Point","coordinates":[-77.561941899996,-9.3250497000018]},"properties":{"address":"Ancash, Peru","placename":"Ancash Region, Peru","title":"Zinc"}},{"type":"Feature","geometry":{"type":"Point","coordinates":[116.6823907,-28.345207000002]},"properties":{"address":"Yalgoo, Western Australia","placename":"Yalgoo WA 6635, Australia","title":"Zinc"}},{"type":"Feature","geometry":{"type":"Point","coordinates":[104.137619,36.544826999997]},"properties":{"address":"Baiyin, China","placename":"Baiyin, Gansu, China","title":"Zinc"}},{"type":"Feature","geometry":{"type":"Point","coordinates":[120.5279096,-1.8479078999985]},"properties":{"address":"Sulawesi, Indonesia","placename":"Celebes, Indonesia","title":"Nickel"}},{"type":"Feature","geometry":{"type":"Point","coordinates":[-75.341217899999,-11.335797999996]},"properties":{"address":"Junin, Peru","placename":"Jun\u00edn Region, Peru","title":"Nickel"}},{"type":"Feature","geometry":{"type":"Point","coordinates":[88.200558000004,69.3499497]},"properties":{"address":"Norlisk, Russia","placename":"Norilsk, Krasnoyarsk Krai, Russia","title":"Nickel"}},{"type":"Feature","geometry":{"type":"Point","coordinates":[108.327546,22.815477999999]},"properties":{"address":"Guangxi, China","placename":"Guangxi, China","title":"Aluminum"}},{"type":"Feature","geometry":{"type":"Point","coordinates":[149.1413549,-33.362470599999]},"properties":{"address":"Huntly Mine, Australia","placename":"Phoenix Mine Rd, Huntley NSW 2800, Australia","title":"Aluminum"}},{"type":"Feature","geometry":{"type":"Point","coordinates":[-77.594999999999,-6.6269443999969]},"properties":{"address":"Cerro Verde, Peru","placename":"Cerro Verde, Peru","title":"Copper"}},{"type":"Feature","geometry":{"type":"Point","coordinates":[-109.3277778,33.049722199999]},"properties":{"address":"Morenci, Arizona","placename":"Morenci, AZ 85540, USA","title":"Copper"}},{"type":"Feature","geometry":{"type":"Point","coordinates":[-70.285639200002,-18.460137400003]},"properties":{"address":"El Teniente, Chile","placename":"El Teniente, Arica, Arica and Parinacota Region, Chile","title":"Copper"}},{"type":"Feature","geometry":{"type":"Point","coordinates":[104.195397,35.861660000001]},"properties":{"address":"China","placename":"China","title":"Ferrite"}},{"type":"Feature","geometry":{"type":"Point","coordinates":[125.326065,43.896082]},"properties":{"address":"Jilin, China","placename":"Jilin, China","title":"Silicon Wafer Fabrication"}},{"type":"Feature","geometry":{"type":"Point","coordinates":[103.819836,1.3520830000039]},"properties":{"address":"Singapore","placename":"Singapore","title":"Silicon Wafer Fabrication"}},{"type":"Feature","geometry":{"type":"Point","coordinates":[113.753658,34.765526999997]},"properties":{"address":"Henan, China","placename":"Henan, China","title":"Iron"}},{"type":"Feature","geometry":{"type":"Point","coordinates":[121.473704,31.230393]},"properties":{"address":"Shanghai, China","placename":"Shanghai, China","title":"Polypropolene film"}},{"type":"Feature","geometry":{"type":"Point","coordinates":[120.152792,30.267446999997]},"properties":{"address":"Zhejiang, China","placename":"Zhejiang, China","title":"Plastic"}},{"type":"Feature","geometry":{"type":"Point","coordinates":[113.266531,23.132191]},"properties":{"address":"Guangdong, China","placename":"Guangdong, China","title":"Plastic"}},{"type":"Feature","geometry":{"type":"Point","coordinates":[-56.396162,-1.4899589999969]},"properties":{"address":"Porto Trombetas, Brazil","placename":"Porto Trombetas Airport (TMT) - Oriximin\u00e1 - Par\u00e1, Brazil","title":"Aluminum"}},{"type":"Feature","geometry":{"type":"Point","coordinates":[108.327546,22.815477999999]},"properties":{"address":"Guangxi, China","placename":"Guangxi, China","title":"Aluminum"}},{"type":"Feature","geometry":{"type":"Point","coordinates":[149.1413549,-33.362470599999]},"properties":{"address":"Huntly Mine, Australia","placename":"Phoenix Mine Rd, Huntley NSW 2800, Australia","title":"Aluminum"}},{"type":"Feature","geometry":{"type":"Point","coordinates":[121.473704,31.230393]},"properties":{"address":"Shanghai, China","placename":"Shanghai, China","title":"CFL Manufacture"}},{"type":"Feature","geometry":{"type":"LineString","coordinates":[[149.1413549,-33.362470599999],[121.473704,31.230393]]},"properties":[]},{"type":"Feature","geometry":{"type":"LineString","coordinates":[[108.327546,22.815477999999],[121.473704,31.230393]]},"properties":[]},{"type":"Feature","geometry":{"type":"LineString","coordinates":[[-56.396162,-1.4899589999969],[121.473704,31.230393]]},"properties":[]},{"type":"Feature","geometry":{"type":"LineString","coordinates":[[113.266531,23.132191],[121.473704,31.230393]]},"properties":[]},{"type":"Feature","geometry":{"type":"LineString","coordinates":[[120.152792,30.267446999997],[121.473704,31.230393]]},"properties":[]},{"type":"Feature","geometry":{"type":"LineString","coordinates":[[121.473704,31.230393],[121.473704,31.230393]]},"properties":[]},{"type":"Feature","geometry":{"type":"LineString","coordinates":[[113.753658,34.765526999997],[121.473704,31.230393]]},"properties":[]},{"type":"Feature","geometry":{"type":"LineString","coordinates":[[103.819836,1.3520830000039],[121.473704,31.230393]]},"properties":[]},{"type":"Feature","geometry":{"type":"LineString","coordinates":[[125.326065,43.896082],[121.473704,31.230393]]},"properties":[]},{"type":"Feature","geometry":{"type":"LineString","coordinates":[[104.195397,35.861660000001],[121.473704,31.230393]]},"properties":[]},{"type":"Feature","geometry":{"type":"LineString","coordinates":[[-70.285639200002,-18.460137400003],[121.473704,31.230393]]},"properties":[]},{"type":"Feature","geometry":{"type":"LineString","coordinates":[[-109.3277778,33.049722199999],[121.473704,31.230393]]},"properties":[]},{"type":"Feature","geometry":{"type":"LineString","coordinates":[[-77.594999999999,-6.6269443999969],[121.473704,31.230393]]},"properties":[]},{"type":"Feature","geometry":{"type":"LineString","coordinates":[[149.1413549,-33.362470599999],[121.473704,31.230393]]},"properties":[]},{"type":"Feature","geometry":{"type":"LineString","coordinates":[[108.327546,22.815477999999],[121.473704,31.230393]]},"properties":[]},{"type":"Feature","geometry":{"type":"LineString","coordinates":[[88.200558000004,69.3499497],[121.473704,31.230393]]},"properties":[]},{"type":"Feature","geometry":{"type":"LineString","coordinates":[[-75.341217899999,-11.335797999996],[121.473704,31.230393]]},"properties":[]},{"type":"Feature","geometry":{"type":"LineString","coordinates":[[120.5279096,-1.8479078999985],[121.473704,31.230393]]},"properties":[]},{"type":"Feature","geometry":{"type":"LineString","coordinates":[[104.137619,36.544826999997],[121.473704,31.230393]]},"properties":[]},{"type":"Feature","geometry":{"type":"LineString","coordinates":[[116.6823907,-28.345207000002],[121.473704,31.230393]]},"properties":[]},{"type":"Feature","geometry":{"type":"LineString","coordinates":[[-77.561941899996,-9.3250497000018],[121.473704,31.230393]]},"properties":[]},{"type":"Feature","geometry":{"type":"LineString","coordinates":[[108.327546,22.815477999999],[121.473704,31.230393]]},"properties":[]},{"type":"Feature","geometry":{"type":"LineString","coordinates":[[106.0640179,-2.2884781999978],[121.473704,31.230393]]},"properties":[]},{"type":"Feature","geometry":{"type":"LineString","coordinates":[[-71.501936099998,-16.480061299999],[121.473704,31.230393]]},"properties":[]},{"type":"Feature","geometry":{"type":"LineString","coordinates":[[115.909137,28.674425],[121.473704,31.230393]]},"properties":[]},{"type":"Feature","geometry":{"type":"LineString","coordinates":[[121.045272,29.598863999997],[121.473704,31.230393]]},"properties":[]},{"type":"Feature","geometry":{"type":"LineString","coordinates":[[121.045272,29.598863999997],[121.473704,31.230393]]},"properties":[]},{"type":"Feature","geometry":{"type":"LineString","coordinates":[[109.840347,40.657449000003],[121.473704,31.230393]]},"properties":[]},{"type":"Feature","geometry":{"type":"LineString","coordinates":[[102.267335,27.881610999999],[121.473704,31.230393]]},"properties":[]},{"type":"Feature","geometry":{"type":"LineString","coordinates":[[109.840347,40.657449000003],[121.473704,31.230393]]},"properties":[]},{"type":"Feature","geometry":{"type":"LineString","coordinates":[[109.840347,40.657449000003],[121.473704,31.230393]]},"properties":[]},{"type":"Feature","geometry":{"type":"LineString","coordinates":[[106.70741,26.598194000001],[121.473704,31.230393]]},"properties":[]},{"type":"Feature","geometry":{"type":"LineString","coordinates":[[120.152792,30.267446999997],[121.473704,31.230393]]},"properties":[]},{"type":"Feature","geometry":{"type":"LineString","coordinates":[[121.473704,31.230393],[121.473704,31.230393]]},"properties":[]},{"type":"Feature","geometry":{"type":"LineString","coordinates":[[121.473704,31.230393],[-118.2436849,34.052234200001]]},"properties":[]},{"type":"Feature","geometry":{"type":"LineString","coordinates":[[-118.2436849,34.052234200001],[-104.9847179,39.737567000003]]},"properties":[]},{"type":"Feature","geometry":{"type":"LineString","coordinates":[[-104.9847179,39.737567000003],[-104.8319195,39.729431900001]]},"properties":[]}],"properties":{"title":"CFL","description":"","tags":""}}