{"type":"FeatureCollection","features":[{"type":"Feature","geometry":{"type":"Point","coordinates":[78.962879999997,20.593684000004]},"properties":{"address":"india","placename":"India","title":"port"}},{"type":"Feature","geometry":{"type":"Point","coordinates":[104.195397,35.861660000001]},"properties":{"address":"China","placename":"China","title":"port"}},{"type":"Feature","geometry":{"type":"Point","coordinates":[-95.712890999999,37.090240000003]},"properties":{"address":"United States","placename":"United States","title":"port"}},{"type":"Feature","geometry":{"type":"Point","coordinates":[42.550960300002,29.298527799997]},"properties":{"address":"Middle East","placename":"Middle East","title":"port"}},{"type":"Feature","geometry":{"type":"Point","coordinates":[-95.712890999999,37.090240000003]},"properties":{"address":"Southeast America","placename":"United States","title":"port"}},{"type":"Feature","geometry":{"type":"Point","coordinates":[-61.326853500003,-4.4420385000025]},"properties":{"address":"Latin America","placename":"Latin America","title":"port"}},{"type":"Feature","geometry":{"type":"Point","coordinates":[15.2551187,54.525961399999]},"properties":{"address":"Europe","placename":"Europe","title":"port"}},{"type":"Feature","geometry":{"type":"Point","coordinates":[-63.575319600003,44.648862500001]},"properties":{"address":"Halifax, NS, Canada","placename":"Halifax, NS, Canada","title":"shipping"}},{"type":"Feature","geometry":{"type":"Point","coordinates":[-106.346771,56.130366000001]},"properties":{"address":"East Canada","placename":"Canada","title":"exporter and importer"}},{"type":"Feature","geometry":{"type":"Point","coordinates":[-63.575319600003,44.648862500001]},"properties":{"address":"Halifax, NS, Canada","placename":"Halifax, NS, Canada","title":"ship building"}},{"type":"Feature","geometry":{"type":"Point","coordinates":[-51.925279999999,-14.235004]},"properties":{"address":"Brazil","placename":"Brazil","title":"steel"}},{"type":"Feature","geometry":{"type":"Point","coordinates":[-116.5765035,53.933270600002]},"properties":{"address":"Alberta, Canada","placename":"Alberta, Canada","title":"oil"}},{"type":"Feature","geometry":{"type":"Point","coordinates":[-63.575319600003,44.648862500001]},"properties":{"address":"Halifax, NS, Canada","placename":"Halifax, NS, Canada","title":"desigener"}},{"type":"Feature","geometry":{"type":"Point","coordinates":[-63.575319600003,44.648862500001]},"properties":{"address":"Halifax, NS, Canada","placename":"Halifax, NS, Canada","title":"Port of Halifax"}},{"type":"Feature","geometry":{"type":"LineString","coordinates":[[-63.575319600003,44.648862500001],[-63.575319600003,44.648862500001]]},"properties":[]},{"type":"Feature","geometry":{"type":"LineString","coordinates":[[-116.5765035,53.933270600002],[-63.575319600003,44.648862500001]]},"properties":[]},{"type":"Feature","geometry":{"type":"LineString","coordinates":[[-51.925279999999,-14.235004],[-63.575319600003,44.648862500001]]},"properties":[]},{"type":"Feature","geometry":{"type":"LineString","coordinates":[[-63.575319600003,44.648862500001],[-51.925279999999,-14.235004]]},"properties":[]},{"type":"Feature","geometry":{"type":"LineString","coordinates":[[-106.346771,56.130366000001],[-51.925279999999,-14.235004]]},"properties":[]},{"type":"Feature","geometry":{"type":"LineString","coordinates":[[-63.575319600003,44.648862500001],[-106.346771,56.130366000001]]},"properties":[]},{"type":"Feature","geometry":{"type":"LineString","coordinates":[[-63.575319600003,44.648862500001],[15.2551187,54.525961399999]]},"properties":[]},{"type":"Feature","geometry":{"type":"LineString","coordinates":[[-63.575319600003,44.648862500001],[-61.326853500003,-4.4420385000025]]},"properties":[]},{"type":"Feature","geometry":{"type":"LineString","coordinates":[[-63.575319600003,44.648862500001],[-95.712890999999,37.090240000003]]},"properties":[]},{"type":"Feature","geometry":{"type":"LineString","coordinates":[[-63.575319600003,44.648862500001],[42.550960300002,29.298527799997]]},"properties":[]},{"type":"Feature","geometry":{"type":"LineString","coordinates":[[-63.575319600003,44.648862500001],[-95.712890999999,37.090240000003]]},"properties":[]},{"type":"Feature","geometry":{"type":"LineString","coordinates":[[-63.575319600003,44.648862500001],[104.195397,35.861660000001]]},"properties":[]},{"type":"Feature","geometry":{"type":"LineString","coordinates":[[-63.575319600003,44.648862500001],[78.962879999997,20.593684000004]]},"properties":[]}],"properties":{"tags":"","description":"commodity chain of port of halifax","title":"port of halifax"}}