{"type":"FeatureCollection","features":[{"type":"Feature","geometry":{"type":"Point","coordinates":[100.992541,15.870032]},"properties":{"address":"Tailandia","placename":"Thailand","title":"Ca\u00f1a de az\u00facar"}},{"type":"Feature","geometry":{"type":"Point","coordinates":[127.766922,35.907756999999]},"properties":{"address":"Corea del Sur","placename":"South Korea","title":"Az\u00facar"}},{"type":"Feature","geometry":{"type":"Point","coordinates":[-51.925279999999,-14.235004]},"properties":{"address":"Brasil","placename":"Brazil","title":"Ca\u00f1a de az\u00facar"}},{"type":"Feature","geometry":{"type":"Point","coordinates":[1.6596259999975,28.033885999997]},"properties":{"address":"Argelia","placename":"Algeria","title":"Az\u00facar"}},{"type":"Feature","geometry":{"type":"Point","coordinates":[-51.925279999999,-14.235004]},"properties":{"address":"Brasil","placename":"Brazil","title":"Ca\u00f1a de az\u00facar"}},{"type":"Feature","geometry":{"type":"Point","coordinates":[53.847818000001,23.424076000003]},"properties":{"address":"Emiratos Arabes Unidos","placename":"United Arab Emirates","title":"Az\u00facar"}},{"type":"Feature","geometry":{"type":"Point","coordinates":[-51.925279999999,-14.235004]},"properties":{"address":"Brasil","placename":"Brazil","title":"Ca\u00f1a de az\u00facar"}},{"type":"Feature","geometry":{"type":"Point","coordinates":[90.356330999996,23.684993999998]},"properties":{"address":"Bangladesh","placename":"Bangladesh","title":"Az\u00facar"}},{"type":"Feature","geometry":{"type":"Point","coordinates":[133.775136,-25.274397999999]},"properties":{"address":"Australia","placename":"Australia","title":"Ca\u00f1a de az\u00facar"}},{"type":"Feature","geometry":{"type":"Point","coordinates":[100.992541,15.870032]},"properties":{"address":"Tailandia","placename":"Thailand","title":"Ca\u00f1a de az\u00facar"}},{"type":"Feature","geometry":{"type":"Point","coordinates":[-51.925279999999,-14.235004]},"properties":{"address":"Brasil","placename":"Brazil","title":"Ca\u00f1a de az\u00facar"}},{"type":"Feature","geometry":{"type":"Point","coordinates":[101.975766,4.2104840000023]},"properties":{"address":"Malasia","placename":"Malaysia","title":"Az\u00facar"}},{"type":"Feature","geometry":{"type":"Point","coordinates":[100.992541,15.870032]},"properties":{"address":"Tailandia","placename":"Thailand","title":"Ca\u00f1a de az\u00facar"}},{"type":"Feature","geometry":{"type":"Point","coordinates":[-51.925279999999,-14.235004]},"properties":{"address":"Brasil","placename":"Brazil","title":"Ca\u00f1a de az\u00facar"}},{"type":"Feature","geometry":{"type":"Point","coordinates":[104.195397,35.861660000001]},"properties":{"address":"China","placename":"China","title":"Az\u00facar"}},{"type":"Feature","geometry":{"type":"Point","coordinates":[-74.297332999997,4.5708679999982]},"properties":{"address":"Colombia","placename":"Colombia","title":"Ca\u00f1a de az\u00facar"}},{"type":"Feature","geometry":{"type":"Point","coordinates":[-102.552784,23.634501000001]},"properties":{"address":"M\u00e9xico","placename":"Mexico","title":"Ca\u00f1a de az\u00facar"}},{"type":"Feature","geometry":{"type":"Point","coordinates":[-51.925279999999,-14.235004]},"properties":{"address":"Brasil","placename":"Brazil","title":"Ca\u00f1a de az\u00facar"}},{"type":"Feature","geometry":{"type":"Point","coordinates":[-95.712890999999,37.090240000003]},"properties":{"address":"Estados Unidos","placename":"United States","title":"Az\u00facar"}},{"type":"Feature","geometry":{"type":"Point","coordinates":[100.992541,15.870032]},"properties":{"address":"Tailandia","placename":"Thailand","title":"Ca\u00f1a de az\u00facar"}},{"type":"Feature","geometry":{"type":"Point","coordinates":[113.921327,-0.78927499999687]},"properties":{"address":"Indonesia","placename":"Indonesia","title":"Az\u00facar"}},{"type":"Feature","geometry":{"type":"Point","coordinates":[-51.925279999999,-14.235004]},"properties":{"address":"Brasil","placename":"Brazil","title":"Ca\u00f1a de az\u00facar"}},{"type":"Feature","geometry":{"type":"Point","coordinates":[2.2137489999989,46.227638]},"properties":{"address":"Francia","placename":"France","title":"Az\u00facar"}},{"type":"Feature","geometry":{"type":"LineString","coordinates":[[-51.925279999999,-14.235004],[2.2137489999989,46.227638]]},"properties":[]},{"type":"Feature","geometry":{"type":"LineString","coordinates":[[100.992541,15.870032],[113.921327,-0.78927499999687]]},"properties":[]},{"type":"Feature","geometry":{"type":"LineString","coordinates":[[-51.925279999999,-14.235004],[-95.712890999999,37.090240000003]]},"properties":[]},{"type":"Feature","geometry":{"type":"LineString","coordinates":[[-102.552784,23.634501000001],[-95.712890999999,37.090240000003]]},"properties":[]},{"type":"Feature","geometry":{"type":"LineString","coordinates":[[-74.297332999997,4.5708679999982],[-95.712890999999,37.090240000003]]},"properties":[]},{"type":"Feature","geometry":{"type":"LineString","coordinates":[[-51.925279999999,-14.235004],[104.195397,35.861660000001]]},"properties":[]},{"type":"Feature","geometry":{"type":"LineString","coordinates":[[100.992541,15.870032],[104.195397,35.861660000001]]},"properties":[]},{"type":"Feature","geometry":{"type":"LineString","coordinates":[[-51.925279999999,-14.235004],[101.975766,4.2104840000023]]},"properties":[]},{"type":"Feature","geometry":{"type":"LineString","coordinates":[[100.992541,15.870032],[101.975766,4.2104840000023]]},"properties":[]},{"type":"Feature","geometry":{"type":"LineString","coordinates":[[133.775136,-25.274397999999],[101.975766,4.2104840000023]]},"properties":[]},{"type":"Feature","geometry":{"type":"LineString","coordinates":[[-51.925279999999,-14.235004],[90.356330999996,23.684993999998]]},"properties":[]},{"type":"Feature","geometry":{"type":"LineString","coordinates":[[-51.925279999999,-14.235004],[53.847818000001,23.424076000003]]},"properties":[]},{"type":"Feature","geometry":{"type":"LineString","coordinates":[[-51.925279999999,-14.235004],[1.6596259999975,28.033885999997]]},"properties":[]},{"type":"Feature","geometry":{"type":"LineString","coordinates":[[100.992541,15.870032],[127.766922,35.907756999999]]},"properties":[]}],"properties":{"tags":"sugar","description":"Sugar supply chain","title":"Sugar"}}