{"supplychain":{"category":47,"created":1361161822,"enable_comments":true,"flags":0,"id":5337,"modified":1361164549,"other_perms":1,"passcode":null,"user_featured":false,"usergroup_id":null,"usergroup_perms":0,"user_id":4907,"owner":{"id":4907,"name":"Carrodecombate","avatar":"http:\/\/free.sourcemap.com\/assets\/images\/default-user.png","banner_url":null,"display_name":null},"taxonomy":[{"description":"food","id":47,"left":39,"name":"food","right":40,"title":"Food"}],"attributes":{"tags":"sugar","description":"Sugar supply chain","title":"Sugar"},"stops":[{"local_stop_id":23,"id":23,"geometry":"POINT(11242438.238039 1789676.623494)","attributes":{"address":"Tailandia","placename":"Thailand","title":"Ca\u00f1a de az\u00facar"}},{"local_stop_id":22,"id":22,"geometry":"POINT(14222948.697264 4287936.289399)","attributes":{"address":"Corea del Sur","placename":"South Korea","title":"Az\u00facar"}},{"local_stop_id":21,"id":21,"geometry":"POINT(-5780295.728898 -1601191.813438)","attributes":{"address":"Brasil","placename":"Brazil","title":"Ca\u00f1a de az\u00facar"}},{"local_stop_id":20,"id":20,"geometry":"POINT(184748.721227 3253246.71111)","attributes":{"address":"Argelia","placename":"Algeria","title":"Az\u00facar"}},{"local_stop_id":19,"id":19,"geometry":"POINT(-5780295.728898 -1601191.813438)","attributes":{"address":"Brasil","placename":"Brazil","title":"Ca\u00f1a de az\u00facar"}},{"local_stop_id":18,"id":18,"geometry":"POINT(5994311.680089 2683384.657664)","attributes":{"address":"Emiratos Arabes Unidos","placename":"United Arab Emirates","title":"Az\u00facar"}},{"local_stop_id":17,"id":17,"geometry":"POINT(-5780295.728898 -1601191.813438)","attributes":{"address":"Brasil","placename":"Brazil","title":"Ca\u00f1a de az\u00facar"}},{"local_stop_id":16,"id":16,"geometry":"POINT(10058420.756868 2715069.967281)","attributes":{"address":"Bangladesh","placename":"Bangladesh","title":"Az\u00facar"}},{"local_stop_id":15,"id":15,"geometry":"POINT(14891780.020321 -2909486.054997)","attributes":{"address":"Australia","placename":"Australia","title":"Ca\u00f1a de az\u00facar"}},{"local_stop_id":14,"id":14,"geometry":"POINT(11242438.238039 1789676.623494)","attributes":{"address":"Tailandia","placename":"Thailand","title":"Ca\u00f1a de az\u00facar"}},{"local_stop_id":13,"id":13,"geometry":"POINT(-5780295.728898 -1601191.813438)","attributes":{"address":"Brasil","placename":"Brazil","title":"Ca\u00f1a de az\u00facar"}},{"local_stop_id":12,"id":12,"geometry":"POINT(11351890.344374 469131.367658)","attributes":{"address":"Malasia","placename":"Malaysia","title":"Az\u00facar"}},{"local_stop_id":11,"id":11,"geometry":"POINT(11242438.238039 1789676.623494)","attributes":{"address":"Tailandia","placename":"Thailand","title":"Ca\u00f1a de az\u00facar"}},{"local_stop_id":10,"id":10,"geometry":"POINT(-5780295.728898 -1601191.813438)","attributes":{"address":"Brasil","placename":"Brazil","title":"Ca\u00f1a de az\u00facar"}},{"local_stop_id":9,"id":9,"geometry":"POINT(11598978.537043 4281602.659627)","attributes":{"address":"China","placename":"China","title":"Az\u00facar"}},{"local_stop_id":8,"id":8,"geometry":"POINT(-8270741.276858 509367.281339)","attributes":{"address":"Colombia","placename":"Colombia","title":"Ca\u00f1a de az\u00facar"}},{"local_stop_id":7,"id":7,"geometry":"POINT(-11416123.694313 2708933.292233)","attributes":{"address":"M\u00e9xico","placename":"Mexico","title":"Ca\u00f1a de az\u00facar"}},{"local_stop_id":6,"id":6,"geometry":"POINT(-5780295.728898 -1601191.813438)","attributes":{"address":"Brasil","placename":"Brazil","title":"Ca\u00f1a de az\u00facar"}},{"local_stop_id":5,"id":5,"geometry":"POINT(-10654710.288472 4451692.554811)","attributes":{"address":"Estados Unidos","placename":"United States","title":"Az\u00facar"}},{"local_stop_id":4,"id":4,"geometry":"POINT(11242438.238039 1789676.623494)","attributes":{"address":"Tailandia","placename":"Thailand","title":"Ca\u00f1a de az\u00facar"}},{"local_stop_id":3,"id":3,"geometry":"POINT(12681664.112134 -87864.470043)","attributes":{"address":"Indonesia","placename":"Indonesia","title":"Az\u00facar"}},{"local_stop_id":2,"id":2,"geometry":"POINT(-5780295.728898 -1601191.813438)","attributes":{"address":"Brasil","placename":"Brazil","title":"Ca\u00f1a de az\u00facar"}},{"local_stop_id":1,"id":1,"geometry":"POINT(246433.411424 5816903.713427)","attributes":{"address":"Francia","placename":"France","title":"Az\u00facar"}}],"hops":[{"from_stop_id":2,"to_stop_id":1,"geometry":"MULTILINESTRING((-5780295.728898 -1601191.813438,246433.411424 5816903.713427))","attributes":{}},{"from_stop_id":4,"to_stop_id":3,"geometry":"MULTILINESTRING((11242438.238039 1789676.623494,12681664.112134 -87864.470043))","attributes":{}},{"from_stop_id":6,"to_stop_id":5,"geometry":"MULTILINESTRING((-5780295.728898 -1601191.813438,-10654710.288472 4451692.554811))","attributes":{}},{"from_stop_id":7,"to_stop_id":5,"geometry":"MULTILINESTRING((-11416123.694313 2708933.292233,-10654710.288472 4451692.554811))","attributes":{}},{"from_stop_id":8,"to_stop_id":5,"geometry":"MULTILINESTRING((-8270741.276858 509367.281339,-10654710.288472 4451692.554811))","attributes":{}},{"from_stop_id":10,"to_stop_id":9,"geometry":"MULTILINESTRING((-5780295.728898 -1601191.813438,11598978.537043 4281602.659627))","attributes":{}},{"from_stop_id":11,"to_stop_id":9,"geometry":"MULTILINESTRING((11242438.238039 1789676.623494,11598978.537043 4281602.659627))","attributes":{}},{"from_stop_id":13,"to_stop_id":12,"geometry":"MULTILINESTRING((-5780295.728898 -1601191.813438,11351890.344374 469131.367658))","attributes":{}},{"from_stop_id":14,"to_stop_id":12,"geometry":"MULTILINESTRING((11242438.238039 1789676.623494,11351890.344374 469131.367658))","attributes":{}},{"from_stop_id":15,"to_stop_id":12,"geometry":"MULTILINESTRING((14891780.020321 -2909486.054997,11351890.344374 469131.367658))","attributes":{}},{"from_stop_id":17,"to_stop_id":16,"geometry":"MULTILINESTRING((-5780295.728898 -1601191.813438,10058420.756868 2715069.967281))","attributes":{}},{"from_stop_id":19,"to_stop_id":18,"geometry":"MULTILINESTRING((-5780295.728898 -1601191.813438,5994311.680089 2683384.657664))","attributes":{}},{"from_stop_id":21,"to_stop_id":20,"geometry":"MULTILINESTRING((-5780295.728898 -1601191.813438,184748.721227 3253246.71111))","attributes":{}},{"from_stop_id":23,"to_stop_id":22,"geometry":"MULTILINESTRING((11242438.238039 1789676.623494,14222948.697264 4287936.289399))","attributes":{}}]},"editable":false}