{"type":"FeatureCollection","features":[{"type":"Feature","geometry":{"type":"Point","coordinates":[-87.7539448,41.8455877]},"properties":{"address":"Cierlo, IL","placename":"Cicero, IL, USA","title":"CARDBOARD SLEEVE"}},{"type":"Feature","geometry":{"type":"Point","coordinates":[-87.519801100004,38.100514700002]},"properties":{"address":"Evansville, IN 47725","placename":"Evansville, IN 47725, USA","title":"BERRY PLASTICS"}},{"type":"Feature","geometry":{"type":"Point","coordinates":[143.95555,-6.3149930000017]},"properties":{"address":"Papua New Guinea","placename":"Papua New Guinea","title":"COCOA BEANS"}},{"type":"Feature","geometry":{"type":"Point","coordinates":[101.975766,4.2104840000023]},"properties":{"address":"Malaysia","placename":"Malaysia","title":"COCOA BEANS"}},{"type":"Feature","geometry":{"type":"Point","coordinates":[113.921327,-0.78927499999687]},"properties":{"address":"Indonesia","placename":"Indonesia","title":"COCOA BEANS"}},{"type":"Feature","geometry":{"type":"Point","coordinates":[8.6752770000036,9.0819989999966]},"properties":{"address":"Nigeria","placename":"Nigeria","title":"COCOA BEANS"}},{"type":"Feature","geometry":{"type":"Point","coordinates":[-1.0231940000024,7.9465270000027]},"properties":{"address":"Ghana","placename":"Ghana","title":"COCOA BEANS"}},{"type":"Feature","geometry":{"type":"Point","coordinates":[-5.547080000004,7.5399890000007]},"properties":{"address":"\u00f4te d\u2019Ivoire","placename":"C\u00f4te d'Ivoire","title":"COCOA BEANS"}},{"type":"Feature","geometry":{"type":"Point","coordinates":[12.354721999996,7.3697219999967]},"properties":{"address":"Cameroon","placename":"Cameroon","title":"COCOA BEANS"}},{"type":"Feature","geometry":{"type":"Point","coordinates":[-78.183406000002,-1.8312390000011]},"properties":{"address":"Ecuador","placename":"Ecuador","title":"COCOA BEANS"}},{"type":"Feature","geometry":{"type":"Point","coordinates":[-51.925279999999,-14.235004]},"properties":{"address":"Brazil","placename":"Brazil","title":"COCOA BEANS"}},{"type":"Feature","geometry":{"type":"Point","coordinates":[-119.7357342,39.092964699997]},"properties":{"address":"Carson Valley, NV","placename":"Carson Valley, Carson City, NV 89423, USA","title":"ROASTING FACTORY"}},{"type":"Feature","geometry":{"type":"Point","coordinates":[-118.2436849,34.052234200001]},"properties":{"address":"Los Angeles, CA","placename":"Los Angeles, CA, USA","title":"FRAPPUCCINO CHOCOLATE"}},{"type":"Feature","geometry":{"type":"LineString","coordinates":[[-119.7357342,39.092964699997],[-118.2436849,34.052234200001]]},"properties":[]},{"type":"Feature","geometry":{"type":"LineString","coordinates":[[-51.925279999999,-14.235004],[-119.7357342,39.092964699997]]},"properties":[]},{"type":"Feature","geometry":{"type":"LineString","coordinates":[[-78.183406000002,-1.8312390000011],[-119.7357342,39.092964699997]]},"properties":[]},{"type":"Feature","geometry":{"type":"LineString","coordinates":[[12.354721999996,7.3697219999967],[-119.7357342,39.092964699997]]},"properties":[]},{"type":"Feature","geometry":{"type":"LineString","coordinates":[[-5.547080000004,7.5399890000007],[-119.7357342,39.092964699997]]},"properties":[]},{"type":"Feature","geometry":{"type":"LineString","coordinates":[[-1.0231940000024,7.9465270000027],[-119.7357342,39.092964699997]]},"properties":[]},{"type":"Feature","geometry":{"type":"LineString","coordinates":[[8.6752770000036,9.0819989999966],[-119.7357342,39.092964699997]]},"properties":[]},{"type":"Feature","geometry":{"type":"LineString","coordinates":[[113.921327,-0.78927499999687],[-119.7357342,39.092964699997]]},"properties":[]},{"type":"Feature","geometry":{"type":"LineString","coordinates":[[101.975766,4.2104840000023],[-119.7357342,39.092964699997]]},"properties":[]},{"type":"Feature","geometry":{"type":"LineString","coordinates":[[143.95555,-6.3149930000017],[-119.7357342,39.092964699997]]},"properties":[]},{"type":"Feature","geometry":{"type":"LineString","coordinates":[[-87.519801100004,38.100514700002],[-118.2436849,34.052234200001]]},"properties":[]},{"type":"Feature","geometry":{"type":"LineString","coordinates":[[-87.7539448,41.8455877],[-118.2436849,34.052234200001]]},"properties":[]}],"properties":{"tags":"starbucks","description":"","title":"Starbucks"}}