{"type":"FeatureCollection","features":[{"type":"Feature","geometry":{"type":"Point","coordinates":[-17.4466667,14.692777800004]},"properties":{"address":"Point E Rue 5XL, Avenue Birago Diop, Dakar, Senegal","placename":"Dakar, Senegal","title":"OxFam Headquarters Senegal"}},{"type":"Feature","geometry":{"type":"Point","coordinates":[-17.430271999998,14.671035999998]},"properties":{"address":"14.671036, -17.430272","placename":"14.671036,-17.430272","title":"Permanent Marker"}},{"type":"Feature","geometry":{"type":"Point","coordinates":[-17.4466667,14.692777800004]},"properties":{"address":"Point E Rue 5XL, Avenue Birago Diop, Dakar, Senegal","placename":"Dakar, Senegal","title":"OxFam Headquarters Senegal"}},{"type":"Feature","geometry":{"type":"Point","coordinates":[-17.430271999998,14.671035999998]},"properties":{"address":"14.671036, -17.430272","placename":"14.671036,-17.430272","title":"Syringes"}},{"type":"Feature","geometry":{"type":"Point","coordinates":[-17.4466667,14.692777800004]},"properties":{"address":"Point E Rue 5XL, Avenue Birago Diop, Dakar, Senegal","placename":"Dakar, Senegal","title":"OxFam Headquarters Senegal"}},{"type":"Feature","geometry":{"type":"Point","coordinates":[-17.430271999998,14.671035999998]},"properties":{"address":"14.671036, -17.430272","placename":"14.671036,-17.430272","title":"Pressure Cooker"}},{"type":"Feature","geometry":{"type":"Point","coordinates":[-17.4466667,14.692777800004]},"properties":{"address":"Point E Rue 5XL, Avenue Birago Diop, Dakar, Senegal","placename":"Dakar, Senegal","title":"OxFam Headquarters Senegal"}},{"type":"Feature","geometry":{"type":"Point","coordinates":[-17.430271999998,14.671035999998]},"properties":{"address":"14.671036, -17.430272","placename":"14.671036,-17.430272","title":"Methanol"}},{"type":"Feature","geometry":{"type":"Point","coordinates":[-17.4,14.749999999998]},"properties":{"address":"Pikine, Senegal","placename":"Pikine, Senegal","title":"Field Tester"}},{"type":"Feature","geometry":{"type":"Point","coordinates":[-17.4466667,14.692777800004]},"properties":{"address":"Point E Rue 5XL, Avenue Birago Diop, Dakar, Senegal","placename":"Dakar, Senegal","title":"OxFam Headquarters Senegal"}},{"type":"Feature","geometry":{"type":"Point","coordinates":[15.2551187,54.525961399999]},"properties":{"address":"Europe","placename":"Europe","title":"Absorbant Pad Dispenser"}},{"type":"Feature","geometry":{"type":"Point","coordinates":[15.2551187,54.525961399999]},"properties":{"address":"Europe","placename":"Europe","title":"Filters"}},{"type":"Feature","geometry":{"type":"Point","coordinates":[15.2551187,54.525961399999]},"properties":{"address":"Europe","placename":"Europe","title":"Methanol Dispenser"}},{"type":"Feature","geometry":{"type":"Point","coordinates":[15.2551187,54.525961399999]},"properties":{"address":"Europe","placename":"Europe","title":"Petri Dishes"}},{"type":"Feature","geometry":{"type":"Point","coordinates":[15.2551187,54.525961399999]},"properties":{"address":"Europe","placename":"Europe","title":"pH test Tablets"}},{"type":"Feature","geometry":{"type":"Point","coordinates":[15.2551187,54.525961399999]},"properties":{"address":"Europe","placename":"Europe","title":"Chlorine Test Tablets"}},{"type":"Feature","geometry":{"type":"Point","coordinates":[15.2551187,54.525961399999]},"properties":{"address":"Europe","placename":"Europe","title":"Chlorine + pH Comparator"}},{"type":"Feature","geometry":{"type":"Point","coordinates":[15.2551187,54.525961399999]},"properties":{"address":"Europe","placename":"Europe","title":"Reagents"}},{"type":"Feature","geometry":{"type":"Point","coordinates":[15.2551187,54.525961399999]},"properties":{"address":"Europe","placename":"Europe","title":"Turbidity Tubes"}},{"type":"Feature","geometry":{"type":"Point","coordinates":[15.2551187,54.525961399999]},"properties":{"address":"Europe","placename":"Europe","title":"Battery"}},{"type":"Feature","geometry":{"type":"Point","coordinates":[15.2551187,54.525961399999]},"properties":{"address":"Europe","placename":"Europe","title":"Incuator"}},{"type":"Feature","geometry":{"type":"Point","coordinates":[15.2551187,54.525961399999]},"properties":{"address":"Europe","placename":"Europe","title":"Case"}},{"type":"Feature","geometry":{"type":"Point","coordinates":[-1.7270619999963,51.420073000001]},"properties":{"address":"Marlborough, UK","placename":"Marlborough, Wiltshire SN8, UK","title":"DelAgua Kit"}},{"type":"Feature","geometry":{"type":"LineString","coordinates":[[15.2551187,54.525961399999],[-1.7270619999963,51.420073000001]]},"properties":[]},{"type":"Feature","geometry":{"type":"LineString","coordinates":[[15.2551187,54.525961399999],[-1.7270619999963,51.420073000001]]},"properties":[]},{"type":"Feature","geometry":{"type":"LineString","coordinates":[[15.2551187,54.525961399999],[-1.7270619999963,51.420073000001]]},"properties":[]},{"type":"Feature","geometry":{"type":"LineString","coordinates":[[15.2551187,54.525961399999],[-1.7270619999963,51.420073000001]]},"properties":[]},{"type":"Feature","geometry":{"type":"LineString","coordinates":[[15.2551187,54.525961399999],[-1.7270619999963,51.420073000001]]},"properties":[]},{"type":"Feature","geometry":{"type":"LineString","coordinates":[[15.2551187,54.525961399999],[-1.7270619999963,51.420073000001]]},"properties":[]},{"type":"Feature","geometry":{"type":"LineString","coordinates":[[15.2551187,54.525961399999],[-1.7270619999963,51.420073000001]]},"properties":[]},{"type":"Feature","geometry":{"type":"LineString","coordinates":[[15.2551187,54.525961399999],[-1.7270619999963,51.420073000001]]},"properties":[]},{"type":"Feature","geometry":{"type":"LineString","coordinates":[[15.2551187,54.525961399999],[-1.7270619999963,51.420073000001]]},"properties":[]},{"type":"Feature","geometry":{"type":"LineString","coordinates":[[15.2551187,54.525961399999],[-1.7270619999963,51.420073000001]]},"properties":[]},{"type":"Feature","geometry":{"type":"LineString","coordinates":[[15.2551187,54.525961399999],[-1.7270619999963,51.420073000001]]},"properties":[]},{"type":"Feature","geometry":{"type":"LineString","coordinates":[[15.2551187,54.525961399999],[-1.7270619999963,51.420073000001]]},"properties":[]},{"type":"Feature","geometry":{"type":"LineString","coordinates":[[-1.7270619999963,51.420073000001],[-17.4466667,14.692777800004]]},"properties":[]},{"type":"Feature","geometry":{"type":"LineString","coordinates":[[-17.4466667,14.692777800004],[-17.4,14.749999999998]]},"properties":[]},{"type":"Feature","geometry":{"type":"LineString","coordinates":[[-17.430271999998,14.671035999998],[-17.4466667,14.692777800004]]},"properties":[]},{"type":"Feature","geometry":{"type":"LineString","coordinates":[[-17.430271999998,14.671035999998],[-17.4466667,14.692777800004]]},"properties":[]},{"type":"Feature","geometry":{"type":"LineString","coordinates":[[-17.430271999998,14.671035999998],[-17.4466667,14.692777800004]]},"properties":[]},{"type":"Feature","geometry":{"type":"LineString","coordinates":[[-17.430271999998,14.671035999998],[-17.4466667,14.692777800004]]},"properties":[]}],"properties":{"title":"Not-DelAgua","description":"","tags":""}}