{"supplychain":{"category":null,"created":1362864860,"enable_comments":true,"flags":0,"id":5451,"modified":1362865430,"other_perms":1,"passcode":null,"user_featured":false,"usergroup_id":null,"usergroup_perms":0,"user_id":4968,"owner":{"id":4968,"name":"ultrafro","avatar":"http:\/\/free.sourcemap.com\/assets\/images\/default-user.png","banner_url":null,"display_name":null},"taxonomy":null,"attributes":{"title":"Not-DelAgua","description":"","tags":""},"stops":[{"local_stop_id":23,"id":23,"geometry":"POINT(-1942154.053084 1653819.123108)","attributes":{"address":"Point E Rue 5XL, Avenue Birago Diop, Dakar, Senegal","placename":"Dakar, Senegal","title":"OxFam Headquarters Senegal"}},{"local_stop_id":22,"id":22,"geometry":"POINT(-1940329.003428 1651317.141888)","attributes":{"address":"14.671036, -17.430272","placename":"14.671036,-17.430272","title":"Permanent Marker"}},{"local_stop_id":21,"id":21,"geometry":"POINT(-1942154.053084 1653819.123108)","attributes":{"address":"Point E Rue 5XL, Avenue Birago Diop, Dakar, Senegal","placename":"Dakar, Senegal","title":"OxFam Headquarters Senegal"}},{"local_stop_id":20,"id":20,"geometry":"POINT(-1940329.003428 1651317.141888)","attributes":{"address":"14.671036, -17.430272","placename":"14.671036,-17.430272","title":"Syringes"}},{"local_stop_id":19,"id":19,"geometry":"POINT(-1942154.053084 1653819.123108)","attributes":{"address":"Point E Rue 5XL, Avenue Birago Diop, Dakar, Senegal","placename":"Dakar, Senegal","title":"OxFam Headquarters Senegal"}},{"local_stop_id":18,"id":18,"geometry":"POINT(-1940329.003428 1651317.141888)","attributes":{"address":"14.671036, -17.430272","placename":"14.671036,-17.430272","title":"Pressure Cooker"}},{"local_stop_id":17,"id":17,"geometry":"POINT(-1942154.053084 1653819.123108)","attributes":{"address":"Point E Rue 5XL, Avenue Birago Diop, Dakar, Senegal","placename":"Dakar, Senegal","title":"OxFam Headquarters Senegal"}},{"local_stop_id":16,"id":16,"geometry":"POINT(-1940329.003428 1651317.141888)","attributes":{"address":"14.671036, -17.430272","placename":"14.671036,-17.430272","title":"Methanol"}},{"local_stop_id":15,"id":15,"geometry":"POINT(-1936959.139803 1660405.273422)","attributes":{"address":"Pikine, Senegal","placename":"Pikine, Senegal","title":"Field Tester"}},{"local_stop_id":14,"id":14,"geometry":"POINT(-1942154.053084 1653819.123108)","attributes":{"address":"Point E Rue 5XL, Avenue Birago Diop, Dakar, Senegal","placename":"Dakar, Senegal","title":"OxFam Headquarters Senegal"}},{"local_stop_id":13,"id":13,"geometry":"POINT(1698192.045675 7270403.143886)","attributes":{"address":"Europe","placename":"Europe","title":"Absorbant Pad Dispenser"}},{"local_stop_id":12,"id":12,"geometry":"POINT(1698192.045675 7270403.143886)","attributes":{"address":"Europe","placename":"Europe","title":"Filters"}},{"local_stop_id":11,"id":11,"geometry":"POINT(1698192.045675 7270403.143886)","attributes":{"address":"Europe","placename":"Europe","title":"Methanol Dispenser"}},{"local_stop_id":10,"id":10,"geometry":"POINT(1698192.045675 7270403.143886)","attributes":{"address":"Europe","placename":"Europe","title":"Petri Dishes"}},{"local_stop_id":9,"id":9,"geometry":"POINT(1698192.045675 7270403.143886)","attributes":{"address":"Europe","placename":"Europe","title":"pH test Tablets"}},{"local_stop_id":8,"id":8,"geometry":"POINT(1698192.045675 7270403.143886)","attributes":{"address":"Europe","placename":"Europe","title":"Chlorine Test Tablets"}},{"local_stop_id":7,"id":7,"geometry":"POINT(1698192.045675 7270403.143886)","attributes":{"address":"Europe","placename":"Europe","title":"Chlorine + pH Comparator"}},{"local_stop_id":6,"id":6,"geometry":"POINT(1698192.045675 7270403.143886)","attributes":{"address":"Europe","placename":"Europe","title":"Reagents"}},{"local_stop_id":5,"id":5,"geometry":"POINT(1698192.045675 7270403.143886)","attributes":{"address":"Europe","placename":"Europe","title":"Turbidity Tubes"}},{"local_stop_id":4,"id":4,"geometry":"POINT(1698192.045675 7270403.143886)","attributes":{"address":"Europe","placename":"Europe","title":"Battery"}},{"local_stop_id":3,"id":3,"geometry":"POINT(1698192.045675 7270403.143886)","attributes":{"address":"Europe","placename":"Europe","title":"Incuator"}},{"local_stop_id":2,"id":2,"geometry":"POINT(1698192.045675 7270403.143886)","attributes":{"address":"Europe","placename":"Europe","title":"Case"}},{"local_stop_id":1,"id":1,"geometry":"POINT(-192255.662408 6695938.867936)","attributes":{"address":"Marlborough, UK","placename":"Marlborough, Wiltshire SN8, UK","title":"DelAgua Kit"}}],"hops":[{"from_stop_id":2,"to_stop_id":1,"geometry":"MULTILINESTRING((1698192.045675 7270403.143886,-192255.662408 6695938.867936))","attributes":{}},{"from_stop_id":3,"to_stop_id":1,"geometry":"MULTILINESTRING((1698192.045675 7270403.143886,-192255.662408 6695938.867936))","attributes":{}},{"from_stop_id":4,"to_stop_id":1,"geometry":"MULTILINESTRING((1698192.045675 7270403.143886,-192255.662408 6695938.867936))","attributes":{}},{"from_stop_id":5,"to_stop_id":1,"geometry":"MULTILINESTRING((1698192.045675 7270403.143886,-192255.662408 6695938.867936))","attributes":{}},{"from_stop_id":6,"to_stop_id":1,"geometry":"MULTILINESTRING((1698192.045675 7270403.143886,-192255.662408 6695938.867936))","attributes":{}},{"from_stop_id":7,"to_stop_id":1,"geometry":"MULTILINESTRING((1698192.045675 7270403.143886,-192255.662408 6695938.867936))","attributes":{}},{"from_stop_id":8,"to_stop_id":1,"geometry":"MULTILINESTRING((1698192.045675 7270403.143886,-192255.662408 6695938.867936))","attributes":{}},{"from_stop_id":9,"to_stop_id":1,"geometry":"MULTILINESTRING((1698192.045675 7270403.143886,-192255.662408 6695938.867936))","attributes":{}},{"from_stop_id":10,"to_stop_id":1,"geometry":"MULTILINESTRING((1698192.045675 7270403.143886,-192255.662408 6695938.867936))","attributes":{}},{"from_stop_id":11,"to_stop_id":1,"geometry":"MULTILINESTRING((1698192.045675 7270403.143886,-192255.662408 6695938.867936))","attributes":{}},{"from_stop_id":12,"to_stop_id":1,"geometry":"MULTILINESTRING((1698192.045675 7270403.143886,-192255.662408 6695938.867936))","attributes":{}},{"from_stop_id":13,"to_stop_id":1,"geometry":"MULTILINESTRING((1698192.045675 7270403.143886,-192255.662408 6695938.867936))","attributes":{}},{"from_stop_id":1,"to_stop_id":14,"geometry":"MULTILINESTRING((-192255.662408 6695938.867936,-1942154.053084 1653819.123108))","attributes":{}},{"from_stop_id":14,"to_stop_id":15,"geometry":"MULTILINESTRING((-1942154.053084 1653819.123108,-1936959.139803 1660405.273422))","attributes":{}},{"from_stop_id":16,"to_stop_id":17,"geometry":"MULTILINESTRING((-1940329.003428 1651317.141888,-1942154.053084 1653819.123108))","attributes":{}},{"from_stop_id":18,"to_stop_id":19,"geometry":"MULTILINESTRING((-1940329.003428 1651317.141888,-1942154.053084 1653819.123108))","attributes":{}},{"from_stop_id":20,"to_stop_id":21,"geometry":"MULTILINESTRING((-1940329.003428 1651317.141888,-1942154.053084 1653819.123108))","attributes":{}},{"from_stop_id":22,"to_stop_id":23,"geometry":"MULTILINESTRING((-1940329.003428 1651317.141888,-1942154.053084 1653819.123108))","attributes":{}}]},"editable":false}