{"type":"FeatureCollection","features":[{"type":"Feature","geometry":{"type":"Point","coordinates":[-117.8135579,33.737217700002]},"properties":{"address":"33.7372177,-117.8135579","placename":"33.7372177,-117.8135579","title":"AMP RESEARCH"}},{"type":"Feature","geometry":{"type":"Point","coordinates":[-88.405095999996,42.785292199999]},"properties":{"address":"42.7852922,-88.405096","placename":"42.7852922,-88.405096","title":"EPC - COLUMBIA INC"}},{"type":"Feature","geometry":{"type":"Point","coordinates":[-85.890254700004,38.959220100003]},"properties":{"address":"38.9592201,-85.8902547","placename":"38.9592201,-85.8902547","title":"VALEO SYLVANIA LLC"}},{"type":"Feature","geometry":{"type":"Point","coordinates":[-83.0039075,42.562608]},"properties":{"address":"42.562608,-83.0039075","placename":"42.562608,-83.0039075","title":"TRANS-FORM AUTOMOTIVE LLC"}},{"type":"Feature","geometry":{"type":"Point","coordinates":[-83.555212,41.6639383]},"properties":{"address":"Toledo, OH","placename":"Toledo, OH, USA","title":"Toledo North Assembly Plant"}},{"type":"Feature","geometry":{"type":"Point","coordinates":[-83.0039075,42.464946999999]},"properties":{"address":"42.464947,-83.0039075","placename":"42.464947,-83.0039075","title":"IROQUOIS INDUSTRIES INC"}},{"type":"Feature","geometry":{"type":"Point","coordinates":[-81.345385799997,41.3175549]},"properties":{"address":"41.3175549,-81.3453858","placename":"41.3175549,-81.3453858","title":"OEM\/MILLER DIV OF HOLM IND INC"}},{"type":"Feature","geometry":{"type":"Point","coordinates":[-93.976887600003,39.278621999997]},"properties":{"address":"39.278622,-93.9768876","placename":"39.278622,-93.9768876","title":"ORBSEAL INC"}},{"type":"Feature","geometry":{"type":"Point","coordinates":[-83.704949800004,42.797806099997]},"properties":{"address":"42.7978061,-83.7049498","placename":"42.7978061,-83.70494979999999","title":"CREATIVE FOAM CORPORATION"}},{"type":"Feature","geometry":{"type":"Point","coordinates":[-83.014652600004,42.514456600002]},"properties":{"address":"Warren, MI","placename":"Warren, MI, USA","title":"Warran Truck Assembly Plant"}},{"type":"Feature","geometry":{"type":"Point","coordinates":[-84.338429000003,39.858735099999]},"properties":{"address":"39.8587351,-84.338429","placename":"39.8587351,-84.338429","title":"SMITH  TOM INDUSTRIES INC"}},{"type":"Feature","geometry":{"type":"Point","coordinates":[-76.837499499996,39.201384]},"properties":{"address":"39.201384,-76.8374995","placename":"39.201384,-76.83749950000001","title":"BOWLES FLUIDICS CORPORATION"}},{"type":"Feature","geometry":{"type":"Point","coordinates":[-83.300000000003,36.210000000004]},"properties":{"address":"36.21,-83.3","placename":"36.21,-83.3","title":"MAHLE ENGINE COMPONENTS USA INC"}},{"type":"Feature","geometry":{"type":"Point","coordinates":[-82.884372199999,42.844196400003]},"properties":{"address":"42.8441964,-82.8843722","placename":"42.8441964,-82.8843722","title":"ARMADA RUBBER MANUFACTURING CO"}},{"type":"Feature","geometry":{"type":"Point","coordinates":[-83.555212,41.6639383]},"properties":{"address":"Toledo, OH","placename":"Toledo, OH, USA","title":"Toledo South Assembly Plant"}},{"type":"Feature","geometry":{"type":"Point","coordinates":[-82.407098599999,39.540067199999]},"properties":{"address":"39.5400672,-82.4070986","placename":"39.5400672,-82.4070986","title":"DESHLER GROUP INC"}},{"type":"Feature","geometry":{"type":"Point","coordinates":[-83.030767000001,42.4812462]},"properties":{"address":"42.4812462,-83.030767","placename":"42.4812462,-83.030767","title":"AZ AUTOMOTIVE CORP"}},{"type":"Feature","geometry":{"type":"Point","coordinates":[-83.704949800004,42.797806099997]},"properties":{"address":"42.7978061,-83.7049498","placename":"42.7978061,-83.70494979999999","title":"TOWING ACCESSORIES GROUP"}},{"type":"Feature","geometry":{"type":"Point","coordinates":[-67.596111100004,10.246944399997]},"properties":{"address":"10.2469444,-67.5961111","placename":"10.2469444,-67.5961111","title":"ACUMULADORES TITAN"}},{"type":"Feature","geometry":{"type":"Point","coordinates":[-83.045753800004,42.331427]},"properties":{"address":"Detroit, MI","placename":"Detroit, MI, USA","title":"Jefferson North Assembly Plant"}},{"type":"Feature","geometry":{"type":"LineString","coordinates":[[-67.596111100004,10.246944399997],[-83.045753800004,42.331427]]},"properties":[]},{"type":"Feature","geometry":{"type":"LineString","coordinates":[[-83.704949800004,42.797806099997],[-83.045753800004,42.331427]]},"properties":[]},{"type":"Feature","geometry":{"type":"LineString","coordinates":[[-83.030767000001,42.4812462],[-83.045753800004,42.331427]]},"properties":[]},{"type":"Feature","geometry":{"type":"LineString","coordinates":[[-82.407098599999,39.540067199999],[-83.045753800004,42.331427]]},"properties":[]},{"type":"Feature","geometry":{"type":"LineString","coordinates":[[-82.884372199999,42.844196400003],[-83.555212,41.6639383]]},"properties":[]},{"type":"Feature","geometry":{"type":"LineString","coordinates":[[-83.300000000003,36.210000000004],[-83.555212,41.6639383]]},"properties":[]},{"type":"Feature","geometry":{"type":"LineString","coordinates":[[-76.837499499996,39.201384],[-83.555212,41.6639383]]},"properties":[]},{"type":"Feature","geometry":{"type":"LineString","coordinates":[[-84.338429000003,39.858735099999],[-83.555212,41.6639383]]},"properties":[]},{"type":"Feature","geometry":{"type":"LineString","coordinates":[[-83.704949800004,42.797806099997],[-83.014652600004,42.514456600002]]},"properties":[]},{"type":"Feature","geometry":{"type":"LineString","coordinates":[[-93.976887600003,39.278621999997],[-83.014652600004,42.514456600002]]},"properties":[]},{"type":"Feature","geometry":{"type":"LineString","coordinates":[[-81.345385799997,41.3175549],[-83.014652600004,42.514456600002]]},"properties":[]},{"type":"Feature","geometry":{"type":"LineString","coordinates":[[-83.0039075,42.464946999999],[-83.014652600004,42.514456600002]]},"properties":[]},{"type":"Feature","geometry":{"type":"LineString","coordinates":[[-83.0039075,42.562608],[-83.555212,41.6639383]]},"properties":[]},{"type":"Feature","geometry":{"type":"LineString","coordinates":[[-85.890254700004,38.959220100003],[-83.555212,41.6639383]]},"properties":[]},{"type":"Feature","geometry":{"type":"LineString","coordinates":[[-88.405095999996,42.785292199999],[-83.555212,41.6639383]]},"properties":[]},{"type":"Feature","geometry":{"type":"LineString","coordinates":[[-117.8135579,33.737217700002],[-83.555212,41.6639383]]},"properties":[]}],"properties":{"tags":"","description":"Map 2","title":"Map 2"}}