{"supplychain":{"category":10,"created":1365675406,"enable_comments":true,"flags":0,"id":5670,"modified":1365675406,"other_perms":1,"passcode":null,"user_featured":false,"usergroup_id":null,"usergroup_perms":0,"user_id":5296,"owner":{"id":5296,"name":"Munendra","avatar":"http:\/\/free.sourcemap.com\/assets\/images\/default-user.png","banner_url":null,"display_name":null},"taxonomy":[{"description":"Travel","id":10,"left":15,"name":"travel","right":16,"title":"Travel"}],"attributes":{"tags":"","description":"","title":"East Penn Supply Chain"},"stops":[{"local_stop_id":15,"id":15,"geometry":"POINT(-10598260.163559 4867124.418761)","attributes":{"address":"64451","placename":"Forest City, MO 64451, USA","title":"Smelt4"}},{"local_stop_id":14,"id":14,"geometry":"POINT(-8441374.09666 4933741.498787)","attributes":{"address":"19522","placename":"Fleetwood, PA 19522, USA","title":"Smelt3"}},{"local_stop_id":13,"id":13,"geometry":"POINT(-10078336.325841 4532824.962159)","attributes":{"address":"63637","placename":"Doe Run, MO 63637, USA","title":"Smelt2"}},{"local_stop_id":12,"id":12,"geometry":"POINT(-11070171.648863 3194574.487277)","attributes":{"address":"78041","placename":"Laredo, TX 78041, USA","title":"Smelt1"}},{"local_stop_id":11,"id":11,"geometry":"POINT(-9671128.982866 4929366.117815)","attributes":{"address":"47904","placename":"Lafayette, IN 47904, USA","title":"Cust11"}},{"local_stop_id":10,"id":10,"geometry":"POINT(-9452014.821636 4970434.348927)","attributes":{"address":"46772","placename":"Monroe, IN 46772, USA","title":"Cust10"}},{"local_stop_id":9,"id":9,"geometry":"POINT(-9608808.124043 5119384.215121)","attributes":{"address":"46628","placename":"South Bend, IN 46628, USA","title":"Cust9"}},{"local_stop_id":8,"id":8,"geometry":"POINT(-9068181.009504 5023350.096938)","attributes":{"address":"44305","placename":"Akron, OH 44305, USA","title":"Cust8"}},{"local_stop_id":7,"id":7,"geometry":"POINT(-9101128.161271 5060527.881745)","attributes":{"address":"44133","placename":"North Royalton, OH 44133, USA","title":"Cust7"}},{"local_stop_id":6,"id":6,"geometry":"POINT(-10001069.756712 4164651.157493)","attributes":{"address":"38141","placename":"Memphis, TN 38141, USA","title":"Cust6"}},{"local_stop_id":5,"id":5,"geometry":"POINT(-9375031.43816 4020715.098045)","attributes":{"address":"30071","placename":"Norcross, GA 30071, USA","title":"Cust5"}},{"local_stop_id":4,"id":4,"geometry":"POINT(-8626496.918168 4544707.477005)","attributes":{"address":"23005","placename":"Ashland, VA 23005, USA","title":"Cust4"}},{"local_stop_id":3,"id":3,"geometry":"POINT(-8612443.522636 4782611.65269)","attributes":{"address":"21701","placename":"Frederick, MD 21701, USA","title":"Cust3"}},{"local_stop_id":2,"id":2,"geometry":"POINT(-8515583.921627 4770548.102812)","attributes":{"address":"21237","placename":"Rosedale, MD 21237, USA","title":"Cust2"}},{"local_stop_id":1,"id":1,"geometry":"POINT(-8165639.224529 4970856.087006)","attributes":{"address":"11704","placename":"West Babylon, NY 11704, USA","title":"Cust1"}}],"hops":[{"from_stop_id":2,"to_stop_id":1,"geometry":"MULTILINESTRING((-8515583.921627 4770548.102812,-8165639.224529 4970856.087006))","attributes":{}},{"from_stop_id":3,"to_stop_id":1,"geometry":"MULTILINESTRING((-8612443.522636 4782611.65269,-8165639.224529 4970856.087006))","attributes":{}},{"from_stop_id":4,"to_stop_id":1,"geometry":"MULTILINESTRING((-8626496.918168 4544707.477005,-8165639.224529 4970856.087006))","attributes":{}},{"from_stop_id":5,"to_stop_id":1,"geometry":"MULTILINESTRING((-9375031.43816 4020715.098045,-8165639.224529 4970856.087006))","attributes":{}},{"from_stop_id":6,"to_stop_id":1,"geometry":"MULTILINESTRING((-10001069.756712 4164651.157493,-8165639.224529 4970856.087006))","attributes":{}},{"from_stop_id":7,"to_stop_id":1,"geometry":"MULTILINESTRING((-9101128.161271 5060527.881745,-8165639.224529 4970856.087006))","attributes":{}},{"from_stop_id":8,"to_stop_id":1,"geometry":"MULTILINESTRING((-9068181.009504 5023350.096938,-8165639.224529 4970856.087006))","attributes":{}},{"from_stop_id":9,"to_stop_id":1,"geometry":"MULTILINESTRING((-9608808.124043 5119384.215121,-8165639.224529 4970856.087006))","attributes":{}},{"from_stop_id":10,"to_stop_id":1,"geometry":"MULTILINESTRING((-9452014.821636 4970434.348927,-8165639.224529 4970856.087006))","attributes":{}},{"from_stop_id":11,"to_stop_id":1,"geometry":"MULTILINESTRING((-9671128.982866 4929366.117815,-8165639.224529 4970856.087006))","attributes":{}},{"from_stop_id":12,"to_stop_id":13,"geometry":"MULTILINESTRING((-11070171.648863 3194574.487277,-10078336.325841 4532824.962159))","attributes":{}},{"from_stop_id":12,"to_stop_id":14,"geometry":"MULTILINESTRING((-11070171.648863 3194574.487277,-8441374.09666 4933741.498787))","attributes":{}},{"from_stop_id":12,"to_stop_id":15,"geometry":"MULTILINESTRING((-11070171.648863 3194574.487277,-10598260.163559 4867124.418761))","attributes":{}}]},"editable":false}