{"type":"FeatureCollection","features":[{"type":"Feature","geometry":{"type":"Point","coordinates":[-95.205790900001,40.008134399997]},"properties":{"address":"64451","placename":"Forest City, MO 64451, USA","title":"Smelt4"}},{"type":"Feature","geometry":{"type":"Point","coordinates":[-75.830153700003,40.464964500002]},"properties":{"address":"19522","placename":"Fleetwood, PA 19522, USA","title":"Smelt3"}},{"type":"Feature","geometry":{"type":"Point","coordinates":[-90.5352356,37.6693797]},"properties":{"address":"63637","placename":"Doe Run, MO 63637, USA","title":"Smelt2"}},{"type":"Feature","geometry":{"type":"Point","coordinates":[-99.445043900002,27.567662699999]},"properties":{"address":"78041","placename":"Laredo, TX 78041, USA","title":"Smelt1"}},{"type":"Feature","geometry":{"type":"Point","coordinates":[-86.877229799998,40.4350547]},"properties":{"address":"47904","placename":"Lafayette, IN 47904, USA","title":"Cust11"}},{"type":"Feature","geometry":{"type":"Point","coordinates":[-84.908893799999,40.715270099997]},"properties":{"address":"46772","placename":"Monroe, IN 46772, USA","title":"Cust10"}},{"type":"Feature","geometry":{"type":"Point","coordinates":[-86.317391999997,41.721713600001]},"properties":{"address":"46628","placename":"South Bend, IN 46628, USA","title":"Cust9"}},{"type":"Feature","geometry":{"type":"Point","coordinates":[-81.460855999998,41.074591299998]},"properties":{"address":"44305","placename":"Akron, OH 44305, USA","title":"Cust8"}},{"type":"Feature","geometry":{"type":"Point","coordinates":[-81.756825300003,41.325876700001]},"properties":{"address":"44133","placename":"North Royalton, OH 44133, USA","title":"Cust7"}},{"type":"Feature","geometry":{"type":"Point","coordinates":[-89.841138199999,35.005666000001]},"properties":{"address":"38141","placename":"Memphis, TN 38141, USA","title":"Cust6"}},{"type":"Feature","geometry":{"type":"Point","coordinates":[-84.217340300001,33.939752300003]},"properties":{"address":"30071","placename":"Norcross, GA 30071, USA","title":"Cust5"}},{"type":"Feature","geometry":{"type":"Point","coordinates":[-77.493140300003,37.753823600001]},"properties":{"address":"23005","placename":"Ashland, VA 23005, USA","title":"Cust4"}},{"type":"Feature","geometry":{"type":"Point","coordinates":[-77.366896500001,39.424155800001]},"properties":{"address":"21701","placename":"Frederick, MD 21701, USA","title":"Cust3"}},{"type":"Feature","geometry":{"type":"Point","coordinates":[-76.4967919,39.340394400003]},"properties":{"address":"21237","placename":"Rosedale, MD 21237, USA","title":"Cust2"}},{"type":"Feature","geometry":{"type":"Point","coordinates":[-73.353185200003,40.718141600001]},"properties":{"address":"11704","placename":"West Babylon, NY 11704, USA","title":"Cust1"}},{"type":"Feature","geometry":{"type":"LineString","coordinates":[[-76.4967919,39.340394400003],[-73.353185200003,40.718141600001]]},"properties":[]},{"type":"Feature","geometry":{"type":"LineString","coordinates":[[-77.366896500001,39.424155800001],[-73.353185200003,40.718141600001]]},"properties":[]},{"type":"Feature","geometry":{"type":"LineString","coordinates":[[-77.493140300003,37.753823600001],[-73.353185200003,40.718141600001]]},"properties":[]},{"type":"Feature","geometry":{"type":"LineString","coordinates":[[-84.217340300001,33.939752300003],[-73.353185200003,40.718141600001]]},"properties":[]},{"type":"Feature","geometry":{"type":"LineString","coordinates":[[-89.841138199999,35.005666000001],[-73.353185200003,40.718141600001]]},"properties":[]},{"type":"Feature","geometry":{"type":"LineString","coordinates":[[-81.756825300003,41.325876700001],[-73.353185200003,40.718141600001]]},"properties":[]},{"type":"Feature","geometry":{"type":"LineString","coordinates":[[-81.460855999998,41.074591299998],[-73.353185200003,40.718141600001]]},"properties":[]},{"type":"Feature","geometry":{"type":"LineString","coordinates":[[-86.317391999997,41.721713600001],[-73.353185200003,40.718141600001]]},"properties":[]},{"type":"Feature","geometry":{"type":"LineString","coordinates":[[-84.908893799999,40.715270099997],[-73.353185200003,40.718141600001]]},"properties":[]},{"type":"Feature","geometry":{"type":"LineString","coordinates":[[-86.877229799998,40.4350547],[-73.353185200003,40.718141600001]]},"properties":[]},{"type":"Feature","geometry":{"type":"LineString","coordinates":[[-99.445043900002,27.567662699999],[-90.5352356,37.6693797]]},"properties":[]},{"type":"Feature","geometry":{"type":"LineString","coordinates":[[-99.445043900002,27.567662699999],[-75.830153700003,40.464964500002]]},"properties":[]},{"type":"Feature","geometry":{"type":"LineString","coordinates":[[-99.445043900002,27.567662699999],[-95.205790900001,40.008134399997]]},"properties":[]}],"properties":{"tags":"","description":"","title":"East Penn Supply Chain"}}