{"type":"FeatureCollection","features":[{"type":"Feature","geometry":{"type":"Point","coordinates":[-73.596263500004,45.402446700001]},"properties":{"description":"92","address":"J5C1B4","placename":"Sainte-Catherine, QC J5C 1B4, Canada","title":"Smelter6"}},{"type":"Feature","geometry":{"type":"Point","coordinates":[-86.157370899998,39.771342499999]},"properties":{"description":"80","address":"46204","placename":"Indianapolis, IN 46204, USA","title":"Smelter5"}},{"type":"Feature","geometry":{"type":"Point","coordinates":[-117.9307584,34.027462200002]},"properties":{"description":"75","address":"91744","placename":"La Puente, CA 91744, USA","title":"Smelter4"}},{"type":"Feature","geometry":{"type":"Point","coordinates":[-75.830153700003,40.464964500002]},"properties":{"description":"40","address":"19522","placename":"Fleetwood, PA 19522, USA","title":"Smelter3"}},{"type":"Feature","geometry":{"type":"Point","coordinates":[-90.5352356,37.6693797]},"properties":{"description":"35","address":"63637","placename":"Doe Run, MO 63637, USA","title":"Smelter2"}},{"type":"Feature","geometry":{"type":"Point","coordinates":[-99.445043900002,27.567662699999]},"properties":{"description":"30","address":"78041","placename":"Laredo, TX 78041, USA","title":"Smelter1"}},{"type":"Feature","geometry":{"type":"Point","coordinates":[-93.379205699997,40.788078800002]},"properties":{"description":"152","address":"50060","placename":"Corydon, IA 50060, USA","title":"ManuPlant2"}},{"type":"Feature","geometry":{"type":"Point","coordinates":[-75.830153700003,40.464964500002]},"properties":{"description":"200","address":"19522","placename":"Fleetwood, PA 19522, USA","title":"ManuPlant1"}},{"type":"Feature","geometry":{"type":"Point","coordinates":[-105.9343712,35.771759799999]},"properties":{"description":"30","address":"87574","placename":"Tesuque, NM 87574, USA","title":"Cust12"}},{"type":"Feature","geometry":{"type":"Point","coordinates":[-99.1677572,40.735296199998]},"properties":{"description":"55","address":"68845","placename":"Kearney, NE 68845, USA","title":"Cust11"}},{"type":"Feature","geometry":{"type":"Point","coordinates":[-97.394882,42.037593799997]},"properties":{"description":"50","address":"68701","placename":"Norfolk, NE 68701, USA","title":"Cust10"}},{"type":"Feature","geometry":{"type":"Point","coordinates":[-97.546388500001,41.094024900003]},"properties":{"description":"45","address":"68666","placename":"Stromsburg, NE 68666, USA","title":"Cust9"}},{"type":"Feature","geometry":{"type":"Point","coordinates":[-96.711272200003,40.818579600002]},"properties":{"description":"40","address":"68501","placename":"Lincoln, NE 68501, USA","title":"Cust8"}},{"type":"Feature","geometry":{"type":"Point","coordinates":[-82.723923999996,27.791959000002]},"properties":{"description":"35","address":"33710","placename":"St. Petersburg, FL 33710, USA","title":"Cust7"}},{"type":"Feature","geometry":{"type":"Point","coordinates":[-82.442776899996,28.056383399996]},"properties":{"description":"30","address":"33612","placename":"Tampa, FL 33612, USA","title":"Cust6"}},{"type":"Feature","geometry":{"type":"Point","coordinates":[-82.290914600002,27.908259499999]},"properties":{"description":"25","address":"33511","placename":"Brandon, FL 33511, USA","title":"Cust5"}},{"type":"Feature","geometry":{"type":"Point","coordinates":[-71.474999400004,43.579052100002]},"properties":{"description":"20","address":"03246","placename":"Laconia, NH 03246, USA","title":"Cust4"}},{"type":"Feature","geometry":{"type":"Point","coordinates":[-71.441810100002,42.956148500003]},"properties":{"description":"19","address":"03103","placename":"Manchester, NH 03103, USA","title":"Cust3"}},{"type":"Feature","geometry":{"type":"Point","coordinates":[-72.603289500003,42.6334135]},"properties":{"description":"2","address":"01301","placename":"Greenfield, MA 01301, USA","title":"Cust2"}},{"type":"Feature","geometry":{"type":"Point","coordinates":[-73.300123299999,42.463450299998]},"properties":{"description":"1","address":"01201","placename":"Pittsfield, MA 01201, USA","title":"Cust1"}},{"type":"Feature","geometry":{"type":"Point","coordinates":[-73.596263500004,45.402446700001]},"properties":{"description":"92","address":"J5C1B4","placename":"Sainte-Catherine, QC J5C 1B4, Canada","title":"Smelter6"}},{"type":"Feature","geometry":{"type":"Point","coordinates":[-86.157370899998,39.771342499999]},"properties":{"description":"80","address":"46204","placename":"Indianapolis, IN 46204, USA","title":"Smelter5"}},{"type":"Feature","geometry":{"type":"Point","coordinates":[-117.9307584,34.027462200002]},"properties":{"description":"75","address":"91744","placename":"La Puente, CA 91744, USA","title":"Smelter4"}},{"type":"Feature","geometry":{"type":"Point","coordinates":[-75.830153700003,40.464964500002]},"properties":{"description":"40","address":"19522","placename":"Fleetwood, PA 19522, USA","title":"Smelter3"}},{"type":"Feature","geometry":{"type":"Point","coordinates":[-90.5352356,37.6693797]},"properties":{"description":"35","address":"63637","placename":"Doe Run, MO 63637, USA","title":"Smelter2"}},{"type":"Feature","geometry":{"type":"Point","coordinates":[-99.445043900002,27.567662699999]},"properties":{"description":"30","address":"78041","placename":"Laredo, TX 78041, USA","title":"Smelter1"}},{"type":"Feature","geometry":{"type":"LineString","coordinates":[[-73.300123299999,42.463450299998],[-73.596263500004,45.402446700001]]},"properties":[]},{"type":"Feature","geometry":{"type":"LineString","coordinates":[[-72.603289500003,42.6334135],[-73.596263500004,45.402446700001]]},"properties":[]},{"type":"Feature","geometry":{"type":"LineString","coordinates":[[-71.441810100002,42.956148500003],[-73.596263500004,45.402446700001]]},"properties":[]},{"type":"Feature","geometry":{"type":"LineString","coordinates":[[-71.474999400004,43.579052100002],[-73.596263500004,45.402446700001]]},"properties":[]},{"type":"Feature","geometry":{"type":"LineString","coordinates":[[-82.290914600002,27.908259499999],[-73.596263500004,45.402446700001]]},"properties":[]},{"type":"Feature","geometry":{"type":"LineString","coordinates":[[-82.442776899996,28.056383399996],[-73.596263500004,45.402446700001]]},"properties":[]},{"type":"Feature","geometry":{"type":"LineString","coordinates":[[-82.723923999996,27.791959000002],[-73.596263500004,45.402446700001]]},"properties":[]},{"type":"Feature","geometry":{"type":"LineString","coordinates":[[-96.711272200003,40.818579600002],[-73.596263500004,45.402446700001]]},"properties":[]},{"type":"Feature","geometry":{"type":"LineString","coordinates":[[-97.546388500001,41.094024900003],[-73.596263500004,45.402446700001]]},"properties":[]},{"type":"Feature","geometry":{"type":"LineString","coordinates":[[-97.394882,42.037593799997],[-73.596263500004,45.402446700001]]},"properties":[]},{"type":"Feature","geometry":{"type":"LineString","coordinates":[[-99.1677572,40.735296199998],[-73.596263500004,45.402446700001]]},"properties":[]},{"type":"Feature","geometry":{"type":"LineString","coordinates":[[-105.9343712,35.771759799999],[-73.596263500004,45.402446700001]]},"properties":[]},{"type":"Feature","geometry":{"type":"LineString","coordinates":[[-93.379205699997,40.788078800002],[-99.445043900002,27.567662699999]]},"properties":[]},{"type":"Feature","geometry":{"type":"LineString","coordinates":[[-93.379205699997,40.788078800002],[-90.5352356,37.6693797]]},"properties":[]},{"type":"Feature","geometry":{"type":"LineString","coordinates":[[-93.379205699997,40.788078800002],[-75.830153700003,40.464964500002]]},"properties":[]},{"type":"Feature","geometry":{"type":"LineString","coordinates":[[-93.379205699997,40.788078800002],[-117.9307584,34.027462200002]]},"properties":[]},{"type":"Feature","geometry":{"type":"LineString","coordinates":[[-93.379205699997,40.788078800002],[-86.157370899998,39.771342499999]]},"properties":[]},{"type":"Feature","geometry":{"type":"LineString","coordinates":[[-93.379205699997,40.788078800002],[-73.596263500004,45.402446700001]]},"properties":[]}],"properties":{"tags":"","description":"","title":"East Penn Supply Chain"}}