{"type":"FeatureCollection","features":[{"type":"Feature","geometry":{"type":"Point","coordinates":[-75.830153700003,40.464964500002]},"properties":{"description":"500","address":"19522","placename":"Fleetwood, PA 19522, USA","title":"ManuPlant1"}},{"type":"Feature","geometry":{"type":"Point","coordinates":[-96.8148347,33.174667500001]},"properties":{"description":"50","address":"75033","placename":"Frisco, TX 75033, USA","title":"Smelter5"}},{"type":"Feature","geometry":{"type":"Point","coordinates":[-95.205790900001,40.008134399997]},"properties":{"description":"45","address":"64451","placename":"Forest City, MO 64451, USA","title":"Smelter4"}},{"type":"Feature","geometry":{"type":"Point","coordinates":[-75.830153700003,40.464964500002]},"properties":{"description":"40","address":"19522","placename":"Fleetwood, PA 19522, USA","title":"Smelter3"}},{"type":"Feature","geometry":{"type":"Point","coordinates":[-90.5352356,37.6693797]},"properties":{"description":"35","address":"63637","placename":"Doe Run, MO 63637, USA","title":"Smelter2"}},{"type":"Feature","geometry":{"type":"Point","coordinates":[-99.445043900002,27.567662699999]},"properties":{"description":"30","address":"78041","placename":"Laredo, TX 78041, USA","title":"Smelter1"}},{"type":"Feature","geometry":{"type":"Point","coordinates":[-70.835779200002,43.087490599998]},"properties":{"description":"25","address":"03801","placename":"Portsmouth, NH 03801, USA","title":"Cust25"}},{"type":"Feature","geometry":{"type":"Point","coordinates":[-72.249235100004,43.621775699999]},"properties":{"description":"24","address":"03766","placename":"Lebanon, NH 03766, USA","title":"Cust24"}},{"type":"Feature","geometry":{"type":"Point","coordinates":[-71.785029399998,44.336410699999]},"properties":{"description":"23","address":"03561","placename":"Littleton, NH 03561, USA","title":"Cust23"}},{"type":"Feature","geometry":{"type":"Point","coordinates":[-72.3074326,42.956141400002]},"properties":{"description":"22","address":"03431","placename":"Keene, NH 03431, USA","title":"Cust22"}},{"type":"Feature","geometry":{"type":"Point","coordinates":[-71.5486562,43.2086343]},"properties":{"description":"21","address":"03301","placename":"Concord, NH 03301, USA","title":"Cust21"}},{"type":"Feature","geometry":{"type":"Point","coordinates":[-96.8148347,33.174667500001]},"properties":{"description":"50","address":"75033","placename":"Frisco, TX 75033, USA","title":"Smelter5"}},{"type":"Feature","geometry":{"type":"Point","coordinates":[-71.474999400004,43.579052100002]},"properties":{"description":"20","address":"03246","placename":"Laconia, NH 03246, USA","title":"Cust20"}},{"type":"Feature","geometry":{"type":"Point","coordinates":[-71.441810100002,42.956148500003]},"properties":{"description":"19","address":"03103","placename":"Manchester, NH 03103, USA","title":"Cust19"}},{"type":"Feature","geometry":{"type":"Point","coordinates":[-71.2161428,42.776831800001]},"properties":{"description":"18","address":"03079","placename":"Salem, NH 03079, USA","title":"Cust18"}},{"type":"Feature","geometry":{"type":"Point","coordinates":[-71.513044500003,41.903682499997]},"properties":{"description":"17","address":"02917","placename":"Smithfield, RI 02917, USA","title":"Cust17"}},{"type":"Feature","geometry":{"type":"Point","coordinates":[-71.426519800003,41.711351900002]},"properties":{"description":"16","address":"02887","placename":"Warwick, RI 02887, USA","title":"Cust16"}},{"type":"Feature","geometry":{"type":"Point","coordinates":[-95.205790900001,40.008134399997]},"properties":{"description":"45","address":"64451","placename":"Forest City, MO 64451, USA","title":"Smelter4"}},{"type":"Feature","geometry":{"type":"Point","coordinates":[-71.204261900001,41.7558583]},"properties":{"description":"15","address":"02777","placename":"Swansea, MA 02777, USA","title":"Cust15"}},{"type":"Feature","geometry":{"type":"Point","coordinates":[-70.300357199998,41.656720700002]},"properties":{"description":"14","address":"02601","placename":"Hyannis, MA 02601, USA","title":"Cust14"}},{"type":"Feature","geometry":{"type":"Point","coordinates":[-70.627627900002,41.575024900003]},"properties":{"description":"13","address":"02540","placename":"Falmouth, MA 02540, USA","title":"Cust13"}},{"type":"Feature","geometry":{"type":"Point","coordinates":[-71.159382200001,42.370377499998]},"properties":{"description":"12","address":"02471","placename":"Watertown, MA 02471, USA","title":"Cust12"}},{"type":"Feature","geometry":{"type":"Point","coordinates":[-70.847670799996,42.116221700003]},"properties":{"description":"11","address":"02339","placename":"Hanover, MA 02339, USA","title":"Cust11"}},{"type":"Feature","geometry":{"type":"Point","coordinates":[-75.830153700003,40.464964500002]},"properties":{"description":"40","address":"19522","placename":"Fleetwood, PA 19522, USA","title":"Smelter3"}},{"type":"Feature","geometry":{"type":"Point","coordinates":[-71.1002881,42.380875700001]},"properties":{"description":"10","address":"02143","placename":"Somerville, MA 02143, USA","title":"Cust10"}},{"type":"Feature","geometry":{"type":"Point","coordinates":[-71.180498799998,42.249451400003]},"properties":{"description":"9","address":"02026","placename":"Dedham, MA 02026, USA","title":"Cust9"}},{"type":"Feature","geometry":{"type":"Point","coordinates":[-71.014117999996,42.468164200001]},"properties":{"description":"8","address":"01906","placename":"Saugus, MA 01906, USA","title":"Cust8"}},{"type":"Feature","geometry":{"type":"Point","coordinates":[-71.275542199996,42.683027599998]},"properties":{"description":"7","address":"01826","placename":"Dracut, MA 01826, USA","title":"Cust7"}},{"type":"Feature","geometry":{"type":"Point","coordinates":[-71.346809100001,42.277528099999]},"properties":{"description":"6","address":"01760","placename":"Natick, MA 01760, USA","title":"Cust6"}},{"type":"Feature","geometry":{"type":"Point","coordinates":[-90.5352356,37.6693797]},"properties":{"description":"35","address":"63637","placename":"Doe Run, MO 63637, USA","title":"Smelter2"}},{"type":"Feature","geometry":{"type":"Point","coordinates":[-71.797833299997,42.3142089]},"properties":{"description":"5","address":"01606","placename":"Worcester, MA 01606, USA","title":"Cust5"}},{"type":"Feature","geometry":{"type":"Point","coordinates":[-71.726659000002,42.2834603]},"properties":{"description":"4","address":"01545","placename":"Shrewsbury, MA 01545, USA","title":"Cust4"}},{"type":"Feature","geometry":{"type":"Point","coordinates":[-71.833414499999,42.5768698]},"properties":{"description":"3","address":"01420","placename":"Fitchburg, MA 01420, USA","title":"Cust3"}},{"type":"Feature","geometry":{"type":"Point","coordinates":[-72.603289500003,42.6334135]},"properties":{"description":"2","address":"01301","placename":"Greenfield, MA 01301, USA","title":"Cust2"}},{"type":"Feature","geometry":{"type":"Point","coordinates":[-73.300123299999,42.463450299998]},"properties":{"description":"1","address":"01201","placename":"Pittsfield, MA 01201, USA","title":"Cust1"}},{"type":"Feature","geometry":{"type":"Point","coordinates":[-99.445043900002,27.567662699999]},"properties":{"description":"30","address":"78041","placename":"Laredo, TX 78041, USA","title":"Smelter1"}},{"type":"Feature","geometry":{"type":"Point","coordinates":[-75.830153700003,40.464964500002]},"properties":{"description":"500","address":"19522","placename":"Fleetwood, PA 19522, USA","title":"ManuPlant1"}},{"type":"Feature","geometry":{"type":"LineString","coordinates":[[-99.445043900002,27.567662699999],[-75.830153700003,40.464964500002]]},"properties":[]},{"type":"Feature","geometry":{"type":"LineString","coordinates":[[-73.300123299999,42.463450299998],[-99.445043900002,27.567662699999]]},"properties":[]},{"type":"Feature","geometry":{"type":"LineString","coordinates":[[-72.603289500003,42.6334135],[-99.445043900002,27.567662699999]]},"properties":[]},{"type":"Feature","geometry":{"type":"LineString","coordinates":[[-71.833414499999,42.5768698],[-99.445043900002,27.567662699999]]},"properties":[]},{"type":"Feature","geometry":{"type":"LineString","coordinates":[[-71.726659000002,42.2834603],[-99.445043900002,27.567662699999]]},"properties":[]},{"type":"Feature","geometry":{"type":"LineString","coordinates":[[-71.797833299997,42.3142089],[-99.445043900002,27.567662699999]]},"properties":[]},{"type":"Feature","geometry":{"type":"LineString","coordinates":[[-90.5352356,37.6693797],[-75.830153700003,40.464964500002]]},"properties":[]},{"type":"Feature","geometry":{"type":"LineString","coordinates":[[-71.346809100001,42.277528099999],[-90.5352356,37.6693797]]},"properties":[]},{"type":"Feature","geometry":{"type":"LineString","coordinates":[[-71.275542199996,42.683027599998],[-90.5352356,37.6693797]]},"properties":[]},{"type":"Feature","geometry":{"type":"LineString","coordinates":[[-71.014117999996,42.468164200001],[-90.5352356,37.6693797]]},"properties":[]},{"type":"Feature","geometry":{"type":"LineString","coordinates":[[-71.180498799998,42.249451400003],[-90.5352356,37.6693797]]},"properties":[]},{"type":"Feature","geometry":{"type":"LineString","coordinates":[[-71.1002881,42.380875700001],[-90.5352356,37.6693797]]},"properties":[]},{"type":"Feature","geometry":{"type":"LineString","coordinates":[[-75.830153700003,40.464964500002],[-75.830153700003,40.464964500002]]},"properties":[]},{"type":"Feature","geometry":{"type":"LineString","coordinates":[[-70.847670799996,42.116221700003],[-75.830153700003,40.464964500002]]},"properties":[]},{"type":"Feature","geometry":{"type":"LineString","coordinates":[[-71.159382200001,42.370377499998],[-75.830153700003,40.464964500002]]},"properties":[]},{"type":"Feature","geometry":{"type":"LineString","coordinates":[[-70.627627900002,41.575024900003],[-75.830153700003,40.464964500002]]},"properties":[]},{"type":"Feature","geometry":{"type":"LineString","coordinates":[[-70.300357199998,41.656720700002],[-75.830153700003,40.464964500002]]},"properties":[]},{"type":"Feature","geometry":{"type":"LineString","coordinates":[[-71.204261900001,41.7558583],[-75.830153700003,40.464964500002]]},"properties":[]},{"type":"Feature","geometry":{"type":"LineString","coordinates":[[-95.205790900001,40.008134399997],[-75.830153700003,40.464964500002]]},"properties":[]},{"type":"Feature","geometry":{"type":"LineString","coordinates":[[-71.426519800003,41.711351900002],[-95.205790900001,40.008134399997]]},"properties":[]},{"type":"Feature","geometry":{"type":"LineString","coordinates":[[-71.513044500003,41.903682499997],[-95.205790900001,40.008134399997]]},"properties":[]},{"type":"Feature","geometry":{"type":"LineString","coordinates":[[-71.2161428,42.776831800001],[-95.205790900001,40.008134399997]]},"properties":[]},{"type":"Feature","geometry":{"type":"LineString","coordinates":[[-71.441810100002,42.956148500003],[-95.205790900001,40.008134399997]]},"properties":[]},{"type":"Feature","geometry":{"type":"LineString","coordinates":[[-71.474999400004,43.579052100002],[-95.205790900001,40.008134399997]]},"properties":[]},{"type":"Feature","geometry":{"type":"LineString","coordinates":[[-96.8148347,33.174667500001],[-75.830153700003,40.464964500002]]},"properties":[]},{"type":"Feature","geometry":{"type":"LineString","coordinates":[[-71.5486562,43.2086343],[-96.8148347,33.174667500001]]},"properties":[]},{"type":"Feature","geometry":{"type":"LineString","coordinates":[[-72.3074326,42.956141400002],[-96.8148347,33.174667500001]]},"properties":[]},{"type":"Feature","geometry":{"type":"LineString","coordinates":[[-71.785029399998,44.336410699999],[-96.8148347,33.174667500001]]},"properties":[]},{"type":"Feature","geometry":{"type":"LineString","coordinates":[[-72.249235100004,43.621775699999],[-96.8148347,33.174667500001]]},"properties":[]},{"type":"Feature","geometry":{"type":"LineString","coordinates":[[-70.835779200002,43.087490599998],[-96.8148347,33.174667500001]]},"properties":[]},{"type":"Feature","geometry":{"type":"LineString","coordinates":[[-96.8148347,33.174667500001],[-75.830153700003,40.464964500002]]},"properties":[]}],"properties":{"tags":"","description":"","title":"East Penn Supply Chain"}}