{"type":"FeatureCollection","features":[{"type":"Feature","geometry":{"type":"Point","coordinates":[-75.830153700003,40.464964500002]},"properties":{"description":"21","address":"19522","placename":"Fleetwood, PA 19522, USA","title":"ManuPlant1"}},{"type":"Feature","geometry":{"type":"Point","coordinates":[-75.830153700003,40.464964500002]},"properties":{"description":"18","address":"19522","placename":"Fleetwood, PA 19522, USA","title":"ManuPlant1"}},{"type":"Feature","geometry":{"type":"Point","coordinates":[-75.830153700003,40.464964500002]},"properties":{"description":"15","address":"19522","placename":"Fleetwood, PA 19522, USA","title":"ManuPlant1"}},{"type":"Feature","geometry":{"type":"Point","coordinates":[-70.627627900002,41.575024900003]},"properties":{"description":"8","address":"02540","placename":"Falmouth, MA 02540, USA","title":"Cust13"}},{"type":"Feature","geometry":{"type":"Point","coordinates":[-71.159382200001,42.370377499998]},"properties":{"description":"7","address":"02471","placename":"Watertown, MA 02471, USA","title":"Cust12"}},{"type":"Feature","geometry":{"type":"Point","coordinates":[-70.847670799996,42.116221700003]},"properties":{"description":"6","address":"02339","placename":"Hanover, MA 02339, USA","title":"Cust11"}},{"type":"Feature","geometry":{"type":"Point","coordinates":[-75.830153700003,40.464964500002]},"properties":{"description":"21","address":"19522","placename":"Fleetwood, PA 19522, USA","title":"Smelter3"}},{"type":"Feature","geometry":{"type":"Point","coordinates":[-71.014117999996,42.468164200001]},"properties":{"description":"7","address":"01906","placename":"Saugus, MA 01906, USA","title":"Cust8"}},{"type":"Feature","geometry":{"type":"Point","coordinates":[-71.275542199996,42.683027599998]},"properties":{"description":"6","address":"01826","placename":"Dracut, MA 01826, USA","title":"Cust7"}},{"type":"Feature","geometry":{"type":"Point","coordinates":[-71.346809100001,42.277528099999]},"properties":{"description":"5","address":"01760","placename":"Natick, MA 01760, USA","title":"Cust6"}},{"type":"Feature","geometry":{"type":"Point","coordinates":[-90.5352356,37.6693797]},"properties":{"description":"18","address":"63637","placename":"Doe Run, MO 63637, USA","title":"Smelter2"}},{"type":"Feature","geometry":{"type":"Point","coordinates":[-71.833414499999,42.5768698]},"properties":{"description":"6","address":"01420","placename":"Fitchburg, MA 01420, USA","title":"Cust3"}},{"type":"Feature","geometry":{"type":"Point","coordinates":[-72.603289500003,42.6334135]},"properties":{"description":"5","address":"01301","placename":"Greenfield, MA 01301, USA","title":"Cust2"}},{"type":"Feature","geometry":{"type":"Point","coordinates":[-73.300123299999,42.463450299998]},"properties":{"description":"4","address":"01201","placename":"Pittsfield, MA 01201, USA","title":"Cust1"}},{"type":"Feature","geometry":{"type":"Point","coordinates":[-99.445043900002,27.567662699999]},"properties":{"description":"15","address":"78041","placename":"Laredo, TX 78041, USA","title":"Smelter1"}},{"type":"Feature","geometry":{"type":"LineString","coordinates":[[-73.300123299999,42.463450299998],[-99.445043900002,27.567662699999]]},"properties":[]},{"type":"Feature","geometry":{"type":"LineString","coordinates":[[-72.603289500003,42.6334135],[-99.445043900002,27.567662699999]]},"properties":[]},{"type":"Feature","geometry":{"type":"LineString","coordinates":[[-71.833414499999,42.5768698],[-99.445043900002,27.567662699999]]},"properties":[]},{"type":"Feature","geometry":{"type":"LineString","coordinates":[[-71.346809100001,42.277528099999],[-90.5352356,37.6693797]]},"properties":[]},{"type":"Feature","geometry":{"type":"LineString","coordinates":[[-71.275542199996,42.683027599998],[-90.5352356,37.6693797]]},"properties":[]},{"type":"Feature","geometry":{"type":"LineString","coordinates":[[-71.014117999996,42.468164200001],[-90.5352356,37.6693797]]},"properties":[]},{"type":"Feature","geometry":{"type":"LineString","coordinates":[[-70.847670799996,42.116221700003],[-75.830153700003,40.464964500002]]},"properties":[]},{"type":"Feature","geometry":{"type":"LineString","coordinates":[[-71.159382200001,42.370377499998],[-75.830153700003,40.464964500002]]},"properties":[]},{"type":"Feature","geometry":{"type":"LineString","coordinates":[[-70.627627900002,41.575024900003],[-75.830153700003,40.464964500002]]},"properties":[]},{"type":"Feature","geometry":{"type":"LineString","coordinates":[[-99.445043900002,27.567662699999],[-75.830153700003,40.464964500002]]},"properties":[]},{"type":"Feature","geometry":{"type":"LineString","coordinates":[[-90.5352356,37.6693797],[-75.830153700003,40.464964500002]]},"properties":[]},{"type":"Feature","geometry":{"type":"LineString","coordinates":[[-75.830153700003,40.464964500002],[-75.830153700003,40.464964500002]]},"properties":[]}],"properties":{"tags":"","description":"","title":"East Penn Supply Chain"}}