{"type":"FeatureCollection","features":[{"type":"Feature","geometry":{"type":"Point","coordinates":[-71.104465900003,42.365334299998]},"properties":{"address":"Central Square, Cambridge","placename":"Central Square, Cambridge, MA 02139, USA","title":"Neighbors"}},{"type":"Feature","geometry":{"type":"Point","coordinates":[-71.453788399997,42.474856600003]},"properties":{"address":"Main St. & Massachusetts Ave.","placename":"Massachusetts Avenue & Main Street, Acton, MA 01720, USA","title":"Lemonade Stand"}},{"type":"Feature","geometry":{"type":"Point","coordinates":[-84.295965999999,39.1734073]},"properties":{"address":"123 Main St.","placename":"123 Main Street, Milford, OH 45150, USA","title":"Family"}},{"type":"Feature","geometry":{"type":"Point","coordinates":[-84.295965999999,39.1734073]},"properties":{"address":"123 Main St.","placename":"123 Main Street, Milford, OH 45150, USA","title":"Refrigerator"}},{"type":"Feature","geometry":{"type":"Point","coordinates":[-71.109733499997,42.373615800001]},"properties":{"address":"Cambridge, MA","placename":"Cambridge, MA, USA","title":"Lemonade"}},{"type":"Feature","geometry":{"type":"Point","coordinates":[4.4199460000021,44.012110000002]},"properties":{"address":"Uz\u00e8s, France","placename":"Uz\u00e8s, France","title":"DD2"}},{"type":"Feature","geometry":{"type":"Point","coordinates":[1.4442089999994,43.604651999997]},"properties":{"address":"Toulouse, France","placename":"Toulouse, France","title":"DD1"}},{"type":"Feature","geometry":{"type":"Point","coordinates":[-0.57918000000316,44.837789000003]},"properties":{"address":"Bordeaux, France","placename":"Bordeaux, France","title":"DD"}},{"type":"Feature","geometry":{"type":"Point","coordinates":[133.775136,-25.274397999999]},"properties":{"address":"Australia","placename":"Australia","title":"CC2"}},{"type":"Feature","geometry":{"type":"Point","coordinates":[104.195397,35.861660000001]},"properties":{"address":"China","placename":"China","title":"CC1"}},{"type":"Feature","geometry":{"type":"Point","coordinates":[5.3697800000009,43.296482000003]},"properties":{"address":"Marseille, France","placename":"Marseille, France","title":"CC"}},{"type":"Feature","geometry":{"type":"Point","coordinates":[13.406091199998,52.519171000002]},"properties":{"address":"Berlin, germany","placename":"Berlin, Germany","title":"BB"}},{"type":"Feature","geometry":{"type":"Point","coordinates":[2.3522219000019,48.856613999999]},"properties":{"address":"Paris, France","placename":"Paris, France","title":"AAA"}},{"type":"Feature","geometry":{"type":"LineString","coordinates":[[13.406091199998,52.519171000002],[2.3522219000019,48.856613999999]]},"properties":[]},{"type":"Feature","geometry":{"type":"LineString","coordinates":[[5.3697800000009,43.296482000003],[2.3522219000019,48.856613999999]]},"properties":[]},{"type":"Feature","geometry":{"type":"LineString","coordinates":[[104.195397,35.861660000001],[5.3697800000009,43.296482000003]]},"properties":[]},{"type":"Feature","geometry":{"type":"LineString","coordinates":[[133.775136,-25.274397999999],[5.3697800000009,43.296482000003]]},"properties":[]},{"type":"Feature","geometry":{"type":"LineString","coordinates":[[-0.57918000000316,44.837789000003],[2.3522219000019,48.856613999999]]},"properties":[]},{"type":"Feature","geometry":{"type":"LineString","coordinates":[[1.4442089999994,43.604651999997],[-0.57918000000316,44.837789000003]]},"properties":[]},{"type":"Feature","geometry":{"type":"LineString","coordinates":[[4.4199460000021,44.012110000002],[-0.57918000000316,44.837789000003]]},"properties":[]},{"type":"Feature","geometry":{"type":"LineString","coordinates":[[-71.109733499997,42.373615800001],[-84.295965999999,39.1734073]]},"properties":[]},{"type":"Feature","geometry":{"type":"LineString","coordinates":[[-84.295965999999,39.1734073],[-84.295965999999,39.1734073]]},"properties":[]},{"type":"Feature","geometry":{"type":"LineString","coordinates":[[-71.109733499997,42.373615800001],[-71.453788399997,42.474856600003]]},"properties":[]},{"type":"Feature","geometry":{"type":"LineString","coordinates":[[-71.453788399997,42.474856600003],[-71.104465900003,42.365334299998]]},"properties":[]}],"properties":{"tags":"","description":"test 1","title":"test"}}