{"supplychain":{"category":15,"created":1367190762,"enable_comments":true,"flags":0,"id":5860,"modified":1367190763,"other_perms":1,"passcode":null,"user_featured":false,"usergroup_id":null,"usergroup_perms":0,"user_id":5438,"owner":{"id":5438,"name":"Kasper101","avatar":"http:\/\/free.sourcemap.com\/assets\/images\/default-user.png","banner_url":null,"display_name":null},"taxonomy":[{"description":"Packaging\n","id":15,"left":27,"name":"packaging","right":28,"title":"Packaging "}],"attributes":{"tags":"","description":"This is a map of how Pilot Pens are shipped and distributed","title":"PIlot Pen Distribution"},"stops":[{"local_stop_id":19,"id":19,"geometry":"POINT(-7915312.937116 5215862.8232)","attributes":{"address":"Central Square, Cambridge","placename":"Central Square, Cambridge, MA 02139, USA","title":"Neighbors"}},{"local_stop_id":18,"id":18,"geometry":"POINT(-7954199.339938 5232378.21361)","attributes":{"address":"Main St. & Massachusetts Ave.","placename":"Massachusetts Avenue & Main Street, Acton, MA 01720, USA","title":"Lemonade Stand"}},{"local_stop_id":17,"id":17,"geometry":"POINT(-9383784.011047 4746541.20654)","attributes":{"address":"123 Main St.","placename":"123 Main Street, Milford, OH 45150, USA","title":"Family"}},{"local_stop_id":16,"id":16,"geometry":"POINT(-9383784.011047 4746541.20654)","attributes":{"address":"123 Main St.","placename":"123 Main Street, Milford, OH 45150, USA","title":"Refrigerator"}},{"local_stop_id":15,"id":15,"geometry":"POINT(-7915899.323665 5217110.62274)","attributes":{"address":"Cambridge, MA","placename":"Cambridge, MA, USA","title":"Lemonade"}},{"local_stop_id":14,"id":14,"geometry":"POINT(14891780.020321 -2909486.054997)","attributes":{"address":"Australia","placename":"Australia","title":"pens"}},{"local_stop_id":13,"id":13,"geometry":"POINT(11724030.288901 8747149.04879)","attributes":{"address":"Russia","placename":"Russia","title":"pens"}},{"local_stop_id":12,"id":12,"geometry":"POINT(-5780295.728898 -1601191.813438)","attributes":{"address":"Brazil","placename":"Brazil","title":"pens"}},{"local_stop_id":11,"id":11,"geometry":"POINT(13465262.935892 2716627.939237)","attributes":{"address":"Taiwan","placename":"Taiwan","title":"pens"}},{"local_stop_id":10,"id":10,"geometry":"POINT(11557171.277761 150527.162641)","attributes":{"address":"Singapore","placename":"Singapore","title":"pens"}},{"local_stop_id":9,"id":9,"geometry":"POINT(11351890.344374 469131.367658)","attributes":{"address":"Malaysia","placename":"Malaysia","title":"pens"}},{"local_stop_id":8,"id":8,"geometry":"POINT(1398994.342206 5141815.937641)","attributes":{"address":"Italy","placename":"Italy","title":"pens"}},{"local_stop_id":7,"id":7,"geometry":"POINT(12681664.112134 -87864.470043)","attributes":{"address":"Indonesia","placename":"Indonesia","title":"pens"}},{"local_stop_id":6,"id":6,"geometry":"POINT(12702611.100717 2559188.1802)","attributes":{"address":"Hong Kong","placename":"Hong Kong","title":"pens"}},{"local_stop_id":5,"id":5,"geometry":"POINT(1163458.552333 6650655.041174)","attributes":{"address":"Germany","placename":"Germany","title":"pens"}},{"local_stop_id":4,"id":4,"geometry":"POINT(246433.411424 5816903.713427)","attributes":{"address":"France","placename":"France","title":"pens"}},{"local_stop_id":3,"id":3,"geometry":"POINT(-382490.764739 7435586.530983)","attributes":{"address":"United Kingdom","placename":"United Kingdom","title":"pens"}},{"local_stop_id":2,"id":2,"geometry":"POINT(-10654710.288472 4451692.554811)","attributes":{"address":"United States","placename":"United States","title":"pens"}},{"local_stop_id":1,"id":1,"geometry":"POINT(15390245.100361 4328841.562513)","attributes":{"address":"japan","placename":"Japan","title":"Lemonade"}}],"hops":[{"from_stop_id":2,"to_stop_id":1,"geometry":"MULTILINESTRING((-10654710.288472 4451692.554811,15390245.100361 4328841.562513))","attributes":{}},{"from_stop_id":3,"to_stop_id":1,"geometry":"MULTILINESTRING((-382490.764739 7435586.530983,15390245.100361 4328841.562513))","attributes":{}},{"from_stop_id":4,"to_stop_id":3,"geometry":"MULTILINESTRING((246433.411424 5816903.713427,-382490.764739 7435586.530983))","attributes":{}},{"from_stop_id":5,"to_stop_id":3,"geometry":"MULTILINESTRING((1163458.552333 6650655.041174,-382490.764739 7435586.530983))","attributes":{}},{"from_stop_id":6,"to_stop_id":1,"geometry":"MULTILINESTRING((12702611.100717 2559188.1802,15390245.100361 4328841.562513))","attributes":{}},{"from_stop_id":7,"to_stop_id":1,"geometry":"MULTILINESTRING((12681664.112134 -87864.470043,15390245.100361 4328841.562513))","attributes":{}},{"from_stop_id":8,"to_stop_id":1,"geometry":"MULTILINESTRING((1398994.342206 5141815.937641,15390245.100361 4328841.562513))","attributes":{}},{"from_stop_id":9,"to_stop_id":1,"geometry":"MULTILINESTRING((11351890.344374 469131.367658,15390245.100361 4328841.562513))","attributes":{}},{"from_stop_id":10,"to_stop_id":1,"geometry":"MULTILINESTRING((11557171.277761 150527.162641,15390245.100361 4328841.562513))","attributes":{}},{"from_stop_id":11,"to_stop_id":1,"geometry":"MULTILINESTRING((13465262.935892 2716627.939237,15390245.100361 4328841.562513))","attributes":{}},{"from_stop_id":12,"to_stop_id":1,"geometry":"MULTILINESTRING((-5780295.728898 -1601191.813438,15390245.100361 4328841.562513))","attributes":{}},{"from_stop_id":13,"to_stop_id":1,"geometry":"MULTILINESTRING((11724030.288901 8747149.04879,15390245.100361 4328841.562513))","attributes":{}},{"from_stop_id":14,"to_stop_id":1,"geometry":"MULTILINESTRING((14891780.020321 -2909486.054997,15390245.100361 4328841.562513))","attributes":{}},{"from_stop_id":15,"to_stop_id":16,"geometry":"MULTILINESTRING((-7915899.323665 5217110.62274,-9383784.011047 4746541.20654))","attributes":{}},{"from_stop_id":16,"to_stop_id":17,"geometry":"MULTILINESTRING((-9383784.011047 4746541.20654,-9383784.011047 4746541.20654))","attributes":{}},{"from_stop_id":15,"to_stop_id":18,"geometry":"MULTILINESTRING((-7915899.323665 5217110.62274,-7954199.339938 5232378.21361))","attributes":{}},{"from_stop_id":18,"to_stop_id":19,"geometry":"MULTILINESTRING((-7954199.339938 5232378.21361,-7915312.937116 5215862.8232))","attributes":{}}]},"editable":false}