{"supplychain":{"category":null,"created":1367629336,"enable_comments":true,"flags":0,"id":5889,"modified":1367629407,"other_perms":1,"passcode":null,"user_featured":false,"usergroup_id":null,"usergroup_perms":0,"user_id":5475,"owner":{"id":5475,"name":"adubost","avatar":"http:\/\/free.sourcemap.com\/assets\/images\/default-user.png","banner_url":null,"display_name":null},"taxonomy":null,"attributes":{"sm:ui:tileset":"cloudmade","title":"test","description":"","tags":""},"stops":[{"local_stop_id":21,"id":21,"geometry":"POINT(0 -0)","attributes":{"description":"","title":"UTi Pakistan","address":"Anum Estate, Karachi, AFGHANISTAN"}},{"local_stop_id":20,"id":20,"geometry":"POINT(338639.234329 4404718.167128)","attributes":{"description":"","title":"Ipsen Logistics EURL","placename":"Algiers, Algeria","address":"8 Rue Gharnata Les Sources, Bir Mourad, Alger, ALGERIA"}},{"local_stop_id":19,"id":19,"geometry":"POINT(1472618.916082 -984781.719562)","attributes":{"description":"","title":"Sociedade Maritima International","placename":"Avenida 4 de Fevereiro 219, Luanda, Angola","address":"Avenida 4 de Fevereiro 219, Luanda     , ANGOLA"}},{"local_stop_id":18,"id":18,"geometry":"POINT(-6499009.215592 -4110158.263751)","attributes":{"description":"","title":"UTi Logistics Argentina S.A.","placename":"Buenos Aires, Argentina","address":"Av. Corrientes 447  7st floor, Buenos Aires, ARGENTINA"}},{"local_stop_id":17,"id":17,"geometry":"POINT(17041019.640453 -3171898.022298)","attributes":{"description":"","title":"UTi (Aust) Pty Ltd.","placename":"3\/73 Wentworth Place, Banyo QLD 4014, Australia","address":"Units 2 and 3\/73 Wentworth Ave Banyo QLD, Brisbane, AUSTRALIA"}},{"local_stop_id":16,"id":16,"geometry":"POINT(-13708557.605218 6305066.564869)","attributes":{"description":"","title":"UTi Canada Inc.","placename":"7080 River Road #123, Richmond, BC V6X, Canada","address":"7080 River Road Unit 123, Vancouver, CANADA"}},{"local_stop_id":15,"id":15,"geometry":"POINT(-7858791.923951 -3950996.982319)","attributes":{"description":"","title":"UTi - Union-Transport Chile SA","placename":"Augusto Legu\u00eda Sur 160, Las Condes, Santiago Metropolitan Region, Chile","address":"Augusto Legu\u00eda Sur 160 Of ,32, Santiago, CHILE"}},{"local_stop_id":14,"id":14,"geometry":"POINT(13524117.739918 3665214.907893)","attributes":{"description":"","title":"UTi (Shanghai) Ltd","placename":"Wusong Road, Hongkou, Shanghai, China, 200080","address":"No.268, Wusong Road, Shanghai, Shanghai, CHINA"}},{"local_stop_id":13,"id":13,"geometry":"POINT(1589633.623344 6455986.748127)","attributes":{"description":"","title":"UTi (CZ) s.r.o.","placename":"Na Radosti 399, 155 21 Prague-Zli\u010d\u00edn, Czech Republic","address":"Na Radosti 399, Praha 5, 15521, CZ, Prague      , CZECH REPUBLIC"}},{"local_stop_id":12,"id":12,"geometry":"POINT(3477143.509878 3509260.847708)","attributes":{"description":"","title":"UTi (Egypt) Ltd","placename":"Cairo, Cairo Governorate, Egypt","address":"CAIRO (AIRPORT) CARGO VILLAGE  OFFICE room 204, Cairo , EGYPT"}},{"local_stop_id":11,"id":11,"geometry":"POINT(-9929900.067038 1540609.054629)","attributes":{"description":"","title":"Consolidados Int Transit","placename":"San Salvador, El Salvador","address":"63 Ave. Norte y Ira Calle Poniente No. 175, San Salvador     , EL SALVADOR"}},{"local_stop_id":10,"id":10,"geometry":"POINT(2769571.200649 8260395.620556)","attributes":{"description":"","title":"Itella Logistics OU","placename":"Loom\u00e4e tee 13, Lehmja, 75306 Harju County, Estonia","address":"Loomae Tee 13, 75306 Rae Vald, Tallinn     , ESTONIA"}},{"local_stop_id":9,"id":9,"geometry":"POINT(19752182.016352 -2008806.331472)","attributes":{"description":"","title":"Williams & Gosling","placename":"Nadi International Airport (NAN), Nadi, Fiji","address":"Nadi Airport, Nadi, Fiji, Nadi, FIJI"}},{"local_stop_id":8,"id":8,"geometry":"POINT(19862206.583169 -2053178.601168)","attributes":{"description":"","title":"Williams & Gosling","placename":"Harris Road, Suva, Fiji","address":"80-82 Harris Road, Suva, Suva, FIJI"}},{"local_stop_id":7,"id":7,"geometry":"POINT(19753952.864548 -1993604.416597)","attributes":{"description":"","title":"Williams & Gosling","placename":"Lautoka, Fiji","address":"Lot 9, Royal Palm Road, Navutu, Lautoka, FIJI"}},{"local_stop_id":6,"id":6,"geometry":"POINT(565448.132721 5735649.718534)","attributes":{"description":"","title":"UTi France","placename":"A\u00e9roport de Lyon-Saint \u00c9xup\u00e9ry, 69125, France","address":"LYON SAINT EXUPERY AIRPORT, LYON, FRANCE"}},{"local_stop_id":5,"id":5,"geometry":"POINT(-7915899.323665 5217110.62274)","attributes":{"description":"","title":"Lemonade","placename":"Cambridge, MA, USA","address":"Cambridge, MA"}},{"local_stop_id":4,"id":4,"geometry":"POINT(-9383784.011047 4746541.20654)","attributes":{"description":"","title":"Refrigerator","placename":"123 Main Street, Milford, OH 45150, USA","address":"123 Main St."}},{"local_stop_id":3,"id":3,"geometry":"POINT(-9383784.011047 4746541.20654)","attributes":{"description":"","title":"Family","placename":"123 Main Street, Milford, OH 45150, USA","address":"123 Main St."}},{"local_stop_id":2,"id":2,"geometry":"POINT(-7954199.339938 5232378.21361)","attributes":{"description":"","title":"Lemonade Stand","placename":"Massachusetts Avenue & Main Street, Acton, MA 01720, USA","address":"Main St. & Massachusetts Ave."}},{"local_stop_id":1,"id":1,"geometry":"POINT(-7915312.937116 5215862.8232)","attributes":{"description":"","title":"Neighbors","placename":"Central Square, Cambridge, MA 02139, USA","address":"Central Square, Cambridge"}}],"hops":[{"from_stop_id":5,"to_stop_id":4,"geometry":"MULTILINESTRING((-7915899.323665 5217110.62274,-9383784.011047 4746541.20654))","attributes":{"distance":"1164.564520","title":"Lemonade to Refrigerator"}},{"from_stop_id":4,"to_stop_id":3,"geometry":"MULTILINESTRING((-9383784.011047 4746541.20654,-9383784.011047 4746541.20654))","attributes":{"distance":"0","title":"Refrigerator to Family"}},{"from_stop_id":5,"to_stop_id":2,"geometry":"MULTILINESTRING((-7915899.323665 5217110.62274,-7954199.339938 5232378.21361))","attributes":{"distance":"30.401358","title":"Lemonade to Lemonade Stand"}},{"from_stop_id":2,"to_stop_id":1,"geometry":"MULTILINESTRING((-7954199.339938 5232378.21361,-7915312.937116 5215862.8232))","attributes":{"distance":"31.153482","title":"Lemonade Stand to Neighbors"}}]},"editable":false}