{"type":"FeatureCollection","features":[{"type":"Feature","geometry":{"type":"Point","coordinates":[0,0]},"properties":{"description":"","title":"UTi Pakistan","address":"Anum Estate, Karachi, AFGHANISTAN"}},{"type":"Feature","geometry":{"type":"Point","coordinates":[3.0420480000027,36.752886999999]},"properties":{"description":"","title":"Ipsen Logistics EURL","placename":"Algiers, Algeria","address":"8 Rue Gharnata Les Sources, Bir Mourad, Alger, ALGERIA"}},{"type":"Feature","geometry":{"type":"Point","coordinates":[13.2287608,-8.8115040000032]},"properties":{"description":"","title":"Sociedade Maritima International","placename":"Avenida 4 de Fevereiro 219, Luanda, Angola","address":"Avenida 4 de Fevereiro 219, Luanda     , ANGOLA"}},{"type":"Feature","geometry":{"type":"Point","coordinates":[-58.381593099999,-34.603723200003]},"properties":{"description":"","title":"UTi Logistics Argentina S.A.","placename":"Buenos Aires, Argentina","address":"Av. Corrientes 447  7st floor, Buenos Aires, ARGENTINA"}},{"type":"Feature","geometry":{"type":"Point","coordinates":[153.082084,-27.386936]},"properties":{"description":"","title":"UTi (Aust) Pty Ltd.","placename":"3\/73 Wentworth Place, Banyo QLD 4014, Australia","address":"Units 2 and 3\/73 Wentworth Ave Banyo QLD, Brisbane, AUSTRALIA"}},{"type":"Feature","geometry":{"type":"Point","coordinates":[-123.1460682,49.1776955]},"properties":{"description":"","title":"UTi Canada Inc.","placename":"7080 River Road #123, Richmond, BC V6X, Canada","address":"7080 River Road Unit 123, Vancouver, CANADA"}},{"type":"Feature","geometry":{"type":"Point","coordinates":[-70.596729000002,-33.418586099997]},"properties":{"description":"","title":"UTi - Union-Transport Chile SA","placename":"Augusto Legu\u00eda Sur 160, Las Condes, Santiago Metropolitan Region, Chile","address":"Augusto Legu\u00eda Sur 160 Of ,32, Santiago, CHILE"}},{"type":"Feature","geometry":{"type":"Point","coordinates":[121.4892167,31.2496603]},"properties":{"description":"","title":"UTi (Shanghai) Ltd","placename":"Wusong Road, Hongkou, Shanghai, China, 200080","address":"No.268, Wusong Road, Shanghai, Shanghai, CHINA"}},{"type":"Feature","geometry":{"type":"Point","coordinates":[14.279921800002,50.056040600003]},"properties":{"description":"","title":"UTi (CZ) s.r.o.","placename":"Na Radosti 399, 155 21 Prague-Zli\u010d\u00edn, Czech Republic","address":"Na Radosti 399, Praha 5, 15521, CZ, Prague      , CZECH REPUBLIC"}},{"type":"Feature","geometry":{"type":"Point","coordinates":[31.235711600004,30.0444196]},"properties":{"description":"","title":"UTi (Egypt) Ltd","placename":"Cairo, Cairo Governorate, Egypt","address":"CAIRO (AIRPORT) CARGO VILLAGE  OFFICE room 204, Cairo , EGYPT"}},{"type":"Feature","geometry":{"type":"Point","coordinates":[-89.201809999997,13.706880999997]},"properties":{"description":"","title":"Consolidados Int Transit","placename":"San Salvador, El Salvador","address":"63 Ave. Norte y Ira Calle Poniente No. 175, San Salvador     , EL SALVADOR"}},{"type":"Feature","geometry":{"type":"Point","coordinates":[24.879481400003,59.368188099999]},"properties":{"description":"","title":"Itella Logistics OU","placename":"Loom\u00e4e tee 13, Lehmja, 75306 Harju County, Estonia","address":"Loomae Tee 13, 75306 Rae Vald, Tallinn     , ESTONIA"}},{"type":"Feature","geometry":{"type":"Point","coordinates":[177.43687,-17.754270999999]},"properties":{"description":"","title":"Williams & Gosling","placename":"Nadi International Airport (NAN), Nadi, Fiji","address":"Nadi Airport, Nadi, Fiji, Nadi, FIJI"}},{"type":"Feature","geometry":{"type":"Point","coordinates":[178.4252375,-18.1334845]},"properties":{"description":"","title":"Williams & Gosling","placename":"Harris Road, Suva, Fiji","address":"80-82 Harris Road, Suva, Suva, FIJI"}},{"type":"Feature","geometry":{"type":"Point","coordinates":[177.4527778,-17.624166700001]},"properties":{"description":"","title":"Williams & Gosling","placename":"Lautoka, Fiji","address":"Lot 9, Royal Palm Road, Navutu, Lautoka, FIJI"}},{"type":"Feature","geometry":{"type":"Point","coordinates":[5.0795070000012,45.720362000001]},"properties":{"description":"","title":"UTi France","placename":"A\u00e9roport de Lyon-Saint \u00c9xup\u00e9ry, 69125, France","address":"LYON SAINT EXUPERY AIRPORT, LYON, FRANCE"}},{"type":"Feature","geometry":{"type":"Point","coordinates":[-71.109733499997,42.373615800001]},"properties":{"description":"","title":"Lemonade","placename":"Cambridge, MA, USA","address":"Cambridge, MA"}},{"type":"Feature","geometry":{"type":"Point","coordinates":[-84.295965999999,39.1734073]},"properties":{"description":"","title":"Refrigerator","placename":"123 Main Street, Milford, OH 45150, USA","address":"123 Main St."}},{"type":"Feature","geometry":{"type":"Point","coordinates":[-84.295965999999,39.1734073]},"properties":{"description":"","title":"Family","placename":"123 Main Street, Milford, OH 45150, USA","address":"123 Main St."}},{"type":"Feature","geometry":{"type":"Point","coordinates":[-71.453788399997,42.474856600003]},"properties":{"description":"","title":"Lemonade Stand","placename":"Massachusetts Avenue & Main Street, Acton, MA 01720, USA","address":"Main St. & Massachusetts Ave."}},{"type":"Feature","geometry":{"type":"Point","coordinates":[-71.104465900003,42.365334299998]},"properties":{"description":"","title":"Neighbors","placename":"Central Square, Cambridge, MA 02139, USA","address":"Central Square, Cambridge"}},{"type":"Feature","geometry":{"type":"LineString","coordinates":[[-71.109733499997,42.373615800001],[-84.295965999999,39.1734073]]},"properties":{"distance":"1164.564520","title":"Lemonade to Refrigerator"}},{"type":"Feature","geometry":{"type":"LineString","coordinates":[[-84.295965999999,39.1734073],[-84.295965999999,39.1734073]]},"properties":{"distance":"0","title":"Refrigerator to Family"}},{"type":"Feature","geometry":{"type":"LineString","coordinates":[[-71.109733499997,42.373615800001],[-71.453788399997,42.474856600003]]},"properties":{"distance":"30.401358","title":"Lemonade to Lemonade Stand"}},{"type":"Feature","geometry":{"type":"LineString","coordinates":[[-71.453788399997,42.474856600003],[-71.104465900003,42.365334299998]]},"properties":{"distance":"31.153482","title":"Lemonade Stand to Neighbors"}}],"properties":{"sm:ui:tileset":"cloudmade","title":"test","description":"","tags":""}}