{"supplychain":{"category":null,"created":1367787443,"enable_comments":true,"flags":0,"id":5892,"modified":1367787444,"other_perms":1,"passcode":null,"user_featured":false,"usergroup_id":null,"usergroup_perms":0,"user_id":4575,"owner":{"id":4575,"name":"dbenitez","avatar":"http:\/\/free.sourcemap.com\/assets\/images\/default-user.png","banner_url":null,"display_name":null},"taxonomy":null,"attributes":{"tags":"","description":"","title":"SiembraViva"},"stops":[{"local_stop_id":8,"id":8,"geometry":"POINT(-8378368.74542 684627.019027)","attributes":{"address":"Santuario, Antioquia","placename":"Santuario, Antioquia, Colombia","title":"Zanahoria"}},{"local_stop_id":7,"id":7,"geometry":"POINT(-8530647.574934 880381.690712)","attributes":{"address":"Apartad\u00f3, Antioquia","placename":"Apartado, Antioquia, Colombia","title":"Banano"}},{"local_stop_id":6,"id":6,"geometry":"POINT(-8378368.74542 684627.019027)","attributes":{"address":"Santuario, Antioquia","placename":"Santuario, Antioquia, Colombia","title":"Cebolla"}},{"local_stop_id":5,"id":5,"geometry":"POINT(-8139894.666456 645945.579066)","attributes":{"address":"Paipa, Boyac\u00e1","placename":"Paipa, Boyaca, Colombia","title":"Papa"}},{"local_stop_id":4,"id":4,"geometry":"POINT(-8445574.88236 579780.616203)","attributes":{"address":"Bel\u00e9n de Umbria, Risaralda","placename":"Belen de Umbria, Risaralda, Colombia","title":"Platano"}},{"local_stop_id":3,"id":3,"geometry":"POINT(-8413000.795603 655938.003075)","attributes":{"address":"Santa Barbara, Antioquia","placename":"Santa Barbara, Antioquia, Colombia","title":"Mango"}},{"local_stop_id":2,"id":2,"geometry":"POINT(-8386068.302716 678469.492102)","attributes":{"address":"Carmen de Viboral, Antioquia","placename":"Carmen de Viboral, Antioquia, Colombia","title":"Mora"}},{"local_stop_id":1,"id":1,"geometry":"POINT(-8404379.32368 692907.399623)","attributes":{"address":"Santa Elena, Antioquia","placename":"Santa Elena, Antioquia, Colombia","title":"Fresas"}}],"hops":[]},"editable":false}