{"supplychain":{"category":null,"created":1370694035,"enable_comments":true,"flags":0,"id":6154,"modified":1370694036,"other_perms":1,"passcode":null,"user_featured":false,"usergroup_id":null,"usergroup_perms":0,"user_id":2731,"owner":{"id":2731,"name":"AronBlume","avatar":"http:\/\/free.sourcemap.com\/assets\/images\/default-user.png","banner_url":null,"display_name":null},"taxonomy":null,"attributes":{"tags":"","description":"","title":"Mexico Distribution"},"stops":[{"local_stop_id":99,"id":99,"geometry":"POINT(-11047098.892152 2210972.88364)","attributes":{"description":"86.57","address":"Naucalpan, Edo. de Mexico Mexico C.P. 53120","placename":"Naucalpan, Estado de M\u00e9xico, Mexico","title":"End User"}},{"local_stop_id":98,"id":98,"geometry":"POINT(-11093624.272204 2188254.091639)","attributes":{"description":"45","address":"Toluca de Lerdo Mexico 50220","placename":"Toluca, Estado de M\u00e9xico, Mexico","title":"End User"}},{"local_stop_id":97,"id":97,"geometry":"POINT(-11170106.328353 2955928.517931)","attributes":{"description":"50.8","address":"San Pedro Garza Garc\u00eda Mexico 66260","placename":"Ampliaci\u00f3n Valle del Mirador, 66260 Nuevo Le\u00f3n, Mexico","title":"End User"}},{"local_stop_id":96,"id":96,"geometry":"POINT(-11042617.414356 2194957.066046)","attributes":{"description":"315","address":"Tizapan San Angel Mexico 01090","placename":"Tizapan, \u00c1lvaro Obreg\u00f3n, 01090 Mexico City, Federal District, Mexico","title":"End User"}},{"local_stop_id":95,"id":95,"geometry":"POINT(-11042617.414356 2194957.066046)","attributes":{"description":"151.03","address":"Tizapan San Angel Mexico 01090","placename":"Tizapan, \u00c1lvaro Obreg\u00f3n, 01090 Mexico City, Federal District, Mexico","title":"End User"}},{"local_stop_id":94,"id":94,"geometry":"POINT(-11046204.005897 2191475.725089)","attributes":{"description":"45","address":"Mexico City Mexico 1090","placename":"M\u00e9xico 1090, Santa Teresa, Magdalena Contreras, 10710 Mexico City, Federal District, Mexico","title":"End User"}},{"local_stop_id":93,"id":93,"geometry":"POINT(-11043873.298587 2207073.201109)","attributes":{"description":"50.8","address":"Colonia Irrigacion Mexico DF 11500","placename":"Irrigaci\u00f3n, Base 3, Miguel Hidalgo, Mexico City, Federal District, Mexico","title":"End User"}},{"local_stop_id":92,"id":92,"geometry":"POINT(-11035458.235264 2205935.269899)","attributes":{"description":"1695.75","address":"Mexico City Mexico 11560","placename":"Mexico City, Federal District, Mexico","title":"End User"}},{"local_stop_id":91,"id":91,"geometry":"POINT(-11046204.005897 2191475.725089)","attributes":{"description":"50","address":"Mexico City Mexico 1090","placename":"M\u00e9xico 1090, Santa Teresa, Magdalena Contreras, 10710 Mexico City, Federal District, Mexico","title":"End User"}},{"local_stop_id":90,"id":90,"geometry":"POINT(-10804498.344379 2281352.706409)","attributes":{"description":"367.61","address":"Emiliano Zapata, Morelos Mexico CP 62760","placename":"Cp Gonzalo Morgado Huesca, Para\u00edso, 93603 Mart\u00ednez de La Torre, Veracruz, Mexico","title":"End User"}},{"local_stop_id":89,"id":89,"geometry":"POINT(-11036678.152167 2206053.715666)","attributes":{"description":"4283.3","address":"DF, Mexico CP Mexico 11320","placename":"Clinica Doctor Javier Dom\u00ednguez Estrada, Secretariat of Foreign Affairs, Ju\u00e1rez 20, Centro, Cuauht\u00e9moc, 06400 Mexico City, Federal District, Mexico","title":"End User"}},{"local_stop_id":88,"id":88,"geometry":"POINT(-11045160.920005 2204466.657472)","attributes":{"description":"35","address":"Mexico City MX 11000","placename":"Lomas de Chapultepec, Miguel Hidalgo, 11000 Mexico City, Federal District, Mexico","title":"End User"}},{"local_stop_id":87,"id":87,"geometry":"POINT(-11047011.194657 2214801.840522)","attributes":{"description":"203.38","address":"Naucalpan Estado de Mexico 53100","placename":"Ciudad Sat\u00e9lite, 53100 Naucalpan, Estado de M\u00e9xico, Mexico","title":"End User"}},{"local_stop_id":86,"id":86,"geometry":"POINT(-11045160.920005 2204466.657472)","attributes":{"description":"35","address":"Miguel Hidalgo MX 11000","placename":"Lomas de Chapultepec, Miguel Hidalgo, 11000 Mexico City, Federal District, Mexico","title":"End User"}},{"local_stop_id":85,"id":85,"geometry":"POINT(-11049401.702798 2214062.981727)","attributes":{"description":"59.61","address":"Naucalpan Mex Mexico 53250","placename":"Santiago Occipaco, 53250 Naucalpan, Estado de M\u00e9xico, Mexico","title":"End User"}},{"local_stop_id":84,"id":84,"geometry":"POINT(-11175351.224086 2342913.567996)","attributes":{"description":"2716.27","address":"Queretaro MEXICO 76908","placename":"Santiago de Quer\u00e9taro, Quer\u00e9taro, Mexico","title":"End User"}},{"local_stop_id":83,"id":83,"geometry":"POINT(-11047011.194657 2214801.840522)","attributes":{"description":"316.18","address":"Naucalpan Mexico 53100","placename":"Ciudad Sat\u00e9lite, 53100 Naucalpan, Estado de M\u00e9xico, Mexico","title":"End User"}},{"local_stop_id":82,"id":82,"geometry":"POINT(-11048861.858928 2152207.824401)","attributes":{"description":"45","address":"CUERNAVACA MX 62100","placename":"Torres Universidad, 62100 Cuernavaca, Morelos, Mexico","title":"End User"}},{"local_stop_id":81,"id":81,"geometry":"POINT(-11040382.809161 2201420.580839)","attributes":{"description":"50.8","address":"Ciudad de M\u00e9xico Mexico 03810","placename":"N\u00e1poles, Benito Juarez, 03810 Mexico City, Federal District, Mexico","title":"End User"}},{"local_stop_id":80,"id":80,"geometry":"POINT(-11152832.326369 2972051.531164)","attributes":{"description":"387.65","address":"Apodaca MX 66600","placename":"Apodaca, Nuevo Le\u00f3n, Mexico","title":"End User"}},{"local_stop_id":79,"id":79,"geometry":"POINT(-11046548.595381 2216392.897874)","attributes":{"address":"Tlalnepantla Mexico 54055","placename":"San Lucas Tepetlacalco, 54055 Estado de M\u00e9xico, Mexico","title":"End User"}},{"local_stop_id":78,"id":78,"geometry":"POINT(-11045160.920005 2204466.657472)","attributes":{"description":"50","address":"Mexico MX 11000","placename":"Lomas de Chapultepec, Miguel Hidalgo, 11000 Mexico City, Federal District, Mexico","title":"End User"}},{"local_stop_id":77,"id":77,"geometry":"POINT(-11049401.702798 2214062.981727)","attributes":{"description":"51","address":"Naucalpan Mexico 53250","placename":"Santiago Occipaco, 53250 Naucalpan, Estado de M\u00e9xico, Mexico","title":"End User"}},{"local_stop_id":76,"id":76,"geometry":"POINT(-11499229.883553 2347718.849365)","attributes":{"description":"50.8","address":"Guadalajara, Jalisco Mexico cp44600","placename":"C.P. Se\u00f1or San Jos\u00e9, Jos\u00e9 Luis Cuevas 45, Lomas de Tlaquepaque, 45559 JAL, Mexico","title":"End User"}},{"local_stop_id":75,"id":75,"geometry":"POINT(-11171668.664011 2960863.526925)","attributes":{"description":"101.6","address":"Monterrey M\u00e9xico 64620","placename":"Vista Hermosa, 64620 Monterrey, Nuevo Le\u00f3n, Mexico","title":"End User"}},{"local_stop_id":74,"id":74,"geometry":"POINT(-11171668.664011 2960863.526925)","attributes":{"description":"314.2","address":"Monterrey M\u00e9xico 64620","placename":"Vista Hermosa, 64620 Monterrey, Nuevo Le\u00f3n, Mexico","title":"End User"}},{"local_stop_id":73,"id":73,"geometry":"POINT(-11035458.235264 2205935.269899)","attributes":{"description":"473.42","address":"M\u00e9xico, D.F. Mexico C.P. 11510","placename":"Mexico City, Federal District, Mexico","title":"End User"}},{"local_stop_id":72,"id":72,"geometry":"POINT(-11513237.15942 2343346.958073)","attributes":{"address":"Tlaquepaque Jal Mexico 45609","placename":"Arroyo Seco, 45609 JAL, Mexico","title":"End User"}},{"local_stop_id":71,"id":71,"geometry":"POINT(-11513237.15942 2343346.958073)","attributes":{"description":"125.72","address":"Tlaquepaque Jal Mexico 45609","placename":"Arroyo Seco, 45609 JAL, Mexico","title":"End User"}},{"local_stop_id":70,"id":70,"geometry":"POINT(-11045160.920005 2204466.657472)","attributes":{"description":"50","address":"Mexico, DF MX 11000","placename":"Lomas de Chapultepec, Miguel Hidalgo, 11000 Mexico City, Federal District, Mexico","title":"End User"}},{"local_stop_id":69,"id":69,"geometry":"POINT(-11047011.194657 2214801.840522)","attributes":{"description":"911.2","address":"Naucalpan Mexico 53100","placename":"Ciudad Sat\u00e9lite, 53100 Naucalpan, Estado de M\u00e9xico, Mexico","title":"End User"}},{"local_stop_id":68,"id":68,"geometry":"POINT(-11045160.920005 2204466.657472)","attributes":{"description":"50","address":"Mexico Mexico 11000","placename":"Lomas de Chapultepec, Miguel Hidalgo, 11000 Mexico City, Federal District, Mexico","title":"End User"}},{"local_stop_id":67,"id":67,"geometry":"POINT(-11045160.920005 2204466.657472)","attributes":{"description":"50","address":"Mexico Mexico 11000","placename":"Lomas de Chapultepec, Miguel Hidalgo, 11000 Mexico City, Federal District, Mexico","title":"End User"}},{"local_stop_id":66,"id":66,"geometry":"POINT(-11045160.920005 2204466.657472)","attributes":{"description":"50","address":"M\u00e9xico MX 11000","placename":"Lomas de Chapultepec, Miguel Hidalgo, 11000 Mexico City, Federal District, Mexico","title":"End User"}},{"local_stop_id":65,"id":65,"geometry":"POINT(-11045160.920005 2204466.657472)","attributes":{"description":"50","address":"Mexico MX 11000","placename":"Lomas de Chapultepec, Miguel Hidalgo, 11000 Mexico City, Federal District, Mexico","title":"End User"}},{"local_stop_id":64,"id":64,"geometry":"POINT(-11045160.920005 2204466.657472)","attributes":{"description":"50","address":"Mexico Mexico 11000","placename":"Lomas de Chapultepec, Miguel Hidalgo, 11000 Mexico City, Federal District, Mexico","title":"End User"}},{"local_stop_id":63,"id":63,"geometry":"POINT(-11046548.595381 2216392.897874)","attributes":{"description":"65.19","address":"Tlalnepantla Mexico 54055","placename":"San Lucas Tepetlacalco, 54055 Estado de M\u00e9xico, Mexico","title":"End User"}},{"local_stop_id":62,"id":62,"geometry":"POINT(-11038379.837563 2204135.914419)","attributes":{"description":"154.52","address":"D.F. - M\u00e9xico Mexico 06700","placename":"Roma Norte, Cuauht\u00e9moc, 06700 Mexico City, Federal District, Mexico","title":"End User"}},{"local_stop_id":61,"id":61,"geometry":"POINT(-11037273.043526 2206292.48633)","attributes":{"description":"152.48","address":"Del. Cuauhtemoc Mexico 06700","placename":"Cuauht\u00e9moc, Mexico City, Federal District, Mexico","title":"End User"}},{"local_stop_id":60,"id":60,"geometry":"POINT(-11152832.326369 2972051.531164)","attributes":{"description":"113.8","address":"Apodaca Nuevo Leon Mexico 66600","placename":"Apodaca, Nuevo Le\u00f3n, Mexico","title":"End User"}},{"local_stop_id":59,"id":59,"geometry":"POINT(-11035458.235264 2205935.269899)","attributes":{"description":"113.8","address":"Mexico D.F. Mexico 11560","placename":"Mexico City, Federal District, Mexico","title":"End User"}},{"local_stop_id":58,"id":58,"geometry":"POINT(-11043388.101454 2217347.392787)","attributes":{"description":"371.82","address":"Tlalnepantla Mexico 54070","placename":"Habit.la Comunidad, 54070 Estado de M\u00e9xico, Mexico","title":"End User"}},{"local_stop_id":57,"id":57,"geometry":"POINT(-11513237.15942 2343346.958073)","attributes":{"description":"74.92","address":"Tlaquepaque Jal Mexico 45609","placename":"Arroyo Seco, 45609 JAL, Mexico","title":"End User"}},{"local_stop_id":56,"id":56,"geometry":"POINT(-11043388.101454 2217347.392787)","attributes":{"description":"50.8","address":"Tlalnepantla, Edo. de mexico Mexico 54070","placename":"Habit.la Comunidad, 54070 Estado de M\u00e9xico, Mexico","title":"End User"}},{"local_stop_id":55,"id":55,"geometry":"POINT(-11043388.101454 2217347.392787)","attributes":{"address":"Tlalnepantla, Edo. de mexico Mexico 54070","placename":"Habit.la Comunidad, 54070 Estado de M\u00e9xico, Mexico","title":"End User"}},{"local_stop_id":54,"id":54,"geometry":"POINT(-11039766.466537 2203192.181359)","attributes":{"description":"494.6","address":"Mexico, D.F. Mexico 06100","placename":"Hip\u00f3dromo, Cuauht\u00e9moc, 06100 Mexico City, Federal District, Mexico","title":"End User"}},{"local_stop_id":53,"id":53,"geometry":"POINT(-11045160.920005 2204466.657472)","attributes":{"description":"50","address":"M\u00e9xico MX 11000","placename":"Lomas de Chapultepec, Miguel Hidalgo, 11000 Mexico City, Federal District, Mexico","title":"End User"}},{"local_stop_id":52,"id":52,"geometry":"POINT(-11045160.920005 2204466.657472)","attributes":{"description":"50","address":"DF MX 11000","placename":"Lomas de Chapultepec, Miguel Hidalgo, 11000 Mexico City, Federal District, Mexico","title":"End User"}},{"local_stop_id":51,"id":51,"geometry":"POINT(-11183330.582922 2958085.844708)","attributes":{"description":"2659.6","address":"Santa Catrina MX 66350","placename":"66350 Santa Catarina, Nuevo Le\u00f3n, Mexico","title":"End User"}},{"local_stop_id":50,"id":50,"geometry":"POINT(-11171668.664011 2960863.526925)","attributes":{"description":"309.74","address":"Monterrey MX 64620","placename":"Vista Hermosa, 64620 Monterrey, Nuevo Le\u00f3n, Mexico","title":"End User"}},{"local_stop_id":49,"id":49,"geometry":"POINT(-11045931.829743 2217818.498324)","attributes":{"description":"376.35","address":"Tlanepantla MEXICO 54050","placename":"Habitacional Magisterial Vista Bella, 54050 Estado de M\u00e9xico, Mexico","title":"End User"}},{"local_stop_id":48,"id":48,"geometry":"POINT(-10804498.344379 2281352.706409)","attributes":{"description":"106.55","address":"Emiliano Zapata, Morelos Mexico CP 62760","placename":"Cp Gonzalo Morgado Huesca, Para\u00edso, 93603 Mart\u00ednez de La Torre, Veracruz, Mexico","title":"End User"}},{"local_stop_id":47,"id":47,"geometry":"POINT(-11175351.224086 2342913.567996)","attributes":{"description":"711.2","address":"Quer\u00e9taro MX 76120","placename":"Santiago de Quer\u00e9taro, Quer\u00e9taro, Mexico","title":"End User"}},{"local_stop_id":46,"id":46,"geometry":"POINT(-11039997.588063 2209179.359596)","attributes":{"description":"1371","address":"DISTRITO FEDERAL Mexico 02870","placename":"San Salvador Xochimanca, Azcapotzalco, 02870 Mexico City, Federal District, Mexico","title":"End User"}},{"local_stop_id":45,"id":45,"geometry":"POINT(-11045160.920005 2204466.657472)","attributes":{"description":"50","address":"Mexic MX 11000","placename":"Lomas de Chapultepec, Miguel Hidalgo, 11000 Mexico City, Federal District, Mexico","title":"End User"}},{"local_stop_id":44,"id":44,"geometry":"POINT(-11049401.702798 2214062.981727)","attributes":{"description":"374.92","address":"Naucalpan Mexico 53250","placename":"Santiago Occipaco, 53250 Naucalpan, Estado de M\u00e9xico, Mexico","title":"End User"}},{"local_stop_id":43,"id":43,"geometry":"POINT(-11047011.194657 2214801.840522)","attributes":{"description":"866.98","address":"Estado de Mexico Mexico 53100","placename":"Ciudad Sat\u00e9lite, 53100 Naucalpan, Estado de M\u00e9xico, Mexico","title":"End User"}},{"local_stop_id":42,"id":42,"geometry":"POINT(-11045006.753642 2197695.899511)","attributes":{"description":"50","address":"Mexico MX 01620","placename":"Mina Los Coyotes, \u00c1lvaro Obreg\u00f3n, 01620 Mexico City, Federal District, Mexico","title":"End User"}},{"local_stop_id":41,"id":41,"geometry":"POINT(-11046548.595381 2216392.897874)","attributes":{"description":"52","address":"Tlalnepantla Mexico 54055","placename":"San Lucas Tepetlacalco, 54055 Estado de M\u00e9xico, Mexico","title":"End User"}},{"local_stop_id":40,"id":40,"geometry":"POINT(-11046548.595381 2216392.897874)","attributes":{"description":"52","address":"Tlalnepantla Mexico 54055","placename":"San Lucas Tepetlacalco, 54055 Estado de M\u00e9xico, Mexico","title":"End User"}},{"local_stop_id":39,"id":39,"geometry":"POINT(-11045160.920005 2204466.657472)","attributes":{"description":"50.8","address":"Mexico MX 11000","placename":"Lomas de Chapultepec, Miguel Hidalgo, 11000 Mexico City, Federal District, Mexico","title":"End User"}},{"local_stop_id":38,"id":38,"geometry":"POINT(-11516775.783394 2357289.768516)","attributes":{"description":"907.88","address":"Zapopan Mexico 45019","placename":"Valle Real, 45019 Zapopan, JAL, Mexico","title":"End User"}},{"local_stop_id":37,"id":37,"geometry":"POINT(-10344825.323893 2036092.164879)","attributes":{"description":"127.1","address":"86130 Villahermosa, Tabasco Mexico 86130","placename":"Villahermosa, Tabasco, Mexico","title":"End User"}},{"local_stop_id":36,"id":36,"geometry":"POINT(-10344825.323893 2036092.164879)","attributes":{"description":"626.02","address":"86130 Villahermosa, Tabasco Mexico 86130","placename":"Villahermosa, Tabasco, Mexico","title":"End User"}},{"local_stop_id":35,"id":35,"geometry":"POINT(-11049016.092082 2200955.460702)","attributes":{"description":"857.43","address":"mexico Mexico DF 05120","placename":"Bosques de Las Lomas, Cuajimalpa, 05120 Mexico City, Federal District, Mexico","title":"End User"}},{"local_stop_id":34,"id":34,"geometry":"POINT(-11049016.092082 2200955.460702)","attributes":{"description":"561.94","address":"mexico Mexico DF 05120","placename":"Bosques de Las Lomas, Cuajimalpa, 05120 Mexico City, Federal District, Mexico","title":"End User"}},{"local_stop_id":33,"id":33,"geometry":"POINT(-11047011.194657 2214801.840522)","attributes":{"description":"515.93","address":"Estado de Mexico Mexico 53100","placename":"Ciudad Sat\u00e9lite, 53100 Naucalpan, Estado de M\u00e9xico, Mexico","title":"End User"}},{"local_stop_id":32,"id":32,"geometry":"POINT(-11037917.683565 2208856.291878)","attributes":{"description":"76.32","address":"Mexico City Mexico 06450","placename":"Atlampa, Cuauht\u00e9moc, 06450 Mexico City, Federal District, Mexico","title":"End User"}},{"local_stop_id":31,"id":31,"geometry":"POINT(-11043156.890872 2216924.866431)","attributes":{"description":"72.56","address":"Estado de Mexico Mexico 54073","placename":"Los Reyes(Zona Ind.), 54073 Estado de M\u00e9xico, Mexico","title":"End User"}},{"local_stop_id":30,"id":30,"geometry":"POINT(-11049401.702798 2214062.981727)","attributes":{"description":"642.3","address":"Naucalpan Mexico 53250","placename":"Santiago Occipaco, 53250 Naucalpan, Estado de M\u00e9xico, Mexico","title":"End User"}},{"local_stop_id":29,"id":29,"geometry":"POINT(-11045160.920005 2204466.657472)","attributes":{"description":"50","address":"Mexico Mexico 11000","placename":"Lomas de Chapultepec, Miguel Hidalgo, 11000 Mexico City, Federal District, Mexico","title":"End User"}},{"local_stop_id":28,"id":28,"geometry":"POINT(-11038379.837563 2204135.914419)","attributes":{"description":"1323.22","address":"Mexico, D.F. Mexico 06700","placename":"Roma Norte, Cuauht\u00e9moc, 06700 Mexico City, Federal District, Mexico","title":"End User"}},{"local_stop_id":27,"id":27,"geometry":"POINT(-11040382.809161 2205941.172102)","attributes":{"description":"152.4","address":"Mexico City Mexico 11590","placename":"Anzures, Nueva Cobertura, 11590 Mexico City, Federal District, Mexico","title":"End User"}},{"local_stop_id":26,"id":26,"geometry":"POINT(-11039997.588063 2209179.359596)","attributes":{"description":"1389.09","address":"DISTRITO FEDERAL Mexico 02870","placename":"San Salvador Xochimanca, Azcapotzalco, 02870 Mexico City, Federal District, Mexico","title":"End User"}},{"local_stop_id":25,"id":25,"geometry":"POINT(-11046548.595381 2216392.897874)","attributes":{"description":"346.82","address":"Tlalnepantla Mexico 54055","placename":"San Lucas Tepetlacalco, 54055 Estado de M\u00e9xico, Mexico","title":"End User"}},{"local_stop_id":24,"id":24,"geometry":"POINT(-11046548.595381 2216392.897874)","attributes":{"description":"50.8","address":"Tlalnepantla Mexico 54055","placename":"San Lucas Tepetlacalco, 54055 Estado de M\u00e9xico, Mexico","title":"End User"}},{"local_stop_id":23,"id":23,"geometry":"POINT(-11046548.595381 2216392.897874)","attributes":{"description":"152.4","address":"Tlalnepantla Mexico 54055","placename":"San Lucas Tepetlacalco, 54055 Estado de M\u00e9xico, Mexico","title":"End User"}},{"local_stop_id":22,"id":22,"geometry":"POINT(-11046548.595381 2216392.897874)","attributes":{"description":"71.82","address":"Tlalnepantla Mexico 54055","placename":"San Lucas Tepetlacalco, 54055 Estado de M\u00e9xico, Mexico","title":"End User"}},{"local_stop_id":21,"id":21,"geometry":"POINT(-11047011.194657 2214801.840522)","attributes":{"description":"448.75","address":"Estado de Mexico Mexico 53100","placename":"Ciudad Sat\u00e9lite, 53100 Naucalpan, Estado de M\u00e9xico, Mexico","title":"End User"}},{"local_stop_id":20,"id":20,"geometry":"POINT(-11180578.586998 2336675.01542)","attributes":{"description":"430.92","address":"Queretaro Mexico 76900","placename":"Haciendas del Pueblito, Colinas del Sur, 76900 Santiago de Quer\u00e9taro, Quer\u00e9taro, Mexico","title":"End User"}},{"local_stop_id":19,"id":19,"geometry":"POINT(-11516775.783394 2357289.768516)","attributes":{"description":"152.4","address":"Zapopan Mexico 45019","placename":"Valle Real, 45019 Zapopan, JAL, Mexico","title":"End User"}},{"local_stop_id":18,"id":18,"geometry":"POINT(-11042309.159554 2212359.855936)","attributes":{"description":"355.6","address":"AZCAPOTZALCO MEXICO 02460","placename":"La Preciosa, Azcapotzalco, 02460 Mexico City, Federal District, Mexico","title":"End User"}},{"local_stop_id":17,"id":17,"geometry":"POINT(-10804498.344379 2281352.706409)","attributes":{"description":"127.1","address":"Emiliano Zapata, Morelos Mexico CP 62760","placename":"Cp Gonzalo Morgado Huesca, Para\u00edso, 93603 Mart\u00ednez de La Torre, Veracruz, Mexico","title":"End User"}},{"local_stop_id":16,"id":16,"geometry":"POINT(-10344825.323893 2036092.164879)","attributes":{"description":"1784.54","address":"Villahermosa, Tabasco Mexico CP 86130","placename":"Villahermosa, Tabasco, Mexico","title":"End User"}},{"local_stop_id":15,"id":15,"geometry":"POINT(-11508252.406206 2359225.547322)","attributes":{"description":"346.8","address":"Guadalajara Mexico 45150","placename":"Laureles, 45150 Zapopan, JAL, Mexico","title":"End User"}},{"local_stop_id":14,"id":14,"geometry":"POINT(-11166369.1772 2958662.68714)","attributes":{"description":"45","address":"Monterrey Mexico 66260","placename":"Monterrey, Nuevo Le\u00f3n, Mexico","title":"End User"}},{"local_stop_id":13,"id":13,"geometry":"POINT(-11033644.606988 2186091.874589)","attributes":{"description":"50.8","address":"Mexico City DF Mexico 1710","placename":"M\u00e9xico 1710, Tierra Nueva, Xochimilco, 16050 Mexico City, Federal District, Mexico","title":"End User"}},{"local_stop_id":12,"id":12,"geometry":"POINT(-10804498.344379 2281352.706409)","attributes":{"description":"798.06","address":"Emiliano Zapata, Morelos Mexico CP 62760","placename":"Cp Gonzalo Morgado Huesca, Para\u00edso, 93603 Mart\u00ednez de La Torre, Veracruz, Mexico","title":"End User"}},{"local_stop_id":11,"id":11,"geometry":"POINT(-11386933.330458 2495829.605051)","attributes":{"description":"406.4","address":"Aguascalientes, Ags. Mexico 20270","placename":"M\u00e9xico, 20270 Aguascalientes, Mexico","title":"End User"}},{"local_stop_id":10,"id":10,"geometry":"POINT(-11033489.683652 2186095.424054)","attributes":{"description":"1148.41","address":"Mexico City Mexico 3100","placename":"M\u00e9xico 3100, Tierra Nueva, Xochimilco, 16050 Mexico City, Federal District, Mexico","title":"End User"}},{"local_stop_id":9,"id":9,"geometry":"POINT(-11045160.920005 2204466.657472)","attributes":{"description":"0","address":"Mexico Mexico 11000","placename":"Lomas de Chapultepec, Miguel Hidalgo, 11000 Mexico City, Federal District, Mexico","title":"End User"}},{"local_stop_id":8,"id":8,"geometry":"POINT(-10344825.323893 2036092.164879)","attributes":{"description":"629.82","address":"Villahermosa, Tabasco Mexico CP 86130","placename":"Villahermosa, Tabasco, Mexico","title":"End User"}},{"local_stop_id":7,"id":7,"geometry":"POINT(-11038345.484369 2199656.141431)","attributes":{"description":"500.72","address":"Del. Benito Juarez Mexico 03100","placename":"Benito Juarez, Mexico City, Federal District, Mexico","title":"End User"}},{"local_stop_id":6,"id":6,"geometry":"POINT(-11036993.442361 2189784.874282)","attributes":{"description":"500.72","address":"Tlalpan, CP Mexico 14370","placename":"Chimali, Tlalpan, 14370 Mexico City, Federal District, Mexico","title":"End User"}},{"local_stop_id":5,"id":5,"geometry":"POINT(-11029910.739759 2231569.957387)","attributes":{"description":"254.18","address":"Estado de Mexico Mexico 55719","placename":"Rinconada San Felipe, 55719 Coacalco, Estado de M\u00e9xico, Mexico","title":"End User"}},{"local_stop_id":4,"id":4,"geometry":"POINT(-11040305.764942 2225696.161006)","attributes":{"description":"50.8","address":"Tultitlan, CP Mexico 54958","placename":"Lomas del Parque 2da Secci\u00f3n, 54958 Buenavista, Estado de M\u00e9xico, Mexico","title":"End User"}},{"local_stop_id":3,"id":3,"geometry":"POINT(-11047011.194657 2214801.840522)","attributes":{"description":"615.8","address":"Naucalpan Mexico 53100","placename":"Ciudad Sat\u00e9lite, 53100 Naucalpan, Estado de M\u00e9xico, Mexico","title":"End User"}},{"local_stop_id":2,"id":2,"geometry":"POINT(-11047098.892152 2210972.88364)","attributes":{"address":"Naucalpan de Juarez Mexico C.P. 53250","placename":"Naucalpan, Estado de M\u00e9xico, Mexico","title":"Printed Material"}},{"local_stop_id":1,"id":1,"geometry":"POINT(-7911736.598099 5236768.617002)","attributes":{"address":"Wakefield, MA","placename":"Wakefield, MA, USA","title":"Print Order"}}],"hops":[{"from_stop_id":2,"to_stop_id":3,"geometry":"MULTILINESTRING((-11047098.892152 2210972.88364,-11047011.194657 2214801.840522))","attributes":{}},{"from_stop_id":2,"to_stop_id":4,"geometry":"MULTILINESTRING((-11047098.892152 2210972.88364,-11040305.764942 2225696.161006))","attributes":{}},{"from_stop_id":2,"to_stop_id":5,"geometry":"MULTILINESTRING((-11047098.892152 2210972.88364,-11029910.739759 2231569.957387))","attributes":{}},{"from_stop_id":2,"to_stop_id":6,"geometry":"MULTILINESTRING((-11047098.892152 2210972.88364,-11036993.442361 2189784.874282))","attributes":{}},{"from_stop_id":2,"to_stop_id":7,"geometry":"MULTILINESTRING((-11047098.892152 2210972.88364,-11038345.484369 2199656.141431))","attributes":{}},{"from_stop_id":2,"to_stop_id":8,"geometry":"MULTILINESTRING((-11047098.892152 2210972.88364,-10344825.323893 2036092.164879))","attributes":{}},{"from_stop_id":2,"to_stop_id":9,"geometry":"MULTILINESTRING((-11047098.892152 2210972.88364,-11045160.920005 2204466.657472))","attributes":{}},{"from_stop_id":2,"to_stop_id":10,"geometry":"MULTILINESTRING((-11047098.892152 2210972.88364,-11033489.683652 2186095.424054))","attributes":{}},{"from_stop_id":2,"to_stop_id":11,"geometry":"MULTILINESTRING((-11047098.892152 2210972.88364,-11386933.330458 2495829.605051))","attributes":{}},{"from_stop_id":2,"to_stop_id":12,"geometry":"MULTILINESTRING((-11047098.892152 2210972.88364,-10804498.344379 2281352.706409))","attributes":{}},{"from_stop_id":2,"to_stop_id":13,"geometry":"MULTILINESTRING((-11047098.892152 2210972.88364,-11033644.606988 2186091.874589))","attributes":{}},{"from_stop_id":2,"to_stop_id":14,"geometry":"MULTILINESTRING((-11047098.892152 2210972.88364,-11166369.1772 2958662.68714))","attributes":{}},{"from_stop_id":2,"to_stop_id":15,"geometry":"MULTILINESTRING((-11047098.892152 2210972.88364,-11508252.406206 2359225.547322))","attributes":{}},{"from_stop_id":2,"to_stop_id":16,"geometry":"MULTILINESTRING((-11047098.892152 2210972.88364,-10344825.323893 2036092.164879))","attributes":{}},{"from_stop_id":2,"to_stop_id":17,"geometry":"MULTILINESTRING((-11047098.892152 2210972.88364,-10804498.344379 2281352.706409))","attributes":{}},{"from_stop_id":2,"to_stop_id":18,"geometry":"MULTILINESTRING((-11047098.892152 2210972.88364,-11042309.159554 2212359.855936))","attributes":{}},{"from_stop_id":2,"to_stop_id":19,"geometry":"MULTILINESTRING((-11047098.892152 2210972.88364,-11516775.783394 2357289.768516))","attributes":{}},{"from_stop_id":2,"to_stop_id":20,"geometry":"MULTILINESTRING((-11047098.892152 2210972.88364,-11180578.586998 2336675.01542))","attributes":{}},{"from_stop_id":2,"to_stop_id":21,"geometry":"MULTILINESTRING((-11047098.892152 2210972.88364,-11047011.194657 2214801.840522))","attributes":{}},{"from_stop_id":2,"to_stop_id":22,"geometry":"MULTILINESTRING((-11047098.892152 2210972.88364,-11046548.595381 2216392.897874))","attributes":{}},{"from_stop_id":2,"to_stop_id":23,"geometry":"MULTILINESTRING((-11047098.892152 2210972.88364,-11046548.595381 2216392.897874))","attributes":{}},{"from_stop_id":2,"to_stop_id":24,"geometry":"MULTILINESTRING((-11047098.892152 2210972.88364,-11046548.595381 2216392.897874))","attributes":{}},{"from_stop_id":2,"to_stop_id":25,"geometry":"MULTILINESTRING((-11047098.892152 2210972.88364,-11046548.595381 2216392.897874))","attributes":{}},{"from_stop_id":2,"to_stop_id":26,"geometry":"MULTILINESTRING((-11047098.892152 2210972.88364,-11039997.588063 2209179.359596))","attributes":{}},{"from_stop_id":2,"to_stop_id":27,"geometry":"MULTILINESTRING((-11047098.892152 2210972.88364,-11040382.809161 2205941.172102))","attributes":{}},{"from_stop_id":2,"to_stop_id":28,"geometry":"MULTILINESTRING((-11047098.892152 2210972.88364,-11038379.837563 2204135.914419))","attributes":{}},{"from_stop_id":2,"to_stop_id":29,"geometry":"MULTILINESTRING((-11047098.892152 2210972.88364,-11045160.920005 2204466.657472))","attributes":{}},{"from_stop_id":2,"to_stop_id":30,"geometry":"MULTILINESTRING((-11047098.892152 2210972.88364,-11049401.702798 2214062.981727))","attributes":{}},{"from_stop_id":2,"to_stop_id":31,"geometry":"MULTILINESTRING((-11047098.892152 2210972.88364,-11043156.890872 2216924.866431))","attributes":{}},{"from_stop_id":2,"to_stop_id":32,"geometry":"MULTILINESTRING((-11047098.892152 2210972.88364,-11037917.683565 2208856.291878))","attributes":{}},{"from_stop_id":2,"to_stop_id":33,"geometry":"MULTILINESTRING((-11047098.892152 2210972.88364,-11047011.194657 2214801.840522))","attributes":{}},{"from_stop_id":2,"to_stop_id":34,"geometry":"MULTILINESTRING((-11047098.892152 2210972.88364,-11049016.092082 2200955.460702))","attributes":{}},{"from_stop_id":2,"to_stop_id":35,"geometry":"MULTILINESTRING((-11047098.892152 2210972.88364,-11049016.092082 2200955.460702))","attributes":{}},{"from_stop_id":2,"to_stop_id":36,"geometry":"MULTILINESTRING((-11047098.892152 2210972.88364,-10344825.323893 2036092.164879))","attributes":{}},{"from_stop_id":2,"to_stop_id":37,"geometry":"MULTILINESTRING((-11047098.892152 2210972.88364,-10344825.323893 2036092.164879))","attributes":{}},{"from_stop_id":2,"to_stop_id":38,"geometry":"MULTILINESTRING((-11047098.892152 2210972.88364,-11516775.783394 2357289.768516))","attributes":{}},{"from_stop_id":2,"to_stop_id":39,"geometry":"MULTILINESTRING((-11047098.892152 2210972.88364,-11045160.920005 2204466.657472))","attributes":{}},{"from_stop_id":2,"to_stop_id":40,"geometry":"MULTILINESTRING((-11047098.892152 2210972.88364,-11046548.595381 2216392.897874))","attributes":{}},{"from_stop_id":2,"to_stop_id":41,"geometry":"MULTILINESTRING((-11047098.892152 2210972.88364,-11046548.595381 2216392.897874))","attributes":{}},{"from_stop_id":2,"to_stop_id":42,"geometry":"MULTILINESTRING((-11047098.892152 2210972.88364,-11045006.753642 2197695.899511))","attributes":{}},{"from_stop_id":2,"to_stop_id":43,"geometry":"MULTILINESTRING((-11047098.892152 2210972.88364,-11047011.194657 2214801.840522))","attributes":{}},{"from_stop_id":2,"to_stop_id":44,"geometry":"MULTILINESTRING((-11047098.892152 2210972.88364,-11049401.702798 2214062.981727))","attributes":{}},{"from_stop_id":2,"to_stop_id":45,"geometry":"MULTILINESTRING((-11047098.892152 2210972.88364,-11045160.920005 2204466.657472))","attributes":{}},{"from_stop_id":2,"to_stop_id":46,"geometry":"MULTILINESTRING((-11047098.892152 2210972.88364,-11039997.588063 2209179.359596))","attributes":{}},{"from_stop_id":2,"to_stop_id":47,"geometry":"MULTILINESTRING((-11047098.892152 2210972.88364,-11175351.224086 2342913.567996))","attributes":{}},{"from_stop_id":2,"to_stop_id":48,"geometry":"MULTILINESTRING((-11047098.892152 2210972.88364,-10804498.344379 2281352.706409))","attributes":{}},{"from_stop_id":2,"to_stop_id":49,"geometry":"MULTILINESTRING((-11047098.892152 2210972.88364,-11045931.829743 2217818.498324))","attributes":{}},{"from_stop_id":2,"to_stop_id":50,"geometry":"MULTILINESTRING((-11047098.892152 2210972.88364,-11171668.664011 2960863.526925))","attributes":{}},{"from_stop_id":2,"to_stop_id":51,"geometry":"MULTILINESTRING((-11047098.892152 2210972.88364,-11183330.582922 2958085.844708))","attributes":{}},{"from_stop_id":2,"to_stop_id":52,"geometry":"MULTILINESTRING((-11047098.892152 2210972.88364,-11045160.920005 2204466.657472))","attributes":{}},{"from_stop_id":2,"to_stop_id":53,"geometry":"MULTILINESTRING((-11047098.892152 2210972.88364,-11045160.920005 2204466.657472))","attributes":{}},{"from_stop_id":2,"to_stop_id":54,"geometry":"MULTILINESTRING((-11047098.892152 2210972.88364,-11039766.466537 2203192.181359))","attributes":{}},{"from_stop_id":2,"to_stop_id":55,"geometry":"MULTILINESTRING((-11047098.892152 2210972.88364,-11043388.101454 2217347.392787))","attributes":{}},{"from_stop_id":2,"to_stop_id":56,"geometry":"MULTILINESTRING((-11047098.892152 2210972.88364,-11043388.101454 2217347.392787))","attributes":{}},{"from_stop_id":2,"to_stop_id":57,"geometry":"MULTILINESTRING((-11047098.892152 2210972.88364,-11513237.15942 2343346.958073))","attributes":{}},{"from_stop_id":2,"to_stop_id":58,"geometry":"MULTILINESTRING((-11047098.892152 2210972.88364,-11043388.101454 2217347.392787))","attributes":{}},{"from_stop_id":2,"to_stop_id":59,"geometry":"MULTILINESTRING((-11047098.892152 2210972.88364,-11035458.235264 2205935.269899))","attributes":{}},{"from_stop_id":2,"to_stop_id":60,"geometry":"MULTILINESTRING((-11047098.892152 2210972.88364,-11152832.326369 2972051.531164))","attributes":{}},{"from_stop_id":2,"to_stop_id":61,"geometry":"MULTILINESTRING((-11047098.892152 2210972.88364,-11037273.043526 2206292.48633))","attributes":{}},{"from_stop_id":2,"to_stop_id":62,"geometry":"MULTILINESTRING((-11047098.892152 2210972.88364,-11038379.837563 2204135.914419))","attributes":{}},{"from_stop_id":2,"to_stop_id":63,"geometry":"MULTILINESTRING((-11047098.892152 2210972.88364,-11046548.595381 2216392.897874))","attributes":{}},{"from_stop_id":2,"to_stop_id":64,"geometry":"MULTILINESTRING((-11047098.892152 2210972.88364,-11045160.920005 2204466.657472))","attributes":{}},{"from_stop_id":2,"to_stop_id":65,"geometry":"MULTILINESTRING((-11047098.892152 2210972.88364,-11045160.920005 2204466.657472))","attributes":{}},{"from_stop_id":2,"to_stop_id":66,"geometry":"MULTILINESTRING((-11047098.892152 2210972.88364,-11045160.920005 2204466.657472))","attributes":{}},{"from_stop_id":2,"to_stop_id":67,"geometry":"MULTILINESTRING((-11047098.892152 2210972.88364,-11045160.920005 2204466.657472))","attributes":{}},{"from_stop_id":2,"to_stop_id":68,"geometry":"MULTILINESTRING((-11047098.892152 2210972.88364,-11045160.920005 2204466.657472))","attributes":{}},{"from_stop_id":2,"to_stop_id":69,"geometry":"MULTILINESTRING((-11047098.892152 2210972.88364,-11047011.194657 2214801.840522))","attributes":{}},{"from_stop_id":2,"to_stop_id":70,"geometry":"MULTILINESTRING((-11047098.892152 2210972.88364,-11045160.920005 2204466.657472))","attributes":{}},{"from_stop_id":2,"to_stop_id":71,"geometry":"MULTILINESTRING((-11047098.892152 2210972.88364,-11513237.15942 2343346.958073))","attributes":{}},{"from_stop_id":2,"to_stop_id":72,"geometry":"MULTILINESTRING((-11047098.892152 2210972.88364,-11513237.15942 2343346.958073))","attributes":{}},{"from_stop_id":2,"to_stop_id":73,"geometry":"MULTILINESTRING((-11047098.892152 2210972.88364,-11035458.235264 2205935.269899))","attributes":{}},{"from_stop_id":2,"to_stop_id":74,"geometry":"MULTILINESTRING((-11047098.892152 2210972.88364,-11171668.664011 2960863.526925))","attributes":{}},{"from_stop_id":2,"to_stop_id":75,"geometry":"MULTILINESTRING((-11047098.892152 2210972.88364,-11171668.664011 2960863.526925))","attributes":{}},{"from_stop_id":2,"to_stop_id":76,"geometry":"MULTILINESTRING((-11047098.892152 2210972.88364,-11499229.883553 2347718.849365))","attributes":{}},{"from_stop_id":2,"to_stop_id":77,"geometry":"MULTILINESTRING((-11047098.892152 2210972.88364,-11049401.702798 2214062.981727))","attributes":{}},{"from_stop_id":2,"to_stop_id":78,"geometry":"MULTILINESTRING((-11047098.892152 2210972.88364,-11045160.920005 2204466.657472))","attributes":{}},{"from_stop_id":2,"to_stop_id":79,"geometry":"MULTILINESTRING((-11047098.892152 2210972.88364,-11046548.595381 2216392.897874))","attributes":{}},{"from_stop_id":2,"to_stop_id":80,"geometry":"MULTILINESTRING((-11047098.892152 2210972.88364,-11152832.326369 2972051.531164))","attributes":{}},{"from_stop_id":2,"to_stop_id":81,"geometry":"MULTILINESTRING((-11047098.892152 2210972.88364,-11040382.809161 2201420.580839))","attributes":{}},{"from_stop_id":2,"to_stop_id":82,"geometry":"MULTILINESTRING((-11047098.892152 2210972.88364,-11048861.858928 2152207.824401))","attributes":{}},{"from_stop_id":2,"to_stop_id":83,"geometry":"MULTILINESTRING((-11047098.892152 2210972.88364,-11047011.194657 2214801.840522))","attributes":{}},{"from_stop_id":2,"to_stop_id":84,"geometry":"MULTILINESTRING((-11047098.892152 2210972.88364,-11175351.224086 2342913.567996))","attributes":{}},{"from_stop_id":2,"to_stop_id":85,"geometry":"MULTILINESTRING((-11047098.892152 2210972.88364,-11049401.702798 2214062.981727))","attributes":{}},{"from_stop_id":2,"to_stop_id":86,"geometry":"MULTILINESTRING((-11047098.892152 2210972.88364,-11045160.920005 2204466.657472))","attributes":{}},{"from_stop_id":2,"to_stop_id":87,"geometry":"MULTILINESTRING((-11047098.892152 2210972.88364,-11047011.194657 2214801.840522))","attributes":{}},{"from_stop_id":2,"to_stop_id":88,"geometry":"MULTILINESTRING((-11047098.892152 2210972.88364,-11045160.920005 2204466.657472))","attributes":{}},{"from_stop_id":2,"to_stop_id":89,"geometry":"MULTILINESTRING((-11047098.892152 2210972.88364,-11036678.152167 2206053.715666))","attributes":{}},{"from_stop_id":2,"to_stop_id":90,"geometry":"MULTILINESTRING((-11047098.892152 2210972.88364,-10804498.344379 2281352.706409))","attributes":{}},{"from_stop_id":2,"to_stop_id":91,"geometry":"MULTILINESTRING((-11047098.892152 2210972.88364,-11046204.005897 2191475.725089))","attributes":{}},{"from_stop_id":2,"to_stop_id":92,"geometry":"MULTILINESTRING((-11047098.892152 2210972.88364,-11035458.235264 2205935.269899))","attributes":{}},{"from_stop_id":2,"to_stop_id":93,"geometry":"MULTILINESTRING((-11047098.892152 2210972.88364,-11043873.298587 2207073.201109))","attributes":{}},{"from_stop_id":2,"to_stop_id":94,"geometry":"MULTILINESTRING((-11047098.892152 2210972.88364,-11046204.005897 2191475.725089))","attributes":{}},{"from_stop_id":2,"to_stop_id":95,"geometry":"MULTILINESTRING((-11047098.892152 2210972.88364,-11042617.414356 2194957.066046))","attributes":{}},{"from_stop_id":2,"to_stop_id":96,"geometry":"MULTILINESTRING((-11047098.892152 2210972.88364,-11042617.414356 2194957.066046))","attributes":{}},{"from_stop_id":2,"to_stop_id":97,"geometry":"MULTILINESTRING((-11047098.892152 2210972.88364,-11170106.328353 2955928.517931))","attributes":{}},{"from_stop_id":2,"to_stop_id":98,"geometry":"MULTILINESTRING((-11047098.892152 2210972.88364,-11093624.272204 2188254.091639))","attributes":{}},{"from_stop_id":2,"to_stop_id":99,"geometry":"MULTILINESTRING((-11047098.892152 2210972.88364,-11047098.892152 2210972.88364))","attributes":{}}]},"editable":false}