{"type":"FeatureCollection","features":[{"type":"Feature","geometry":{"type":"Point","coordinates":[-99.2377778,19.4752778]},"properties":{"description":"86.57","address":"Naucalpan, Edo. de Mexico Mexico C.P. 53120","placename":"Naucalpan, Estado de M\u00e9xico, Mexico","title":"End User"}},{"type":"Feature","geometry":{"type":"Point","coordinates":[-99.655722400002,19.282754199998]},"properties":{"description":"45","address":"Toluca de Lerdo Mexico 50220","placename":"Toluca, Estado de M\u00e9xico, Mexico","title":"End User"}},{"type":"Feature","geometry":{"type":"Point","coordinates":[-100.3427724,25.6510721]},"properties":{"description":"50.8","address":"San Pedro Garza Garc\u00eda Mexico 66260","placename":"Ampliaci\u00f3n Valle del Mirador, 66260 Nuevo Le\u00f3n, Mexico","title":"End User"}},{"type":"Feature","geometry":{"type":"Point","coordinates":[-99.197520000004,19.339580199996]},"properties":{"description":"315","address":"Tizapan San Angel Mexico 01090","placename":"Tizapan, \u00c1lvaro Obreg\u00f3n, 01090 Mexico City, Federal District, Mexico","title":"End User"}},{"type":"Feature","geometry":{"type":"Point","coordinates":[-99.197520000004,19.339580199996]},"properties":{"description":"151.03","address":"Tizapan San Angel Mexico 01090","placename":"Tizapan, \u00c1lvaro Obreg\u00f3n, 01090 Mexico City, Federal District, Mexico","title":"End User"}},{"type":"Feature","geometry":{"type":"Point","coordinates":[-99.229738899996,19.310068799999]},"properties":{"description":"45","address":"Mexico City Mexico 1090","placename":"M\u00e9xico 1090, Santa Teresa, Magdalena Contreras, 10710 Mexico City, Federal District, Mexico","title":"End User"}},{"type":"Feature","geometry":{"type":"Point","coordinates":[-99.208801800002,19.442247299997]},"properties":{"description":"50.8","address":"Colonia Irrigacion Mexico DF 11500","placename":"Irrigaci\u00f3n, Base 3, Miguel Hidalgo, Mexico City, Federal District, Mexico","title":"End User"}},{"type":"Feature","geometry":{"type":"Point","coordinates":[-99.133208000003,19.4326077]},"properties":{"description":"1695.75","address":"Mexico City Mexico 11560","placename":"Mexico City, Federal District, Mexico","title":"End User"}},{"type":"Feature","geometry":{"type":"Point","coordinates":[-99.229738899996,19.310068799999]},"properties":{"description":"50","address":"Mexico City Mexico 1090","placename":"M\u00e9xico 1090, Santa Teresa, Magdalena Contreras, 10710 Mexico City, Federal District, Mexico","title":"End User"}},{"type":"Feature","geometry":{"type":"Point","coordinates":[-97.058459999997,20.070231800003]},"properties":{"description":"367.61","address":"Emiliano Zapata, Morelos Mexico CP 62760","placename":"Cp Gonzalo Morgado Huesca, Para\u00edso, 93603 Mart\u00ednez de La Torre, Veracruz, Mexico","title":"End User"}},{"type":"Feature","geometry":{"type":"Point","coordinates":[-99.144166699996,19.433611100003]},"properties":{"description":"4283.3","address":"DF, Mexico CP Mexico 11320","placename":"Clinica Doctor Javier Dom\u00ednguez Estrada, Secretariat of Foreign Affairs, Ju\u00e1rez 20, Centro, Cuauht\u00e9moc, 06400 Mexico City, Federal District, Mexico","title":"End User"}},{"type":"Feature","geometry":{"type":"Point","coordinates":[-99.220368700001,19.420165999996]},"properties":{"description":"35","address":"Mexico City MX 11000","placename":"Lomas de Chapultepec, Miguel Hidalgo, 11000 Mexico City, Federal District, Mexico","title":"End User"}},{"type":"Feature","geometry":{"type":"Point","coordinates":[-99.236989999998,19.507702699997]},"properties":{"description":"203.38","address":"Naucalpan Estado de Mexico 53100","placename":"Ciudad Sat\u00e9lite, 53100 Naucalpan, Estado de M\u00e9xico, Mexico","title":"End User"}},{"type":"Feature","geometry":{"type":"Point","coordinates":[-99.220368700001,19.420165999996]},"properties":{"description":"35","address":"Miguel Hidalgo MX 11000","placename":"Lomas de Chapultepec, Miguel Hidalgo, 11000 Mexico City, Federal District, Mexico","title":"End User"}},{"type":"Feature","geometry":{"type":"Point","coordinates":[-99.258464299997,19.501446299998]},"properties":{"description":"59.61","address":"Naucalpan Mex Mexico 53250","placename":"Santiago Occipaco, 53250 Naucalpan, Estado de M\u00e9xico, Mexico","title":"End User"}},{"type":"Feature","geometry":{"type":"Point","coordinates":[-100.3898881,20.5887932]},"properties":{"description":"2716.27","address":"Queretaro MEXICO 76908","placename":"Santiago de Quer\u00e9taro, Quer\u00e9taro, Mexico","title":"End User"}},{"type":"Feature","geometry":{"type":"Point","coordinates":[-99.236989999998,19.507702699997]},"properties":{"description":"316.18","address":"Naucalpan Mexico 53100","placename":"Ciudad Sat\u00e9lite, 53100 Naucalpan, Estado de M\u00e9xico, Mexico","title":"End User"}},{"type":"Feature","geometry":{"type":"Point","coordinates":[-99.253614800003,18.976826699998]},"properties":{"description":"45","address":"CUERNAVACA MX 62100","placename":"Torres Universidad, 62100 Cuernavaca, Morelos, Mexico","title":"End User"}},{"type":"Feature","geometry":{"type":"Point","coordinates":[-99.177446199997,19.394357399996]},"properties":{"description":"50.8","address":"Ciudad de M\u00e9xico Mexico 03810","placename":"N\u00e1poles, Benito Juarez, 03810 Mexico City, Federal District, Mexico","title":"End User"}},{"type":"Feature","geometry":{"type":"Point","coordinates":[-100.1875974,25.781562099997]},"properties":{"description":"387.65","address":"Apodaca MX 66600","placename":"Apodaca, Nuevo Le\u00f3n, Mexico","title":"End User"}},{"type":"Feature","geometry":{"type":"Point","coordinates":[-99.232834399998,19.521174399996]},"properties":{"address":"Tlalnepantla Mexico 54055","placename":"San Lucas Tepetlacalco, 54055 Estado de M\u00e9xico, Mexico","title":"End User"}},{"type":"Feature","geometry":{"type":"Point","coordinates":[-99.220368700001,19.420165999996]},"properties":{"description":"50","address":"Mexico MX 11000","placename":"Lomas de Chapultepec, Miguel Hidalgo, 11000 Mexico City, Federal District, Mexico","title":"End User"}},{"type":"Feature","geometry":{"type":"Point","coordinates":[-99.258464299997,19.501446299998]},"properties":{"description":"51","address":"Naucalpan Mexico 53250","placename":"Santiago Occipaco, 53250 Naucalpan, Estado de M\u00e9xico, Mexico","title":"End User"}},{"type":"Feature","geometry":{"type":"Point","coordinates":[-103.2993396,20.629197300003]},"properties":{"description":"50.8","address":"Guadalajara, Jalisco Mexico cp44600","placename":"C.P. Se\u00f1or San Jos\u00e9, Jos\u00e9 Luis Cuevas 45, Lomas de Tlaquepaque, 45559 JAL, Mexico","title":"End User"}},{"type":"Feature","geometry":{"type":"Point","coordinates":[-100.3568071,25.691028299997]},"properties":{"description":"101.6","address":"Monterrey M\u00e9xico 64620","placename":"Vista Hermosa, 64620 Monterrey, Nuevo Le\u00f3n, Mexico","title":"End User"}},{"type":"Feature","geometry":{"type":"Point","coordinates":[-100.3568071,25.691028299997]},"properties":{"description":"314.2","address":"Monterrey M\u00e9xico 64620","placename":"Vista Hermosa, 64620 Monterrey, Nuevo Le\u00f3n, Mexico","title":"End User"}},{"type":"Feature","geometry":{"type":"Point","coordinates":[-99.133208000003,19.4326077]},"properties":{"description":"473.42","address":"M\u00e9xico, D.F. Mexico C.P. 11510","placename":"Mexico City, Federal District, Mexico","title":"End User"}},{"type":"Feature","geometry":{"type":"Point","coordinates":[-103.4251691,20.592437700002]},"properties":{"address":"Tlaquepaque Jal Mexico 45609","placename":"Arroyo Seco, 45609 JAL, Mexico","title":"End User"}},{"type":"Feature","geometry":{"type":"Point","coordinates":[-103.4251691,20.592437700002]},"properties":{"description":"125.72","address":"Tlaquepaque Jal Mexico 45609","placename":"Arroyo Seco, 45609 JAL, Mexico","title":"End User"}},{"type":"Feature","geometry":{"type":"Point","coordinates":[-99.220368700001,19.420165999996]},"properties":{"description":"50","address":"Mexico, DF MX 11000","placename":"Lomas de Chapultepec, Miguel Hidalgo, 11000 Mexico City, Federal District, Mexico","title":"End User"}},{"type":"Feature","geometry":{"type":"Point","coordinates":[-99.236989999998,19.507702699997]},"properties":{"description":"911.2","address":"Naucalpan Mexico 53100","placename":"Ciudad Sat\u00e9lite, 53100 Naucalpan, Estado de M\u00e9xico, Mexico","title":"End User"}},{"type":"Feature","geometry":{"type":"Point","coordinates":[-99.220368700001,19.420165999996]},"properties":{"description":"50","address":"Mexico Mexico 11000","placename":"Lomas de Chapultepec, Miguel Hidalgo, 11000 Mexico City, Federal District, Mexico","title":"End User"}},{"type":"Feature","geometry":{"type":"Point","coordinates":[-99.220368700001,19.420165999996]},"properties":{"description":"50","address":"Mexico Mexico 11000","placename":"Lomas de Chapultepec, Miguel Hidalgo, 11000 Mexico City, Federal District, Mexico","title":"End User"}},{"type":"Feature","geometry":{"type":"Point","coordinates":[-99.220368700001,19.420165999996]},"properties":{"description":"50","address":"M\u00e9xico MX 11000","placename":"Lomas de Chapultepec, Miguel Hidalgo, 11000 Mexico City, Federal District, Mexico","title":"End User"}},{"type":"Feature","geometry":{"type":"Point","coordinates":[-99.220368700001,19.420165999996]},"properties":{"description":"50","address":"Mexico MX 11000","placename":"Lomas de Chapultepec, Miguel Hidalgo, 11000 Mexico City, Federal District, Mexico","title":"End User"}},{"type":"Feature","geometry":{"type":"Point","coordinates":[-99.220368700001,19.420165999996]},"properties":{"description":"50","address":"Mexico Mexico 11000","placename":"Lomas de Chapultepec, Miguel Hidalgo, 11000 Mexico City, Federal District, Mexico","title":"End User"}},{"type":"Feature","geometry":{"type":"Point","coordinates":[-99.232834399998,19.521174399996]},"properties":{"description":"65.19","address":"Tlalnepantla Mexico 54055","placename":"San Lucas Tepetlacalco, 54055 Estado de M\u00e9xico, Mexico","title":"End User"}},{"type":"Feature","geometry":{"type":"Point","coordinates":[-99.159453199996,19.417363900001]},"properties":{"description":"154.52","address":"D.F. - M\u00e9xico Mexico 06700","placename":"Roma Norte, Cuauht\u00e9moc, 06700 Mexico City, Federal District, Mexico","title":"End User"}},{"type":"Feature","geometry":{"type":"Point","coordinates":[-99.149510699998,19.435633800002]},"properties":{"description":"152.48","address":"Del. Cuauhtemoc Mexico 06700","placename":"Cuauht\u00e9moc, Mexico City, Federal District, Mexico","title":"End User"}},{"type":"Feature","geometry":{"type":"Point","coordinates":[-100.1875974,25.781562099997]},"properties":{"description":"113.8","address":"Apodaca Nuevo Leon Mexico 66600","placename":"Apodaca, Nuevo Le\u00f3n, Mexico","title":"End User"}},{"type":"Feature","geometry":{"type":"Point","coordinates":[-99.133208000003,19.4326077]},"properties":{"description":"113.8","address":"Mexico D.F. Mexico 11560","placename":"Mexico City, Federal District, Mexico","title":"End User"}},{"type":"Feature","geometry":{"type":"Point","coordinates":[-99.204443199998,19.529255699998]},"properties":{"description":"371.82","address":"Tlalnepantla Mexico 54070","placename":"Habit.la Comunidad, 54070 Estado de M\u00e9xico, Mexico","title":"End User"}},{"type":"Feature","geometry":{"type":"Point","coordinates":[-103.4251691,20.592437700002]},"properties":{"description":"74.92","address":"Tlaquepaque Jal Mexico 45609","placename":"Arroyo Seco, 45609 JAL, Mexico","title":"End User"}},{"type":"Feature","geometry":{"type":"Point","coordinates":[-99.204443199998,19.529255699998]},"properties":{"description":"50.8","address":"Tlalnepantla, Edo. de mexico Mexico 54070","placename":"Habit.la Comunidad, 54070 Estado de M\u00e9xico, Mexico","title":"End User"}},{"type":"Feature","geometry":{"type":"Point","coordinates":[-99.204443199998,19.529255699998]},"properties":{"address":"Tlalnepantla, Edo. de mexico Mexico 54070","placename":"Habit.la Comunidad, 54070 Estado de M\u00e9xico, Mexico","title":"End User"}},{"type":"Feature","geometry":{"type":"Point","coordinates":[-99.171909500004,19.409368199997]},"properties":{"description":"494.6","address":"Mexico, D.F. Mexico 06100","placename":"Hip\u00f3dromo, Cuauht\u00e9moc, 06100 Mexico City, Federal District, Mexico","title":"End User"}},{"type":"Feature","geometry":{"type":"Point","coordinates":[-99.220368700001,19.420165999996]},"properties":{"description":"50","address":"M\u00e9xico MX 11000","placename":"Lomas de Chapultepec, Miguel Hidalgo, 11000 Mexico City, Federal District, Mexico","title":"End User"}},{"type":"Feature","geometry":{"type":"Point","coordinates":[-99.220368700001,19.420165999996]},"properties":{"description":"50","address":"DF MX 11000","placename":"Lomas de Chapultepec, Miguel Hidalgo, 11000 Mexico City, Federal District, Mexico","title":"End User"}},{"type":"Feature","geometry":{"type":"Point","coordinates":[-100.4615679,25.668540499999]},"properties":{"description":"2659.6","address":"Santa Catrina MX 66350","placename":"66350 Santa Catarina, Nuevo Le\u00f3n, Mexico","title":"End User"}},{"type":"Feature","geometry":{"type":"Point","coordinates":[-100.3568071,25.691028299997]},"properties":{"description":"309.74","address":"Monterrey MX 64620","placename":"Vista Hermosa, 64620 Monterrey, Nuevo Le\u00f3n, Mexico","title":"End User"}},{"type":"Feature","geometry":{"type":"Point","coordinates":[-99.227293900004,19.533244199996]},"properties":{"description":"376.35","address":"Tlanepantla MEXICO 54050","placename":"Habitacional Magisterial Vista Bella, 54050 Estado de M\u00e9xico, Mexico","title":"End User"}},{"type":"Feature","geometry":{"type":"Point","coordinates":[-97.058459999997,20.070231800003]},"properties":{"description":"106.55","address":"Emiliano Zapata, Morelos Mexico CP 62760","placename":"Cp Gonzalo Morgado Huesca, Para\u00edso, 93603 Mart\u00ednez de La Torre, Veracruz, Mexico","title":"End User"}},{"type":"Feature","geometry":{"type":"Point","coordinates":[-100.3898881,20.5887932]},"properties":{"description":"711.2","address":"Quer\u00e9taro MX 76120","placename":"Santiago de Quer\u00e9taro, Quer\u00e9taro, Mexico","title":"End User"}},{"type":"Feature","geometry":{"type":"Point","coordinates":[-99.173985699996,19.460087400004]},"properties":{"description":"1371","address":"DISTRITO FEDERAL Mexico 02870","placename":"San Salvador Xochimanca, Azcapotzalco, 02870 Mexico City, Federal District, Mexico","title":"End User"}},{"type":"Feature","geometry":{"type":"Point","coordinates":[-99.220368700001,19.420165999996]},"properties":{"description":"50","address":"Mexic MX 11000","placename":"Lomas de Chapultepec, Miguel Hidalgo, 11000 Mexico City, Federal District, Mexico","title":"End User"}},{"type":"Feature","geometry":{"type":"Point","coordinates":[-99.258464299997,19.501446299998]},"properties":{"description":"374.92","address":"Naucalpan Mexico 53250","placename":"Santiago Occipaco, 53250 Naucalpan, Estado de M\u00e9xico, Mexico","title":"End User"}},{"type":"Feature","geometry":{"type":"Point","coordinates":[-99.236989999998,19.507702699997]},"properties":{"description":"866.98","address":"Estado de Mexico Mexico 53100","placename":"Ciudad Sat\u00e9lite, 53100 Naucalpan, Estado de M\u00e9xico, Mexico","title":"End User"}},{"type":"Feature","geometry":{"type":"Point","coordinates":[-99.218983799999,19.362793600002]},"properties":{"description":"50","address":"Mexico MX 01620","placename":"Mina Los Coyotes, \u00c1lvaro Obreg\u00f3n, 01620 Mexico City, Federal District, Mexico","title":"End User"}},{"type":"Feature","geometry":{"type":"Point","coordinates":[-99.232834399998,19.521174399996]},"properties":{"description":"52","address":"Tlalnepantla Mexico 54055","placename":"San Lucas Tepetlacalco, 54055 Estado de M\u00e9xico, Mexico","title":"End User"}},{"type":"Feature","geometry":{"type":"Point","coordinates":[-99.232834399998,19.521174399996]},"properties":{"description":"52","address":"Tlalnepantla Mexico 54055","placename":"San Lucas Tepetlacalco, 54055 Estado de M\u00e9xico, Mexico","title":"End User"}},{"type":"Feature","geometry":{"type":"Point","coordinates":[-99.220368700001,19.420165999996]},"properties":{"description":"50.8","address":"Mexico MX 11000","placename":"Lomas de Chapultepec, Miguel Hidalgo, 11000 Mexico City, Federal District, Mexico","title":"End User"}},{"type":"Feature","geometry":{"type":"Point","coordinates":[-103.4569571,20.709640200001]},"properties":{"description":"907.88","address":"Zapopan Mexico 45019","placename":"Valle Real, 45019 Zapopan, JAL, Mexico","title":"End User"}},{"type":"Feature","geometry":{"type":"Point","coordinates":[-92.929146999998,17.987556999998]},"properties":{"description":"127.1","address":"86130 Villahermosa, Tabasco Mexico 86130","placename":"Villahermosa, Tabasco, Mexico","title":"End User"}},{"type":"Feature","geometry":{"type":"Point","coordinates":[-92.929146999998,17.987556999998]},"properties":{"description":"626.02","address":"86130 Villahermosa, Tabasco Mexico 86130","placename":"Villahermosa, Tabasco, Mexico","title":"End User"}},{"type":"Feature","geometry":{"type":"Point","coordinates":[-99.255000299998,19.390416200002]},"properties":{"description":"857.43","address":"mexico Mexico DF 05120","placename":"Bosques de Las Lomas, Cuajimalpa, 05120 Mexico City, Federal District, Mexico","title":"End User"}},{"type":"Feature","geometry":{"type":"Point","coordinates":[-99.255000299998,19.390416200002]},"properties":{"description":"561.94","address":"mexico Mexico DF 05120","placename":"Bosques de Las Lomas, Cuajimalpa, 05120 Mexico City, Federal District, Mexico","title":"End User"}},{"type":"Feature","geometry":{"type":"Point","coordinates":[-99.236989999998,19.507702699997]},"properties":{"description":"515.93","address":"Estado de Mexico Mexico 53100","placename":"Ciudad Sat\u00e9lite, 53100 Naucalpan, Estado de M\u00e9xico, Mexico","title":"End User"}},{"type":"Feature","geometry":{"type":"Point","coordinates":[-99.155301599996,19.457350999999]},"properties":{"description":"76.32","address":"Mexico City Mexico 06450","placename":"Atlampa, Cuauht\u00e9moc, 06450 Mexico City, Federal District, Mexico","title":"End User"}},{"type":"Feature","geometry":{"type":"Point","coordinates":[-99.202366200001,19.525678400001]},"properties":{"description":"72.56","address":"Estado de Mexico Mexico 54073","placename":"Los Reyes(Zona Ind.), 54073 Estado de M\u00e9xico, Mexico","title":"End User"}},{"type":"Feature","geometry":{"type":"Point","coordinates":[-99.258464299997,19.501446299998]},"properties":{"description":"642.3","address":"Naucalpan Mexico 53250","placename":"Santiago Occipaco, 53250 Naucalpan, Estado de M\u00e9xico, Mexico","title":"End User"}},{"type":"Feature","geometry":{"type":"Point","coordinates":[-99.220368700001,19.420165999996]},"properties":{"description":"50","address":"Mexico Mexico 11000","placename":"Lomas de Chapultepec, Miguel Hidalgo, 11000 Mexico City, Federal District, Mexico","title":"End User"}},{"type":"Feature","geometry":{"type":"Point","coordinates":[-99.159453199996,19.417363900001]},"properties":{"description":"1323.22","address":"Mexico, D.F. Mexico 06700","placename":"Roma Norte, Cuauht\u00e9moc, 06700 Mexico City, Federal District, Mexico","title":"End User"}},{"type":"Feature","geometry":{"type":"Point","coordinates":[-99.177446199997,19.432657699996]},"properties":{"description":"152.4","address":"Mexico City Mexico 11590","placename":"Anzures, Nueva Cobertura, 11590 Mexico City, Federal District, Mexico","title":"End User"}},{"type":"Feature","geometry":{"type":"Point","coordinates":[-99.173985699996,19.460087400004]},"properties":{"description":"1389.09","address":"DISTRITO FEDERAL Mexico 02870","placename":"San Salvador Xochimanca, Azcapotzalco, 02870 Mexico City, Federal District, Mexico","title":"End User"}},{"type":"Feature","geometry":{"type":"Point","coordinates":[-99.232834399998,19.521174399996]},"properties":{"description":"346.82","address":"Tlalnepantla Mexico 54055","placename":"San Lucas Tepetlacalco, 54055 Estado de M\u00e9xico, Mexico","title":"End User"}},{"type":"Feature","geometry":{"type":"Point","coordinates":[-99.232834399998,19.521174399996]},"properties":{"description":"50.8","address":"Tlalnepantla Mexico 54055","placename":"San Lucas Tepetlacalco, 54055 Estado de M\u00e9xico, Mexico","title":"End User"}},{"type":"Feature","geometry":{"type":"Point","coordinates":[-99.232834399998,19.521174399996]},"properties":{"description":"152.4","address":"Tlalnepantla Mexico 54055","placename":"San Lucas Tepetlacalco, 54055 Estado de M\u00e9xico, Mexico","title":"End User"}},{"type":"Feature","geometry":{"type":"Point","coordinates":[-99.232834399998,19.521174399996]},"properties":{"description":"71.82","address":"Tlalnepantla Mexico 54055","placename":"San Lucas Tepetlacalco, 54055 Estado de M\u00e9xico, Mexico","title":"End User"}},{"type":"Feature","geometry":{"type":"Point","coordinates":[-99.236989999998,19.507702699997]},"properties":{"description":"448.75","address":"Estado de Mexico Mexico 53100","placename":"Ciudad Sat\u00e9lite, 53100 Naucalpan, Estado de M\u00e9xico, Mexico","title":"End User"}},{"type":"Feature","geometry":{"type":"Point","coordinates":[-100.4368463,20.536321799999]},"properties":{"description":"430.92","address":"Queretaro Mexico 76900","placename":"Haciendas del Pueblito, Colinas del Sur, 76900 Santiago de Quer\u00e9taro, Quer\u00e9taro, Mexico","title":"End User"}},{"type":"Feature","geometry":{"type":"Point","coordinates":[-103.4569571,20.709640200001]},"properties":{"description":"152.4","address":"Zapopan Mexico 45019","placename":"Valle Real, 45019 Zapopan, JAL, Mexico","title":"End User"}},{"type":"Feature","geometry":{"type":"Point","coordinates":[-99.194750900003,19.487023900001]},"properties":{"description":"355.6","address":"AZCAPOTZALCO MEXICO 02460","placename":"La Preciosa, Azcapotzalco, 02460 Mexico City, Federal District, Mexico","title":"End User"}},{"type":"Feature","geometry":{"type":"Point","coordinates":[-97.058459999997,20.070231800003]},"properties":{"description":"127.1","address":"Emiliano Zapata, Morelos Mexico CP 62760","placename":"Cp Gonzalo Morgado Huesca, Para\u00edso, 93603 Mart\u00ednez de La Torre, Veracruz, Mexico","title":"End User"}},{"type":"Feature","geometry":{"type":"Point","coordinates":[-92.929146999998,17.987556999998]},"properties":{"description":"1784.54","address":"Villahermosa, Tabasco Mexico CP 86130","placename":"Villahermosa, Tabasco, Mexico","title":"End User"}},{"type":"Feature","geometry":{"type":"Point","coordinates":[-103.3803903,20.725905100003]},"properties":{"description":"346.8","address":"Guadalajara Mexico 45150","placename":"Laureles, 45150 Zapopan, JAL, Mexico","title":"End User"}},{"type":"Feature","geometry":{"type":"Point","coordinates":[-100.309201,25.673210899996]},"properties":{"description":"45","address":"Monterrey Mexico 66260","placename":"Monterrey, Nuevo Le\u00f3n, Mexico","title":"End User"}},{"type":"Feature","geometry":{"type":"Point","coordinates":[-99.116915900003,19.264419300003]},"properties":{"description":"50.8","address":"Mexico City DF Mexico 1710","placename":"M\u00e9xico 1710, Tierra Nueva, Xochimilco, 16050 Mexico City, Federal District, Mexico","title":"End User"}},{"type":"Feature","geometry":{"type":"Point","coordinates":[-97.058459999997,20.070231800003]},"properties":{"description":"798.06","address":"Emiliano Zapata, Morelos Mexico CP 62760","placename":"Cp Gonzalo Morgado Huesca, Para\u00edso, 93603 Mart\u00ednez de La Torre, Veracruz, Mexico","title":"End User"}},{"type":"Feature","geometry":{"type":"Point","coordinates":[-102.2905625,21.869210399998]},"properties":{"description":"406.4","address":"Aguascalientes, Ags. Mexico 20270","placename":"M\u00e9xico, 20270 Aguascalientes, Mexico","title":"End User"}},{"type":"Feature","geometry":{"type":"Point","coordinates":[-99.115524199997,19.264449399997]},"properties":{"description":"1148.41","address":"Mexico City Mexico 3100","placename":"M\u00e9xico 3100, Tierra Nueva, Xochimilco, 16050 Mexico City, Federal District, Mexico","title":"End User"}},{"type":"Feature","geometry":{"type":"Point","coordinates":[-99.220368700001,19.420165999996]},"properties":{"description":"0","address":"Mexico Mexico 11000","placename":"Lomas de Chapultepec, Miguel Hidalgo, 11000 Mexico City, Federal District, Mexico","title":"End User"}},{"type":"Feature","geometry":{"type":"Point","coordinates":[-92.929146999998,17.987556999998]},"properties":{"description":"629.82","address":"Villahermosa, Tabasco Mexico CP 86130","placename":"Villahermosa, Tabasco, Mexico","title":"End User"}},{"type":"Feature","geometry":{"type":"Point","coordinates":[-99.159144600004,19.379405899999]},"properties":{"description":"500.72","address":"Del. Benito Juarez Mexico 03100","placename":"Benito Juarez, Mexico City, Federal District, Mexico","title":"End User"}},{"type":"Feature","geometry":{"type":"Point","coordinates":[-99.146998999998,19.2957335]},"properties":{"description":"500.72","address":"Tlalpan, CP Mexico 14370","placename":"Chimali, Tlalpan, 14370 Mexico City, Federal District, Mexico","title":"End User"}},{"type":"Feature","geometry":{"type":"Point","coordinates":[-99.083373999996,19.649624100001]},"properties":{"description":"254.18","address":"Estado de Mexico Mexico 55719","placename":"Rinconada San Felipe, 55719 Coacalco, Estado de M\u00e9xico, Mexico","title":"End User"}},{"type":"Feature","geometry":{"type":"Point","coordinates":[-99.176754100003,19.599923900003]},"properties":{"description":"50.8","address":"Tultitlan, CP Mexico 54958","placename":"Lomas del Parque 2da Secci\u00f3n, 54958 Buenavista, Estado de M\u00e9xico, Mexico","title":"End User"}},{"type":"Feature","geometry":{"type":"Point","coordinates":[-99.236989999998,19.507702699997]},"properties":{"description":"615.8","address":"Naucalpan Mexico 53100","placename":"Ciudad Sat\u00e9lite, 53100 Naucalpan, Estado de M\u00e9xico, Mexico","title":"End User"}},{"type":"Feature","geometry":{"type":"Point","coordinates":[-99.2377778,19.4752778]},"properties":{"address":"Naucalpan de Juarez Mexico C.P. 53250","placename":"Naucalpan, Estado de M\u00e9xico, Mexico","title":"Printed Material"}},{"type":"Feature","geometry":{"type":"Point","coordinates":[-71.072339100001,42.503939499999]},"properties":{"address":"Wakefield, MA","placename":"Wakefield, MA, USA","title":"Print Order"}},{"type":"Feature","geometry":{"type":"LineString","coordinates":[[-99.2377778,19.4752778],[-99.236989999998,19.507702699997]]},"properties":[]},{"type":"Feature","geometry":{"type":"LineString","coordinates":[[-99.2377778,19.4752778],[-99.176754100003,19.599923900003]]},"properties":[]},{"type":"Feature","geometry":{"type":"LineString","coordinates":[[-99.2377778,19.4752778],[-99.083373999996,19.649624100001]]},"properties":[]},{"type":"Feature","geometry":{"type":"LineString","coordinates":[[-99.2377778,19.4752778],[-99.146998999998,19.2957335]]},"properties":[]},{"type":"Feature","geometry":{"type":"LineString","coordinates":[[-99.2377778,19.4752778],[-99.159144600004,19.379405899999]]},"properties":[]},{"type":"Feature","geometry":{"type":"LineString","coordinates":[[-99.2377778,19.4752778],[-92.929146999998,17.987556999998]]},"properties":[]},{"type":"Feature","geometry":{"type":"LineString","coordinates":[[-99.2377778,19.4752778],[-99.220368700001,19.420165999996]]},"properties":[]},{"type":"Feature","geometry":{"type":"LineString","coordinates":[[-99.2377778,19.4752778],[-99.115524199997,19.264449399997]]},"properties":[]},{"type":"Feature","geometry":{"type":"LineString","coordinates":[[-99.2377778,19.4752778],[-102.2905625,21.869210399998]]},"properties":[]},{"type":"Feature","geometry":{"type":"LineString","coordinates":[[-99.2377778,19.4752778],[-97.058459999997,20.070231800003]]},"properties":[]},{"type":"Feature","geometry":{"type":"LineString","coordinates":[[-99.2377778,19.4752778],[-99.116915900003,19.264419300003]]},"properties":[]},{"type":"Feature","geometry":{"type":"LineString","coordinates":[[-99.2377778,19.4752778],[-100.309201,25.673210899996]]},"properties":[]},{"type":"Feature","geometry":{"type":"LineString","coordinates":[[-99.2377778,19.4752778],[-103.3803903,20.725905100003]]},"properties":[]},{"type":"Feature","geometry":{"type":"LineString","coordinates":[[-99.2377778,19.4752778],[-92.929146999998,17.987556999998]]},"properties":[]},{"type":"Feature","geometry":{"type":"LineString","coordinates":[[-99.2377778,19.4752778],[-97.058459999997,20.070231800003]]},"properties":[]},{"type":"Feature","geometry":{"type":"LineString","coordinates":[[-99.2377778,19.4752778],[-99.194750900003,19.487023900001]]},"properties":[]},{"type":"Feature","geometry":{"type":"LineString","coordinates":[[-99.2377778,19.4752778],[-103.4569571,20.709640200001]]},"properties":[]},{"type":"Feature","geometry":{"type":"LineString","coordinates":[[-99.2377778,19.4752778],[-100.4368463,20.536321799999]]},"properties":[]},{"type":"Feature","geometry":{"type":"LineString","coordinates":[[-99.2377778,19.4752778],[-99.236989999998,19.507702699997]]},"properties":[]},{"type":"Feature","geometry":{"type":"LineString","coordinates":[[-99.2377778,19.4752778],[-99.232834399998,19.521174399996]]},"properties":[]},{"type":"Feature","geometry":{"type":"LineString","coordinates":[[-99.2377778,19.4752778],[-99.232834399998,19.521174399996]]},"properties":[]},{"type":"Feature","geometry":{"type":"LineString","coordinates":[[-99.2377778,19.4752778],[-99.232834399998,19.521174399996]]},"properties":[]},{"type":"Feature","geometry":{"type":"LineString","coordinates":[[-99.2377778,19.4752778],[-99.232834399998,19.521174399996]]},"properties":[]},{"type":"Feature","geometry":{"type":"LineString","coordinates":[[-99.2377778,19.4752778],[-99.173985699996,19.460087400004]]},"properties":[]},{"type":"Feature","geometry":{"type":"LineString","coordinates":[[-99.2377778,19.4752778],[-99.177446199997,19.432657699996]]},"properties":[]},{"type":"Feature","geometry":{"type":"LineString","coordinates":[[-99.2377778,19.4752778],[-99.159453199996,19.417363900001]]},"properties":[]},{"type":"Feature","geometry":{"type":"LineString","coordinates":[[-99.2377778,19.4752778],[-99.220368700001,19.420165999996]]},"properties":[]},{"type":"Feature","geometry":{"type":"LineString","coordinates":[[-99.2377778,19.4752778],[-99.258464299997,19.501446299998]]},"properties":[]},{"type":"Feature","geometry":{"type":"LineString","coordinates":[[-99.2377778,19.4752778],[-99.202366200001,19.525678400001]]},"properties":[]},{"type":"Feature","geometry":{"type":"LineString","coordinates":[[-99.2377778,19.4752778],[-99.155301599996,19.457350999999]]},"properties":[]},{"type":"Feature","geometry":{"type":"LineString","coordinates":[[-99.2377778,19.4752778],[-99.236989999998,19.507702699997]]},"properties":[]},{"type":"Feature","geometry":{"type":"LineString","coordinates":[[-99.2377778,19.4752778],[-99.255000299998,19.390416200002]]},"properties":[]},{"type":"Feature","geometry":{"type":"LineString","coordinates":[[-99.2377778,19.4752778],[-99.255000299998,19.390416200002]]},"properties":[]},{"type":"Feature","geometry":{"type":"LineString","coordinates":[[-99.2377778,19.4752778],[-92.929146999998,17.987556999998]]},"properties":[]},{"type":"Feature","geometry":{"type":"LineString","coordinates":[[-99.2377778,19.4752778],[-92.929146999998,17.987556999998]]},"properties":[]},{"type":"Feature","geometry":{"type":"LineString","coordinates":[[-99.2377778,19.4752778],[-103.4569571,20.709640200001]]},"properties":[]},{"type":"Feature","geometry":{"type":"LineString","coordinates":[[-99.2377778,19.4752778],[-99.220368700001,19.420165999996]]},"properties":[]},{"type":"Feature","geometry":{"type":"LineString","coordinates":[[-99.2377778,19.4752778],[-99.232834399998,19.521174399996]]},"properties":[]},{"type":"Feature","geometry":{"type":"LineString","coordinates":[[-99.2377778,19.4752778],[-99.232834399998,19.521174399996]]},"properties":[]},{"type":"Feature","geometry":{"type":"LineString","coordinates":[[-99.2377778,19.4752778],[-99.218983799999,19.362793600002]]},"properties":[]},{"type":"Feature","geometry":{"type":"LineString","coordinates":[[-99.2377778,19.4752778],[-99.236989999998,19.507702699997]]},"properties":[]},{"type":"Feature","geometry":{"type":"LineString","coordinates":[[-99.2377778,19.4752778],[-99.258464299997,19.501446299998]]},"properties":[]},{"type":"Feature","geometry":{"type":"LineString","coordinates":[[-99.2377778,19.4752778],[-99.220368700001,19.420165999996]]},"properties":[]},{"type":"Feature","geometry":{"type":"LineString","coordinates":[[-99.2377778,19.4752778],[-99.173985699996,19.460087400004]]},"properties":[]},{"type":"Feature","geometry":{"type":"LineString","coordinates":[[-99.2377778,19.4752778],[-100.3898881,20.5887932]]},"properties":[]},{"type":"Feature","geometry":{"type":"LineString","coordinates":[[-99.2377778,19.4752778],[-97.058459999997,20.070231800003]]},"properties":[]},{"type":"Feature","geometry":{"type":"LineString","coordinates":[[-99.2377778,19.4752778],[-99.227293900004,19.533244199996]]},"properties":[]},{"type":"Feature","geometry":{"type":"LineString","coordinates":[[-99.2377778,19.4752778],[-100.3568071,25.691028299997]]},"properties":[]},{"type":"Feature","geometry":{"type":"LineString","coordinates":[[-99.2377778,19.4752778],[-100.4615679,25.668540499999]]},"properties":[]},{"type":"Feature","geometry":{"type":"LineString","coordinates":[[-99.2377778,19.4752778],[-99.220368700001,19.420165999996]]},"properties":[]},{"type":"Feature","geometry":{"type":"LineString","coordinates":[[-99.2377778,19.4752778],[-99.220368700001,19.420165999996]]},"properties":[]},{"type":"Feature","geometry":{"type":"LineString","coordinates":[[-99.2377778,19.4752778],[-99.171909500004,19.409368199997]]},"properties":[]},{"type":"Feature","geometry":{"type":"LineString","coordinates":[[-99.2377778,19.4752778],[-99.204443199998,19.529255699998]]},"properties":[]},{"type":"Feature","geometry":{"type":"LineString","coordinates":[[-99.2377778,19.4752778],[-99.204443199998,19.529255699998]]},"properties":[]},{"type":"Feature","geometry":{"type":"LineString","coordinates":[[-99.2377778,19.4752778],[-103.4251691,20.592437700002]]},"properties":[]},{"type":"Feature","geometry":{"type":"LineString","coordinates":[[-99.2377778,19.4752778],[-99.204443199998,19.529255699998]]},"properties":[]},{"type":"Feature","geometry":{"type":"LineString","coordinates":[[-99.2377778,19.4752778],[-99.133208000003,19.4326077]]},"properties":[]},{"type":"Feature","geometry":{"type":"LineString","coordinates":[[-99.2377778,19.4752778],[-100.1875974,25.781562099997]]},"properties":[]},{"type":"Feature","geometry":{"type":"LineString","coordinates":[[-99.2377778,19.4752778],[-99.149510699998,19.435633800002]]},"properties":[]},{"type":"Feature","geometry":{"type":"LineString","coordinates":[[-99.2377778,19.4752778],[-99.159453199996,19.417363900001]]},"properties":[]},{"type":"Feature","geometry":{"type":"LineString","coordinates":[[-99.2377778,19.4752778],[-99.232834399998,19.521174399996]]},"properties":[]},{"type":"Feature","geometry":{"type":"LineString","coordinates":[[-99.2377778,19.4752778],[-99.220368700001,19.420165999996]]},"properties":[]},{"type":"Feature","geometry":{"type":"LineString","coordinates":[[-99.2377778,19.4752778],[-99.220368700001,19.420165999996]]},"properties":[]},{"type":"Feature","geometry":{"type":"LineString","coordinates":[[-99.2377778,19.4752778],[-99.220368700001,19.420165999996]]},"properties":[]},{"type":"Feature","geometry":{"type":"LineString","coordinates":[[-99.2377778,19.4752778],[-99.220368700001,19.420165999996]]},"properties":[]},{"type":"Feature","geometry":{"type":"LineString","coordinates":[[-99.2377778,19.4752778],[-99.220368700001,19.420165999996]]},"properties":[]},{"type":"Feature","geometry":{"type":"LineString","coordinates":[[-99.2377778,19.4752778],[-99.236989999998,19.507702699997]]},"properties":[]},{"type":"Feature","geometry":{"type":"LineString","coordinates":[[-99.2377778,19.4752778],[-99.220368700001,19.420165999996]]},"properties":[]},{"type":"Feature","geometry":{"type":"LineString","coordinates":[[-99.2377778,19.4752778],[-103.4251691,20.592437700002]]},"properties":[]},{"type":"Feature","geometry":{"type":"LineString","coordinates":[[-99.2377778,19.4752778],[-103.4251691,20.592437700002]]},"properties":[]},{"type":"Feature","geometry":{"type":"LineString","coordinates":[[-99.2377778,19.4752778],[-99.133208000003,19.4326077]]},"properties":[]},{"type":"Feature","geometry":{"type":"LineString","coordinates":[[-99.2377778,19.4752778],[-100.3568071,25.691028299997]]},"properties":[]},{"type":"Feature","geometry":{"type":"LineString","coordinates":[[-99.2377778,19.4752778],[-100.3568071,25.691028299997]]},"properties":[]},{"type":"Feature","geometry":{"type":"LineString","coordinates":[[-99.2377778,19.4752778],[-103.2993396,20.629197300003]]},"properties":[]},{"type":"Feature","geometry":{"type":"LineString","coordinates":[[-99.2377778,19.4752778],[-99.258464299997,19.501446299998]]},"properties":[]},{"type":"Feature","geometry":{"type":"LineString","coordinates":[[-99.2377778,19.4752778],[-99.220368700001,19.420165999996]]},"properties":[]},{"type":"Feature","geometry":{"type":"LineString","coordinates":[[-99.2377778,19.4752778],[-99.232834399998,19.521174399996]]},"properties":[]},{"type":"Feature","geometry":{"type":"LineString","coordinates":[[-99.2377778,19.4752778],[-100.1875974,25.781562099997]]},"properties":[]},{"type":"Feature","geometry":{"type":"LineString","coordinates":[[-99.2377778,19.4752778],[-99.177446199997,19.394357399996]]},"properties":[]},{"type":"Feature","geometry":{"type":"LineString","coordinates":[[-99.2377778,19.4752778],[-99.253614800003,18.976826699998]]},"properties":[]},{"type":"Feature","geometry":{"type":"LineString","coordinates":[[-99.2377778,19.4752778],[-99.236989999998,19.507702699997]]},"properties":[]},{"type":"Feature","geometry":{"type":"LineString","coordinates":[[-99.2377778,19.4752778],[-100.3898881,20.5887932]]},"properties":[]},{"type":"Feature","geometry":{"type":"LineString","coordinates":[[-99.2377778,19.4752778],[-99.258464299997,19.501446299998]]},"properties":[]},{"type":"Feature","geometry":{"type":"LineString","coordinates":[[-99.2377778,19.4752778],[-99.220368700001,19.420165999996]]},"properties":[]},{"type":"Feature","geometry":{"type":"LineString","coordinates":[[-99.2377778,19.4752778],[-99.236989999998,19.507702699997]]},"properties":[]},{"type":"Feature","geometry":{"type":"LineString","coordinates":[[-99.2377778,19.4752778],[-99.220368700001,19.420165999996]]},"properties":[]},{"type":"Feature","geometry":{"type":"LineString","coordinates":[[-99.2377778,19.4752778],[-99.144166699996,19.433611100003]]},"properties":[]},{"type":"Feature","geometry":{"type":"LineString","coordinates":[[-99.2377778,19.4752778],[-97.058459999997,20.070231800003]]},"properties":[]},{"type":"Feature","geometry":{"type":"LineString","coordinates":[[-99.2377778,19.4752778],[-99.229738899996,19.310068799999]]},"properties":[]},{"type":"Feature","geometry":{"type":"LineString","coordinates":[[-99.2377778,19.4752778],[-99.133208000003,19.4326077]]},"properties":[]},{"type":"Feature","geometry":{"type":"LineString","coordinates":[[-99.2377778,19.4752778],[-99.208801800002,19.442247299997]]},"properties":[]},{"type":"Feature","geometry":{"type":"LineString","coordinates":[[-99.2377778,19.4752778],[-99.229738899996,19.310068799999]]},"properties":[]},{"type":"Feature","geometry":{"type":"LineString","coordinates":[[-99.2377778,19.4752778],[-99.197520000004,19.339580199996]]},"properties":[]},{"type":"Feature","geometry":{"type":"LineString","coordinates":[[-99.2377778,19.4752778],[-99.197520000004,19.339580199996]]},"properties":[]},{"type":"Feature","geometry":{"type":"LineString","coordinates":[[-99.2377778,19.4752778],[-100.3427724,25.6510721]]},"properties":[]},{"type":"Feature","geometry":{"type":"LineString","coordinates":[[-99.2377778,19.4752778],[-99.655722400002,19.282754199998]]},"properties":[]},{"type":"Feature","geometry":{"type":"LineString","coordinates":[[-99.2377778,19.4752778],[-99.2377778,19.4752778]]},"properties":[]}],"properties":{"tags":"","description":"","title":"Mexico Distribution"}}