{"type":"FeatureCollection","features":[{"type":"Feature","geometry":{"type":"Point","coordinates":[104.195397,35.861660000001]},"properties":{"address":"China","placename":"China","title":"332917"}},{"type":"Feature","geometry":{"type":"Point","coordinates":[4.4699360000043,50.503887000001]},"properties":{"address":"Belgium","placename":"Belgium","title":"375703"}},{"type":"Feature","geometry":{"type":"Point","coordinates":[127.766922,35.907756999999]},"properties":{"address":"South Korea","placename":"South Korea","title":"419078"}},{"type":"Feature","geometry":{"type":"Point","coordinates":[-75.015152,-9.1899670000004]},"properties":{"address":"Peru","placename":"Peru","title":"457125"}},{"type":"Feature","geometry":{"type":"Point","coordinates":[138.252924,36.204824000001]},"properties":{"address":"Japan","placename":"Japan","title":"539830"}},{"type":"Feature","geometry":{"type":"Point","coordinates":[-95.712890999999,37.090240000003]},"properties":{"address":"U.S.","placename":"United States","title":"876510"}},{"type":"Feature","geometry":{"type":"Point","coordinates":[-63.616672000003,-38.416096999997]},"properties":{"address":"Argentina","placename":"Argentina","title":"1056538"}},{"type":"Feature","geometry":{"type":"Point","coordinates":[-51.925279999999,-14.235004]},"properties":{"address":"Brazil","placename":"Brazil","title":"3030088"}},{"type":"Feature","geometry":{"type":"Point","coordinates":[-63.588652999998,-16.290154000002]},"properties":{"address":"Bolivia","placename":"Bolivia","title":"Origen"}},{"type":"Feature","geometry":{"type":"LineString","coordinates":[[-63.588652999998,-16.290154000002],[-51.925279999999,-14.235004]]},"properties":[]},{"type":"Feature","geometry":{"type":"LineString","coordinates":[[-63.588652999998,-16.290154000002],[-63.616672000003,-38.416096999997]]},"properties":[]},{"type":"Feature","geometry":{"type":"LineString","coordinates":[[-63.588652999998,-16.290154000002],[-95.712890999999,37.090240000003]]},"properties":[]},{"type":"Feature","geometry":{"type":"LineString","coordinates":[[-63.588652999998,-16.290154000002],[138.252924,36.204824000001]]},"properties":[]},{"type":"Feature","geometry":{"type":"LineString","coordinates":[[-63.588652999998,-16.290154000002],[-75.015152,-9.1899670000004]]},"properties":[]},{"type":"Feature","geometry":{"type":"LineString","coordinates":[[-63.588652999998,-16.290154000002],[127.766922,35.907756999999]]},"properties":[]},{"type":"Feature","geometry":{"type":"LineString","coordinates":[[-63.588652999998,-16.290154000002],[4.4699360000043,50.503887000001]]},"properties":[]},{"type":"Feature","geometry":{"type":"LineString","coordinates":[[-63.588652999998,-16.290154000002],[104.195397,35.861660000001]]},"properties":[]}],"properties":{"tags":"","description":"Principales exportaciones de Bolivia a los pa\u00edses de destino en 2011.","title":"Destino de las exportaciones Bolivia "}}