{"type":"FeatureCollection","features":[{"type":"Feature","geometry":{"type":"Point","coordinates":[3.3619699999976,6.5886000000008]},"properties":{"address":"6.5886,3.36197","placename":"6.5886,3.36197","title":"Consumer 5"}},{"type":"Feature","geometry":{"type":"Point","coordinates":[3.3660500000027,6.4352300000002]},"properties":{"address":"6.43523,3.36605","placename":"6.43523,3.36605","title":"Consumer 4"}},{"type":"Feature","geometry":{"type":"Point","coordinates":[3.3933300000041,6.4507100000039]},"properties":{"address":"6.45071,3.39333","placename":"6.45071,3.39333","title":"Consumer 3"}},{"type":"Feature","geometry":{"type":"Point","coordinates":[3.3620599999961,6.4382000000033]},"properties":{"address":"6.4382,3.36206","placename":"6.4382,3.36206","title":"Consumer 2"}},{"type":"Feature","geometry":{"type":"Point","coordinates":[3.4179800000037,6.4411600000004]},"properties":{"address":"6.44116,3.41798","placename":"6.44116,3.41798","title":"Consumer 1"}},{"type":"Feature","geometry":{"type":"Point","coordinates":[35.529559999999,-18.665690000002]},"properties":{"address":"-18.66569,35.52956","placename":"-18.66569,35.52956","title":"Mozambique"}},{"type":"Feature","geometry":{"type":"Point","coordinates":[18.490410000001,-22.957640000003]},"properties":{"address":"-22.95764,18.49041","placename":"-22.95764,18.49041","title":"Consumer (Nam)"}},{"type":"Feature","geometry":{"type":"Point","coordinates":[18.490410000001,-22.957640000003]},"properties":{"address":"-22.95764,18.49041","placename":"-22.95764,18.49041","title":"Namibia"}},{"type":"Feature","geometry":{"type":"Point","coordinates":[28.047305100004,-26.204102800001]},"properties":{"address":"Johannesburg, South Africa","placename":"Johannesburg, South Africa","title":"Beer"}},{"type":"Feature","geometry":{"type":"Point","coordinates":[25.569949999996,-33.932639999998]},"properties":{"address":"-33.93264,25.56995","placename":"-33.93264,25.56995","title":"Barley"}},{"type":"Feature","geometry":{"type":"Point","coordinates":[25.569949999996,-33.932639999998]},"properties":{"address":"-33.93264,25.56995","placename":"-33.93264,25.56995","title":"Malt"}},{"type":"Feature","geometry":{"type":"Point","coordinates":[19.425229999998,-34.231380000003]},"properties":{"address":"-34.23138,19.42523","placename":"-34.23138,19.42523","title":"Yeast"}},{"type":"Feature","geometry":{"type":"Point","coordinates":[19.425229999998,-34.231380000003]},"properties":{"address":"-34.23138,19.42523","placename":"-34.23138,19.42523","title":"Water"}},{"type":"Feature","geometry":{"type":"Point","coordinates":[28.047309999999,-26.204099999999]},"properties":{"address":"-26.2041,28.04731","placename":"-26.2041,28.04731","title":"Beer"}},{"type":"Feature","geometry":{"type":"LineString","coordinates":[[19.425229999998,-34.231380000003],[28.047309999999,-26.204099999999]]},"properties":[]},{"type":"Feature","geometry":{"type":"LineString","coordinates":[[19.425229999998,-34.231380000003],[28.047309999999,-26.204099999999]]},"properties":[]},{"type":"Feature","geometry":{"type":"LineString","coordinates":[[25.569949999996,-33.932639999998],[19.425229999998,-34.231380000003]]},"properties":[]},{"type":"Feature","geometry":{"type":"LineString","coordinates":[[25.569949999996,-33.932639999998],[19.425229999998,-34.231380000003]]},"properties":[]},{"type":"Feature","geometry":{"type":"LineString","coordinates":[[28.047305100004,-26.204102800001],[18.490410000001,-22.957640000003]]},"properties":[]},{"type":"Feature","geometry":{"type":"LineString","coordinates":[[18.490410000001,-22.957640000003],[18.490410000001,-22.957640000003]]},"properties":[]},{"type":"Feature","geometry":{"type":"LineString","coordinates":[[28.047305100004,-26.204102800001],[35.529559999999,-18.665690000002]]},"properties":[]},{"type":"Feature","geometry":{"type":"LineString","coordinates":[[35.529559999999,-18.665690000002],[3.4179800000037,6.4411600000004]]},"properties":[]},{"type":"Feature","geometry":{"type":"LineString","coordinates":[[35.529559999999,-18.665690000002],[3.3620599999961,6.4382000000033]]},"properties":[]},{"type":"Feature","geometry":{"type":"LineString","coordinates":[[35.529559999999,-18.665690000002],[3.3933300000041,6.4507100000039]]},"properties":[]},{"type":"Feature","geometry":{"type":"LineString","coordinates":[[35.529559999999,-18.665690000002],[3.3660500000027,6.4352300000002]]},"properties":[]},{"type":"Feature","geometry":{"type":"LineString","coordinates":[[35.529559999999,-18.665690000002],[3.3619699999976,6.5886000000008]]},"properties":[]}],"properties":{"tags":"","description":"Flow of spare parts","title":"Flow"}}