{"supplychain":{"category":19,"created":1371817109,"enable_comments":true,"flags":0,"id":6222,"modified":1371817110,"other_perms":1,"passcode":null,"user_featured":false,"usergroup_id":null,"usergroup_perms":0,"user_id":5584,"owner":{"id":5584,"name":"hanalooya","avatar":"http:\/\/free.sourcemap.com\/assets\/images\/default-user.png","banner_url":null,"display_name":null},"taxonomy":[{"description":"Test Maps","id":19,"left":35,"name":"test-maps","right":36,"title":"Test Maps "}],"attributes":{"tags":"","description":"World Exports","title":"Fertilizers-Phosphate"},"stops":[{"local_stop_id":16,"id":16,"geometry":"POINT(-5780295.728898 -1601191.813438)","attributes":{"address":"Brazil","placename":"Brazil","title":"Farmers"}},{"local_stop_id":15,"id":15,"geometry":"POINT(5018189.359227 2739515.791932)","attributes":{"address":"Saudi Arabia","placename":"Saudi Arabia","title":"Warehouses"}},{"local_stop_id":14,"id":14,"geometry":"POINT(8790107.59317 2343495.165705)","attributes":{"address":"India","placename":"India","title":"Farmers"}},{"local_stop_id":13,"id":13,"geometry":"POINT(-789546.84679 3735999.22766)","attributes":{"address":"Morocco","placename":"Morocco","title":"Warehouses"}},{"local_stop_id":12,"id":12,"geometry":"POINT(184748.721227 3253246.71111)","attributes":{"address":"Algeria","placename":"Algeria","title":"Rock Phosphate"}},{"local_stop_id":11,"id":11,"geometry":"POINT(4341105.588359 4137016.351319)","attributes":{"address":"Syria","placename":"Syria","title":"Rock Phosphate"}},{"local_stop_id":10,"id":10,"geometry":"POINT(3428918.392521 3101070.050794)","attributes":{"address":"Egypt","placename":"Egypt","title":"Rock Phosphate"}},{"local_stop_id":9,"id":9,"geometry":"POINT(4034041.793636 3578991.172208)","attributes":{"address":"Jordan","placename":"Jordan","title":"Rock Phosphate"}},{"local_stop_id":8,"id":8,"geometry":"POINT(-789546.84679 3735999.22766)","attributes":{"address":"Morocco","placename":"Morocco","title":"Rock Phosphate"}},{"local_stop_id":7,"id":7,"geometry":"POINT(4034041.793636 3578991.172208)","attributes":{"address":"Jordan","placename":"Jordan","title":"Phosphoric Acid"}},{"local_stop_id":6,"id":6,"geometry":"POINT(1131669.490625 4413881.240332)","attributes":{"address":"Tunis","placename":"Tunis, Tunisia","title":"Phosphoric Acid"}},{"local_stop_id":5,"id":5,"geometry":"POINT(-789546.84679 3735999.22766)","attributes":{"address":"Morocco","placename":"Morocco","title":"Phosphoric Acid"}},{"local_stop_id":4,"id":4,"geometry":"POINT(4034041.793636 3578991.172208)","attributes":{"address":"Jordan","placename":"Jordan","title":"Fertilizer- Phosphorous and phosphatic fertilizers"}},{"local_stop_id":3,"id":3,"geometry":"POINT(1131669.490625 4413881.240332)","attributes":{"address":"Tunis","placename":"Tunis, Tunisia","title":"Fertilizer- Phosphorous and phosphatic fertilizers"}},{"local_stop_id":2,"id":2,"geometry":"POINT(5018189.359227 2739515.791932)","attributes":{"address":"Saudi Arabia","placename":"Saudi Arabia","title":"Fertilizer- Phosphorous and phosphatic fertilizers"}},{"local_stop_id":1,"id":1,"geometry":"POINT(-789546.84679 3735999.22766)","attributes":{"address":"Morocco","placename":"Morocco","title":"Fertilizer- Phosphorous and phosphatic fertilizers"}}],"hops":[{"from_stop_id":5,"to_stop_id":4,"geometry":"MULTILINESTRING((-789546.84679 3735999.22766,4034041.793636 3578991.172208))","attributes":{}},{"from_stop_id":6,"to_stop_id":4,"geometry":"MULTILINESTRING((1131669.490625 4413881.240332,4034041.793636 3578991.172208))","attributes":{}},{"from_stop_id":7,"to_stop_id":4,"geometry":"MULTILINESTRING((4034041.793636 3578991.172208,4034041.793636 3578991.172208))","attributes":{}},{"from_stop_id":8,"to_stop_id":7,"geometry":"MULTILINESTRING((-789546.84679 3735999.22766,4034041.793636 3578991.172208))","attributes":{}},{"from_stop_id":9,"to_stop_id":7,"geometry":"MULTILINESTRING((4034041.793636 3578991.172208,4034041.793636 3578991.172208))","attributes":{}},{"from_stop_id":10,"to_stop_id":7,"geometry":"MULTILINESTRING((3428918.392521 3101070.050794,4034041.793636 3578991.172208))","attributes":{}},{"from_stop_id":11,"to_stop_id":7,"geometry":"MULTILINESTRING((4341105.588359 4137016.351319,4034041.793636 3578991.172208))","attributes":{}},{"from_stop_id":12,"to_stop_id":7,"geometry":"MULTILINESTRING((184748.721227 3253246.71111,4034041.793636 3578991.172208))","attributes":{}},{"from_stop_id":1,"to_stop_id":13,"geometry":"MULTILINESTRING((-789546.84679 3735999.22766,-789546.84679 3735999.22766))","attributes":{}},{"from_stop_id":13,"to_stop_id":14,"geometry":"MULTILINESTRING((-789546.84679 3735999.22766,8790107.59317 2343495.165705))","attributes":{}},{"from_stop_id":1,"to_stop_id":15,"geometry":"MULTILINESTRING((-789546.84679 3735999.22766,5018189.359227 2739515.791932))","attributes":{}},{"from_stop_id":15,"to_stop_id":16,"geometry":"MULTILINESTRING((5018189.359227 2739515.791932,-5780295.728898 -1601191.813438))","attributes":{}}]},"editable":false}