{"type":"FeatureCollection","features":[{"type":"Feature","geometry":{"type":"Point","coordinates":[-51.925279999999,-14.235004]},"properties":{"address":"Brazil","placename":"Brazil","title":"Farmers"}},{"type":"Feature","geometry":{"type":"Point","coordinates":[45.079161999996,23.885942]},"properties":{"address":"Saudi Arabia","placename":"Saudi Arabia","title":"Warehouses"}},{"type":"Feature","geometry":{"type":"Point","coordinates":[78.962879999997,20.593684000004]},"properties":{"address":"India","placename":"India","title":"Farmers"}},{"type":"Feature","geometry":{"type":"Point","coordinates":[-7.0926199999983,31.791702]},"properties":{"address":"Morocco","placename":"Morocco","title":"Warehouses"}},{"type":"Feature","geometry":{"type":"Point","coordinates":[1.6596259999975,28.033885999997]},"properties":{"address":"Algeria","placename":"Algeria","title":"Rock Phosphate"}},{"type":"Feature","geometry":{"type":"Point","coordinates":[38.996814999996,34.802074999999]},"properties":{"address":"Syria","placename":"Syria","title":"Rock Phosphate"}},{"type":"Feature","geometry":{"type":"Point","coordinates":[30.802498000002,26.820553000001]},"properties":{"address":"Egypt","placename":"Egypt","title":"Rock Phosphate"}},{"type":"Feature","geometry":{"type":"Point","coordinates":[36.238414000001,30.585164000002]},"properties":{"address":"Jordan","placename":"Jordan","title":"Rock Phosphate"}},{"type":"Feature","geometry":{"type":"Point","coordinates":[-7.0926199999983,31.791702]},"properties":{"address":"Morocco","placename":"Morocco","title":"Rock Phosphate"}},{"type":"Feature","geometry":{"type":"Point","coordinates":[36.238414000001,30.585164000002]},"properties":{"address":"Jordan","placename":"Jordan","title":"Phosphoric Acid"}},{"type":"Feature","geometry":{"type":"Point","coordinates":[10.165960000002,36.81881]},"properties":{"address":"Tunis","placename":"Tunis, Tunisia","title":"Phosphoric Acid"}},{"type":"Feature","geometry":{"type":"Point","coordinates":[-7.0926199999983,31.791702]},"properties":{"address":"Morocco","placename":"Morocco","title":"Phosphoric Acid"}},{"type":"Feature","geometry":{"type":"Point","coordinates":[36.238414000001,30.585164000002]},"properties":{"address":"Jordan","placename":"Jordan","title":"Fertilizer- Phosphorous and phosphatic fertilizers"}},{"type":"Feature","geometry":{"type":"Point","coordinates":[10.165960000002,36.81881]},"properties":{"address":"Tunis","placename":"Tunis, Tunisia","title":"Fertilizer- Phosphorous and phosphatic fertilizers"}},{"type":"Feature","geometry":{"type":"Point","coordinates":[45.079161999996,23.885942]},"properties":{"address":"Saudi Arabia","placename":"Saudi Arabia","title":"Fertilizer- Phosphorous and phosphatic fertilizers"}},{"type":"Feature","geometry":{"type":"Point","coordinates":[-7.0926199999983,31.791702]},"properties":{"address":"Morocco","placename":"Morocco","title":"Fertilizer- Phosphorous and phosphatic fertilizers"}},{"type":"Feature","geometry":{"type":"LineString","coordinates":[[-7.0926199999983,31.791702],[36.238414000001,30.585164000002]]},"properties":[]},{"type":"Feature","geometry":{"type":"LineString","coordinates":[[10.165960000002,36.81881],[36.238414000001,30.585164000002]]},"properties":[]},{"type":"Feature","geometry":{"type":"LineString","coordinates":[[36.238414000001,30.585164000002],[36.238414000001,30.585164000002]]},"properties":[]},{"type":"Feature","geometry":{"type":"LineString","coordinates":[[-7.0926199999983,31.791702],[36.238414000001,30.585164000002]]},"properties":[]},{"type":"Feature","geometry":{"type":"LineString","coordinates":[[36.238414000001,30.585164000002],[36.238414000001,30.585164000002]]},"properties":[]},{"type":"Feature","geometry":{"type":"LineString","coordinates":[[30.802498000002,26.820553000001],[36.238414000001,30.585164000002]]},"properties":[]},{"type":"Feature","geometry":{"type":"LineString","coordinates":[[38.996814999996,34.802074999999],[36.238414000001,30.585164000002]]},"properties":[]},{"type":"Feature","geometry":{"type":"LineString","coordinates":[[1.6596259999975,28.033885999997],[36.238414000001,30.585164000002]]},"properties":[]},{"type":"Feature","geometry":{"type":"LineString","coordinates":[[-7.0926199999983,31.791702],[-7.0926199999983,31.791702]]},"properties":[]},{"type":"Feature","geometry":{"type":"LineString","coordinates":[[-7.0926199999983,31.791702],[78.962879999997,20.593684000004]]},"properties":[]},{"type":"Feature","geometry":{"type":"LineString","coordinates":[[-7.0926199999983,31.791702],[45.079161999996,23.885942]]},"properties":[]},{"type":"Feature","geometry":{"type":"LineString","coordinates":[[45.079161999996,23.885942],[-51.925279999999,-14.235004]]},"properties":[]}],"properties":{"tags":"","description":"World Exports","title":"Fertilizers-Phosphate"}}