{"type":"FeatureCollection","features":[{"type":"Feature","geometry":{"type":"Point","coordinates":[69.345115999996,30.375321000001]},"properties":{"address":"Pakistan","placename":"Pakistan","title":"Farmers"}},{"type":"Feature","geometry":{"type":"Point","coordinates":[90.356330999996,23.684993999998]},"properties":{"address":"Bangladesh","placename":"Bangladesh","title":"Farmers"}},{"type":"Feature","geometry":{"type":"Point","coordinates":[-95.712890999999,37.090240000003]},"properties":{"address":"United States","placename":"United States","title":"Farmers"}},{"type":"Feature","geometry":{"type":"Point","coordinates":[2.2137489999989,46.227638]},"properties":{"address":"France","placename":"France","title":"Farmers"}},{"type":"Feature","geometry":{"type":"Point","coordinates":[12.567380000004,41.871939999999]},"properties":{"address":"Italy","placename":"Italy","title":"Farmers"}},{"type":"Feature","geometry":{"type":"Point","coordinates":[35.243321999997,38.963745000001]},"properties":{"address":"Turkey","placename":"Turkey","title":"Farmers"}},{"type":"Feature","geometry":{"type":"Point","coordinates":[45.079161999996,23.885942]},"properties":{"address":"Saudi Arabia","placename":"Saudi Arabia","title":"Farmers"}},{"type":"Feature","geometry":{"type":"Point","coordinates":[38.996814999996,34.802074999999]},"properties":{"address":"Syria","placename":"Syria","title":"Farmers"}},{"type":"Feature","geometry":{"type":"Point","coordinates":[35.862284999998,33.854721000002]},"properties":{"address":"Lebanon","placename":"Lebanon","title":"Farmers"}},{"type":"Feature","geometry":{"type":"Point","coordinates":[30.802498000002,26.820553000001]},"properties":{"address":"Egypt","placename":"Egypt","title":"Farmers"}},{"type":"Feature","geometry":{"type":"Point","coordinates":[43.679290999998,33.223191000003]},"properties":{"address":"Iraq","placename":"Iraq","title":"Farmers"}},{"type":"Feature","geometry":{"type":"Point","coordinates":[104.195397,35.861660000001]},"properties":{"address":"China","placename":"China","title":"Farmers"}},{"type":"Feature","geometry":{"type":"Point","coordinates":[100.992541,15.870032]},"properties":{"address":"Thailand","placename":"Thailand","title":"Farmers"}},{"type":"Feature","geometry":{"type":"Point","coordinates":[-95.712890999999,37.090240000003]},"properties":{"address":"United States","placename":"United States","title":"Farmers"}},{"type":"Feature","geometry":{"type":"Point","coordinates":[104.195397,35.861660000001]},"properties":{"address":"China","placename":"China","title":"Farmers"}},{"type":"Feature","geometry":{"type":"Point","coordinates":[12.567380000004,41.871939999999]},"properties":{"address":"Italy","placename":"Italy","title":"Farmers"}},{"type":"Feature","geometry":{"type":"Point","coordinates":[2.2137489999989,46.227638]},"properties":{"address":"France","placename":"France","title":"Farmers"}},{"type":"Feature","geometry":{"type":"Point","coordinates":[-51.925279999999,-14.235004]},"properties":{"address":"Brazil","placename":"Brazil","title":"Farmers"}},{"type":"Feature","geometry":{"type":"Point","coordinates":[78.962879999997,20.593684000004]},"properties":{"address":"India","placename":"India","title":"Farmers"}},{"type":"Feature","geometry":{"type":"Point","coordinates":[1.6596259999975,28.033885999997]},"properties":{"address":"Algeria","placename":"Algeria","title":"Rock Phosphate"}},{"type":"Feature","geometry":{"type":"Point","coordinates":[38.996814999996,34.802074999999]},"properties":{"address":"Syria","placename":"Syria","title":"Rock Phosphate"}},{"type":"Feature","geometry":{"type":"Point","coordinates":[30.802498000002,26.820553000001]},"properties":{"address":"Egypt","placename":"Egypt","title":"Rock Phosphate"}},{"type":"Feature","geometry":{"type":"Point","coordinates":[36.238414000001,30.585164000002]},"properties":{"address":"Jordan","placename":"Jordan","title":"Rock Phosphate"}},{"type":"Feature","geometry":{"type":"Point","coordinates":[-7.0926199999983,31.791702]},"properties":{"address":"Morocco","placename":"Morocco","title":"Rock Phosphate"}},{"type":"Feature","geometry":{"type":"Point","coordinates":[36.238414000001,30.585164000002]},"properties":{"address":"Jordan","placename":"Jordan","title":"Phosphoric Acid"}},{"type":"Feature","geometry":{"type":"Point","coordinates":[10.165960000002,36.81881]},"properties":{"address":"Tunis","placename":"Tunis, Tunisia","title":"Phosphoric Acid"}},{"type":"Feature","geometry":{"type":"Point","coordinates":[-7.0926199999983,31.791702]},"properties":{"address":"Morocco","placename":"Morocco","title":"Phosphoric Acid"}},{"type":"Feature","geometry":{"type":"Point","coordinates":[36.238414000001,30.585164000002]},"properties":{"address":"Jordan","placename":"Jordan","title":"Fertilizer- Phosphorous and phosphatic fertilizers"}},{"type":"Feature","geometry":{"type":"Point","coordinates":[10.165960000002,36.81881]},"properties":{"address":"Tunis","placename":"Tunis, Tunisia","title":"Fertilizer- Phosphorous and phosphatic fertilizers"}},{"type":"Feature","geometry":{"type":"Point","coordinates":[45.079161999996,23.885942]},"properties":{"address":"Saudi Arabia","placename":"Saudi Arabia","title":"Fertilizer- Phosphorous and phosphatic fertilizers"}},{"type":"Feature","geometry":{"type":"Point","coordinates":[-7.0926199999983,31.791702]},"properties":{"address":"Morocco","placename":"Morocco","title":"Fertilizer- Phosphorous and phosphatic fertilizers"}},{"type":"Feature","geometry":{"type":"LineString","coordinates":[[-7.0926199999983,31.791702],[36.238414000001,30.585164000002]]},"properties":[]},{"type":"Feature","geometry":{"type":"LineString","coordinates":[[10.165960000002,36.81881],[36.238414000001,30.585164000002]]},"properties":[]},{"type":"Feature","geometry":{"type":"LineString","coordinates":[[36.238414000001,30.585164000002],[36.238414000001,30.585164000002]]},"properties":[]},{"type":"Feature","geometry":{"type":"LineString","coordinates":[[-7.0926199999983,31.791702],[36.238414000001,30.585164000002]]},"properties":[]},{"type":"Feature","geometry":{"type":"LineString","coordinates":[[36.238414000001,30.585164000002],[36.238414000001,30.585164000002]]},"properties":[]},{"type":"Feature","geometry":{"type":"LineString","coordinates":[[30.802498000002,26.820553000001],[36.238414000001,30.585164000002]]},"properties":[]},{"type":"Feature","geometry":{"type":"LineString","coordinates":[[38.996814999996,34.802074999999],[36.238414000001,30.585164000002]]},"properties":[]},{"type":"Feature","geometry":{"type":"LineString","coordinates":[[1.6596259999975,28.033885999997],[36.238414000001,30.585164000002]]},"properties":[]},{"type":"Feature","geometry":{"type":"LineString","coordinates":[[-7.0926199999983,31.791702],[78.962879999997,20.593684000004]]},"properties":[]},{"type":"Feature","geometry":{"type":"LineString","coordinates":[[-7.0926199999983,31.791702],[-51.925279999999,-14.235004]]},"properties":[]},{"type":"Feature","geometry":{"type":"LineString","coordinates":[[-7.0926199999983,31.791702],[2.2137489999989,46.227638]]},"properties":[]},{"type":"Feature","geometry":{"type":"LineString","coordinates":[[-7.0926199999983,31.791702],[12.567380000004,41.871939999999]]},"properties":[]},{"type":"Feature","geometry":{"type":"LineString","coordinates":[[-7.0926199999983,31.791702],[104.195397,35.861660000001]]},"properties":[]},{"type":"Feature","geometry":{"type":"LineString","coordinates":[[-7.0926199999983,31.791702],[-95.712890999999,37.090240000003]]},"properties":[]},{"type":"Feature","geometry":{"type":"LineString","coordinates":[[-7.0926199999983,31.791702],[100.992541,15.870032]]},"properties":[]},{"type":"Feature","geometry":{"type":"LineString","coordinates":[[45.079161999996,23.885942],[104.195397,35.861660000001]]},"properties":[]},{"type":"Feature","geometry":{"type":"LineString","coordinates":[[36.238414000001,30.585164000002],[43.679290999998,33.223191000003]]},"properties":[]},{"type":"Feature","geometry":{"type":"LineString","coordinates":[[36.238414000001,30.585164000002],[30.802498000002,26.820553000001]]},"properties":[]},{"type":"Feature","geometry":{"type":"LineString","coordinates":[[36.238414000001,30.585164000002],[35.862284999998,33.854721000002]]},"properties":[]},{"type":"Feature","geometry":{"type":"LineString","coordinates":[[36.238414000001,30.585164000002],[38.996814999996,34.802074999999]]},"properties":[]},{"type":"Feature","geometry":{"type":"LineString","coordinates":[[36.238414000001,30.585164000002],[45.079161999996,23.885942]]},"properties":[]},{"type":"Feature","geometry":{"type":"LineString","coordinates":[[10.165960000002,36.81881],[35.243321999997,38.963745000001]]},"properties":[]},{"type":"Feature","geometry":{"type":"LineString","coordinates":[[10.165960000002,36.81881],[12.567380000004,41.871939999999]]},"properties":[]},{"type":"Feature","geometry":{"type":"LineString","coordinates":[[10.165960000002,36.81881],[2.2137489999989,46.227638]]},"properties":[]},{"type":"Feature","geometry":{"type":"LineString","coordinates":[[10.165960000002,36.81881],[-95.712890999999,37.090240000003]]},"properties":[]},{"type":"Feature","geometry":{"type":"LineString","coordinates":[[10.165960000002,36.81881],[90.356330999996,23.684993999998]]},"properties":[]},{"type":"Feature","geometry":{"type":"LineString","coordinates":[[10.165960000002,36.81881],[69.345115999996,30.375321000001]]},"properties":[]}],"properties":{"tags":"","description":"","title":"Phosphate Fertilizers Supply Chain in the Arab Region"}}