{"supplychain":{"category":null,"created":1372766899,"enable_comments":true,"flags":0,"id":6256,"modified":1372766900,"other_perms":1,"passcode":null,"user_featured":false,"usergroup_id":null,"usergroup_perms":0,"user_id":5584,"owner":{"id":5584,"name":"hanalooya","avatar":"http:\/\/free.sourcemap.com\/assets\/images\/default-user.png","banner_url":null,"display_name":null},"taxonomy":null,"attributes":{"tags":"","description":"","title":"Phosphate Fertilizers Supply Chain in the Arab Region"},"stops":[{"local_stop_id":31,"id":31,"geometry":"POINT(7719463.00212 3551885.664913)","attributes":{"address":"Pakistan","placename":"Pakistan","title":"Farmers"}},{"local_stop_id":30,"id":30,"geometry":"POINT(10058420.756868 2715069.967281)","attributes":{"address":"Bangladesh","placename":"Bangladesh","title":"Farmers"}},{"local_stop_id":29,"id":29,"geometry":"POINT(-10654710.288472 4451692.554811)","attributes":{"address":"United States","placename":"United States","title":"Farmers"}},{"local_stop_id":28,"id":28,"geometry":"POINT(246433.411424 5816903.713427)","attributes":{"address":"France","placename":"France","title":"Farmers"}},{"local_stop_id":27,"id":27,"geometry":"POINT(1398994.342206 5141815.937641)","attributes":{"address":"Italy","placename":"Italy","title":"Farmers"}},{"local_stop_id":26,"id":26,"geometry":"POINT(3923268.658903 4716479.684629)","attributes":{"address":"Turkey","placename":"Turkey","title":"Farmers"}},{"local_stop_id":25,"id":25,"geometry":"POINT(5018189.359227 2739515.791932)","attributes":{"address":"Saudi Arabia","placename":"Saudi Arabia","title":"Farmers"}},{"local_stop_id":24,"id":24,"geometry":"POINT(4341105.588359 4137016.351319)","attributes":{"address":"Syria","placename":"Syria","title":"Farmers"}},{"local_stop_id":23,"id":23,"geometry":"POINT(3992171.304883 4009311.247656)","attributes":{"address":"Lebanon","placename":"Lebanon","title":"Farmers"}},{"local_stop_id":22,"id":22,"geometry":"POINT(3428918.392521 3101070.050794)","attributes":{"address":"Egypt","placename":"Egypt","title":"Farmers"}},{"local_stop_id":21,"id":21,"geometry":"POINT(4862356.432331 3924966.445386)","attributes":{"address":"Iraq","placename":"Iraq","title":"Farmers"}},{"local_stop_id":20,"id":20,"geometry":"POINT(11598978.537043 4281602.659627)","attributes":{"address":"China","placename":"China","title":"Farmers"}},{"local_stop_id":19,"id":19,"geometry":"POINT(11242438.238039 1789676.623494)","attributes":{"address":"Thailand","placename":"Thailand","title":"Farmers"}},{"local_stop_id":18,"id":18,"geometry":"POINT(-10654710.288472 4451692.554811)","attributes":{"address":"United States","placename":"United States","title":"Farmers"}},{"local_stop_id":17,"id":17,"geometry":"POINT(11598978.537043 4281602.659627)","attributes":{"address":"China","placename":"China","title":"Farmers"}},{"local_stop_id":16,"id":16,"geometry":"POINT(1398994.342206 5141815.937641)","attributes":{"address":"Italy","placename":"Italy","title":"Farmers"}},{"local_stop_id":15,"id":15,"geometry":"POINT(246433.411424 5816903.713427)","attributes":{"address":"France","placename":"France","title":"Farmers"}},{"local_stop_id":14,"id":14,"geometry":"POINT(-5780295.728898 -1601191.813438)","attributes":{"address":"Brazil","placename":"Brazil","title":"Farmers"}},{"local_stop_id":13,"id":13,"geometry":"POINT(8790107.59317 2343495.165705)","attributes":{"address":"India","placename":"India","title":"Farmers"}},{"local_stop_id":12,"id":12,"geometry":"POINT(184748.721227 3253246.71111)","attributes":{"address":"Algeria","placename":"Algeria","title":"Rock Phosphate"}},{"local_stop_id":11,"id":11,"geometry":"POINT(4341105.588359 4137016.351319)","attributes":{"address":"Syria","placename":"Syria","title":"Rock Phosphate"}},{"local_stop_id":10,"id":10,"geometry":"POINT(3428918.392521 3101070.050794)","attributes":{"address":"Egypt","placename":"Egypt","title":"Rock Phosphate"}},{"local_stop_id":9,"id":9,"geometry":"POINT(4034041.793636 3578991.172208)","attributes":{"address":"Jordan","placename":"Jordan","title":"Rock Phosphate"}},{"local_stop_id":8,"id":8,"geometry":"POINT(-789546.84679 3735999.22766)","attributes":{"address":"Morocco","placename":"Morocco","title":"Rock Phosphate"}},{"local_stop_id":7,"id":7,"geometry":"POINT(4034041.793636 3578991.172208)","attributes":{"address":"Jordan","placename":"Jordan","title":"Phosphoric Acid"}},{"local_stop_id":6,"id":6,"geometry":"POINT(1131669.490625 4413881.240332)","attributes":{"address":"Tunis","placename":"Tunis, Tunisia","title":"Phosphoric Acid"}},{"local_stop_id":5,"id":5,"geometry":"POINT(-789546.84679 3735999.22766)","attributes":{"address":"Morocco","placename":"Morocco","title":"Phosphoric Acid"}},{"local_stop_id":4,"id":4,"geometry":"POINT(4034041.793636 3578991.172208)","attributes":{"address":"Jordan","placename":"Jordan","title":"Fertilizer- Phosphorous and phosphatic fertilizers"}},{"local_stop_id":3,"id":3,"geometry":"POINT(1131669.490625 4413881.240332)","attributes":{"address":"Tunis","placename":"Tunis, Tunisia","title":"Fertilizer- Phosphorous and phosphatic fertilizers"}},{"local_stop_id":2,"id":2,"geometry":"POINT(5018189.359227 2739515.791932)","attributes":{"address":"Saudi Arabia","placename":"Saudi Arabia","title":"Fertilizer- Phosphorous and phosphatic fertilizers"}},{"local_stop_id":1,"id":1,"geometry":"POINT(-789546.84679 3735999.22766)","attributes":{"address":"Morocco","placename":"Morocco","title":"Fertilizer- Phosphorous and phosphatic fertilizers"}}],"hops":[{"from_stop_id":5,"to_stop_id":4,"geometry":"MULTILINESTRING((-789546.84679 3735999.22766,4034041.793636 3578991.172208))","attributes":{}},{"from_stop_id":6,"to_stop_id":4,"geometry":"MULTILINESTRING((1131669.490625 4413881.240332,4034041.793636 3578991.172208))","attributes":{}},{"from_stop_id":7,"to_stop_id":4,"geometry":"MULTILINESTRING((4034041.793636 3578991.172208,4034041.793636 3578991.172208))","attributes":{}},{"from_stop_id":8,"to_stop_id":7,"geometry":"MULTILINESTRING((-789546.84679 3735999.22766,4034041.793636 3578991.172208))","attributes":{}},{"from_stop_id":9,"to_stop_id":7,"geometry":"MULTILINESTRING((4034041.793636 3578991.172208,4034041.793636 3578991.172208))","attributes":{}},{"from_stop_id":10,"to_stop_id":7,"geometry":"MULTILINESTRING((3428918.392521 3101070.050794,4034041.793636 3578991.172208))","attributes":{}},{"from_stop_id":11,"to_stop_id":7,"geometry":"MULTILINESTRING((4341105.588359 4137016.351319,4034041.793636 3578991.172208))","attributes":{}},{"from_stop_id":12,"to_stop_id":7,"geometry":"MULTILINESTRING((184748.721227 3253246.71111,4034041.793636 3578991.172208))","attributes":{}},{"from_stop_id":1,"to_stop_id":13,"geometry":"MULTILINESTRING((-789546.84679 3735999.22766,8790107.59317 2343495.165705))","attributes":{}},{"from_stop_id":1,"to_stop_id":14,"geometry":"MULTILINESTRING((-789546.84679 3735999.22766,-5780295.728898 -1601191.813438))","attributes":{}},{"from_stop_id":1,"to_stop_id":15,"geometry":"MULTILINESTRING((-789546.84679 3735999.22766,246433.411424 5816903.713427))","attributes":{}},{"from_stop_id":1,"to_stop_id":16,"geometry":"MULTILINESTRING((-789546.84679 3735999.22766,1398994.342206 5141815.937641))","attributes":{}},{"from_stop_id":1,"to_stop_id":17,"geometry":"MULTILINESTRING((-789546.84679 3735999.22766,11598978.537043 4281602.659627))","attributes":{}},{"from_stop_id":1,"to_stop_id":18,"geometry":"MULTILINESTRING((-789546.84679 3735999.22766,-10654710.288472 4451692.554811))","attributes":{}},{"from_stop_id":1,"to_stop_id":19,"geometry":"MULTILINESTRING((-789546.84679 3735999.22766,11242438.238039 1789676.623494))","attributes":{}},{"from_stop_id":2,"to_stop_id":20,"geometry":"MULTILINESTRING((5018189.359227 2739515.791932,11598978.537043 4281602.659627))","attributes":{}},{"from_stop_id":4,"to_stop_id":21,"geometry":"MULTILINESTRING((4034041.793636 3578991.172208,4862356.432331 3924966.445386))","attributes":{}},{"from_stop_id":4,"to_stop_id":22,"geometry":"MULTILINESTRING((4034041.793636 3578991.172208,3428918.392521 3101070.050794))","attributes":{}},{"from_stop_id":4,"to_stop_id":23,"geometry":"MULTILINESTRING((4034041.793636 3578991.172208,3992171.304883 4009311.247656))","attributes":{}},{"from_stop_id":4,"to_stop_id":24,"geometry":"MULTILINESTRING((4034041.793636 3578991.172208,4341105.588359 4137016.351319))","attributes":{}},{"from_stop_id":4,"to_stop_id":25,"geometry":"MULTILINESTRING((4034041.793636 3578991.172208,5018189.359227 2739515.791932))","attributes":{}},{"from_stop_id":3,"to_stop_id":26,"geometry":"MULTILINESTRING((1131669.490625 4413881.240332,3923268.658903 4716479.684629))","attributes":{}},{"from_stop_id":3,"to_stop_id":27,"geometry":"MULTILINESTRING((1131669.490625 4413881.240332,1398994.342206 5141815.937641))","attributes":{}},{"from_stop_id":3,"to_stop_id":28,"geometry":"MULTILINESTRING((1131669.490625 4413881.240332,246433.411424 5816903.713427))","attributes":{}},{"from_stop_id":3,"to_stop_id":29,"geometry":"MULTILINESTRING((1131669.490625 4413881.240332,-10654710.288472 4451692.554811))","attributes":{}},{"from_stop_id":3,"to_stop_id":30,"geometry":"MULTILINESTRING((1131669.490625 4413881.240332,10058420.756868 2715069.967281))","attributes":{}},{"from_stop_id":3,"to_stop_id":31,"geometry":"MULTILINESTRING((1131669.490625 4413881.240332,7719463.00212 3551885.664913))","attributes":{}}]},"editable":false}