{"type":"FeatureCollection","features":[{"type":"Feature","geometry":{"type":"Point","coordinates":[69.345115999996,30.375321000001]},"properties":{"address":"Pakistan","placename":"Pakistan","title":"Farmers"}},{"type":"Feature","geometry":{"type":"Point","coordinates":[90.356330999996,23.684993999998]},"properties":{"address":"Bangladesh","placename":"Bangladesh","title":"Farmers"}},{"type":"Feature","geometry":{"type":"Point","coordinates":[-95.712890999999,37.090240000003]},"properties":{"address":"United States","placename":"United States","title":"Farmers"}},{"type":"Feature","geometry":{"type":"Point","coordinates":[2.2137489999989,46.227638]},"properties":{"address":"France","placename":"France","title":"Farmers"}},{"type":"Feature","geometry":{"type":"Point","coordinates":[12.567380000004,41.871939999999]},"properties":{"address":"Italy","placename":"Italy","title":"Farmers"}},{"type":"Feature","geometry":{"type":"Point","coordinates":[35.243321999997,38.963745000001]},"properties":{"address":"Turkey","placename":"Turkey","title":"Farmers"}},{"type":"Feature","geometry":{"type":"Point","coordinates":[104.195397,35.861660000001]},"properties":{"address":"China","placename":"China","title":"Farmers"}},{"type":"Feature","geometry":{"type":"Point","coordinates":[100.992541,15.870032]},"properties":{"address":"Thailand","placename":"Thailand","title":"Farmers"}},{"type":"Feature","geometry":{"type":"Point","coordinates":[-95.712890999999,37.090240000003]},"properties":{"address":"United States","placename":"United States","title":"Farmers"}},{"type":"Feature","geometry":{"type":"Point","coordinates":[104.195397,35.861660000001]},"properties":{"address":"China","placename":"China","title":"Farmers"}},{"type":"Feature","geometry":{"type":"Point","coordinates":[12.567380000004,41.871939999999]},"properties":{"address":"Italy","placename":"Italy","title":"Farmers"}},{"type":"Feature","geometry":{"type":"Point","coordinates":[2.2137489999989,46.227638]},"properties":{"address":"France","placename":"France","title":"Farmers"}},{"type":"Feature","geometry":{"type":"Point","coordinates":[-51.925279999999,-14.235004]},"properties":{"address":"Brazil","placename":"Brazil","title":"Farmers"}},{"type":"Feature","geometry":{"type":"Point","coordinates":[78.962879999997,20.593684000004]},"properties":{"address":"India","placename":"India","title":"Farmers"}},{"type":"Feature","geometry":{"type":"Point","coordinates":[-51.925279999999,-14.235004]},"properties":{"address":"Brazil","placename":"Brazil","title":"Factories"}},{"type":"Feature","geometry":{"type":"Point","coordinates":[31.16558,48.379433000003]},"properties":{"address":"Ukrain","placename":"Ukraine","title":"Factories"}},{"type":"Feature","geometry":{"type":"Point","coordinates":[19.145136,51.919437999998]},"properties":{"address":"Poland","placename":"Poland","title":"Factories"}},{"type":"Feature","geometry":{"type":"Point","coordinates":[1.6596259999975,28.033885999997]},"properties":{"address":"Algeria","placename":"Algeria","title":"Rock Phosphate"}},{"type":"Feature","geometry":{"type":"Point","coordinates":[38.996814999996,34.802074999999]},"properties":{"address":"Syria","placename":"Syria","title":"Rock Phosphate"}},{"type":"Feature","geometry":{"type":"Point","coordinates":[101.975766,4.2104840000023]},"properties":{"address":"Malasia","placename":"Malaysia","title":"Factories"}},{"type":"Feature","geometry":{"type":"Point","coordinates":[106.8859437,-6.3550565999982]},"properties":{"address":"Indonisia","placename":"Indonesia","title":"Factories"}},{"type":"Feature","geometry":{"type":"Point","coordinates":[78.962879999997,20.593684000004]},"properties":{"address":"India","placename":"India","title":"Factories"}},{"type":"Feature","geometry":{"type":"Point","coordinates":[30.802498000002,26.820553000001]},"properties":{"address":"Egypt","placename":"Egypt","title":"Rock Phosphate"}},{"type":"Feature","geometry":{"type":"Point","coordinates":[35.243321999997,38.963745000001]},"properties":{"address":"Turkey","placename":"Turkey","title":"Factories"}},{"type":"Feature","geometry":{"type":"Point","coordinates":[106.8859437,-6.3550565999982]},"properties":{"address":"Indonisia","placename":"Indonesia","title":"Factories"}},{"type":"Feature","geometry":{"type":"Point","coordinates":[78.962879999997,20.593684000004]},"properties":{"address":"India","placename":"India","title":"Factories"}},{"type":"Feature","geometry":{"type":"Point","coordinates":[36.238414000001,30.585164000002]},"properties":{"address":"Jordan","placename":"Jordan","title":"Rock Phosphate"}},{"type":"Feature","geometry":{"type":"Point","coordinates":[36.238414000001,30.585164000002]},"properties":{"address":"Jordan","placename":"Jordan","title":"Phosphoric Acid"}},{"type":"Feature","geometry":{"type":"Point","coordinates":[45.079161999996,23.885942]},"properties":{"address":"Saudi Arabia","placename":"Saudi Arabia","title":"Fertilizer- Phosphorous and phosphatic fertilizers"}},{"type":"Feature","geometry":{"type":"Point","coordinates":[36.238414000001,30.585164000002]},"properties":{"address":"Jordan","placename":"Jordan","title":"Fertilizer- Phosphorous and phosphatic fertilizers"}},{"type":"Feature","geometry":{"type":"Point","coordinates":[10.165960000002,36.81881]},"properties":{"address":"Tunis","placename":"Tunis, Tunisia","title":"Phosphoric Acid"}},{"type":"Feature","geometry":{"type":"Point","coordinates":[10.165960000002,36.81881]},"properties":{"address":"Tunis","placename":"Tunis, Tunisia","title":"Fertilizer- Phosphorous and phosphatic fertilizers"}},{"type":"Feature","geometry":{"type":"Point","coordinates":[78.962879999997,20.593684000004]},"properties":{"address":"India","placename":"India","title":"Factories"}},{"type":"Feature","geometry":{"type":"Point","coordinates":[-95.712890999999,37.090240000003]},"properties":{"address":"United States","placename":"United States","title":"Factories"}},{"type":"Feature","geometry":{"type":"Point","coordinates":[-7.0926199999983,31.791702]},"properties":{"address":"Morocco","placename":"Morocco","title":"Rock Phosphate"}},{"type":"Feature","geometry":{"type":"Point","coordinates":[-7.0926199999983,31.791702]},"properties":{"address":"Morocco","placename":"Morocco","title":"Phosphoric Acid"}},{"type":"Feature","geometry":{"type":"Point","coordinates":[-7.0926199999983,31.791702]},"properties":{"address":"Morocco","placename":"Morocco","title":"Fertilizer- Phosphorous and phosphatic fertilizers"}},{"type":"Feature","geometry":{"type":"LineString","coordinates":[[-7.0926199999983,31.791702],[-7.0926199999983,31.791702]]},"properties":[]},{"type":"Feature","geometry":{"type":"LineString","coordinates":[[-7.0926199999983,31.791702],[-7.0926199999983,31.791702]]},"properties":[]},{"type":"Feature","geometry":{"type":"LineString","coordinates":[[-95.712890999999,37.090240000003],[-7.0926199999983,31.791702]]},"properties":[]},{"type":"Feature","geometry":{"type":"LineString","coordinates":[[78.962879999997,20.593684000004],[-7.0926199999983,31.791702]]},"properties":[]},{"type":"Feature","geometry":{"type":"LineString","coordinates":[[10.165960000002,36.81881],[10.165960000002,36.81881]]},"properties":[]},{"type":"Feature","geometry":{"type":"LineString","coordinates":[[36.238414000001,30.585164000002],[45.079161999996,23.885942]]},"properties":[]},{"type":"Feature","geometry":{"type":"LineString","coordinates":[[36.238414000001,30.585164000002],[36.238414000001,30.585164000002]]},"properties":[]},{"type":"Feature","geometry":{"type":"LineString","coordinates":[[78.962879999997,20.593684000004],[36.238414000001,30.585164000002]]},"properties":[]},{"type":"Feature","geometry":{"type":"LineString","coordinates":[[106.8859437,-6.3550565999982],[36.238414000001,30.585164000002]]},"properties":[]},{"type":"Feature","geometry":{"type":"LineString","coordinates":[[35.243321999997,38.963745000001],[36.238414000001,30.585164000002]]},"properties":[]},{"type":"Feature","geometry":{"type":"LineString","coordinates":[[30.802498000002,26.820553000001],[36.238414000001,30.585164000002]]},"properties":[]},{"type":"Feature","geometry":{"type":"LineString","coordinates":[[78.962879999997,20.593684000004],[30.802498000002,26.820553000001]]},"properties":[]},{"type":"Feature","geometry":{"type":"LineString","coordinates":[[106.8859437,-6.3550565999982],[30.802498000002,26.820553000001]]},"properties":[]},{"type":"Feature","geometry":{"type":"LineString","coordinates":[[101.975766,4.2104840000023],[30.802498000002,26.820553000001]]},"properties":[]},{"type":"Feature","geometry":{"type":"LineString","coordinates":[[38.996814999996,34.802074999999],[36.238414000001,30.585164000002]]},"properties":[]},{"type":"Feature","geometry":{"type":"LineString","coordinates":[[1.6596259999975,28.033885999997],[36.238414000001,30.585164000002]]},"properties":[]},{"type":"Feature","geometry":{"type":"LineString","coordinates":[[19.145136,51.919437999998],[1.6596259999975,28.033885999997]]},"properties":[]},{"type":"Feature","geometry":{"type":"LineString","coordinates":[[31.16558,48.379433000003],[1.6596259999975,28.033885999997]]},"properties":[]},{"type":"Feature","geometry":{"type":"LineString","coordinates":[[-51.925279999999,-14.235004],[1.6596259999975,28.033885999997]]},"properties":[]},{"type":"Feature","geometry":{"type":"LineString","coordinates":[[-7.0926199999983,31.791702],[78.962879999997,20.593684000004]]},"properties":[]},{"type":"Feature","geometry":{"type":"LineString","coordinates":[[-7.0926199999983,31.791702],[-51.925279999999,-14.235004]]},"properties":[]},{"type":"Feature","geometry":{"type":"LineString","coordinates":[[-7.0926199999983,31.791702],[2.2137489999989,46.227638]]},"properties":[]},{"type":"Feature","geometry":{"type":"LineString","coordinates":[[-7.0926199999983,31.791702],[12.567380000004,41.871939999999]]},"properties":[]},{"type":"Feature","geometry":{"type":"LineString","coordinates":[[-7.0926199999983,31.791702],[104.195397,35.861660000001]]},"properties":[]},{"type":"Feature","geometry":{"type":"LineString","coordinates":[[-7.0926199999983,31.791702],[-95.712890999999,37.090240000003]]},"properties":[]},{"type":"Feature","geometry":{"type":"LineString","coordinates":[[-7.0926199999983,31.791702],[100.992541,15.870032]]},"properties":[]},{"type":"Feature","geometry":{"type":"LineString","coordinates":[[45.079161999996,23.885942],[104.195397,35.861660000001]]},"properties":[]},{"type":"Feature","geometry":{"type":"LineString","coordinates":[[10.165960000002,36.81881],[35.243321999997,38.963745000001]]},"properties":[]},{"type":"Feature","geometry":{"type":"LineString","coordinates":[[10.165960000002,36.81881],[12.567380000004,41.871939999999]]},"properties":[]},{"type":"Feature","geometry":{"type":"LineString","coordinates":[[10.165960000002,36.81881],[2.2137489999989,46.227638]]},"properties":[]},{"type":"Feature","geometry":{"type":"LineString","coordinates":[[10.165960000002,36.81881],[-95.712890999999,37.090240000003]]},"properties":[]},{"type":"Feature","geometry":{"type":"LineString","coordinates":[[10.165960000002,36.81881],[90.356330999996,23.684993999998]]},"properties":[]},{"type":"Feature","geometry":{"type":"LineString","coordinates":[[10.165960000002,36.81881],[69.345115999996,30.375321000001]]},"properties":[]}],"properties":{"title":"Phosphate Fertilizers Supply Chain in the Arab Region","description":"","tags":""}}