{"type":"FeatureCollection","features":[{"type":"Feature","geometry":{"type":"Point","coordinates":[-87.629798199997,41.878113600002]},"properties":{"address":"Chicago, IL","placename":"Chicago, IL, USA","title":"Distribution"}},{"type":"Feature","geometry":{"type":"Point","coordinates":[-118.2436849,34.052234200001]},"properties":{"address":"Los Angeles, CA","placename":"Los Angeles, CA, USA","title":"Distribution"}},{"type":"Feature","geometry":{"type":"Point","coordinates":[-96.800451099998,32.780139899999]},"properties":{"address":"Dallas, TX","placename":"Dallas, TX, USA","title":"Distribution"}},{"type":"Feature","geometry":{"type":"Point","coordinates":[-84.387982400002,33.7489954]},"properties":{"address":"Atlanta, GA","placename":"Atlanta, GA, USA","title":"Distribution"}},{"type":"Feature","geometry":{"type":"Point","coordinates":[-51.925279999999,-14.235004]},"properties":{"address":"Brazil","placename":"Brazil","title":"Bauxite Mining"}},{"type":"Feature","geometry":{"type":"Point","coordinates":[-74.050972500003,40.296222200003]},"properties":{"address":"Eatontown, NJ","placename":"Eatontown, NJ, USA","title":"Foil Lid"}},{"type":"Feature","geometry":{"type":"Point","coordinates":[-85.207229000001,12.865416000002]},"properties":{"address":"Nicaragua","placename":"Nicaragua","title":"Coffee"}},{"type":"Feature","geometry":{"type":"Point","coordinates":[-95.369389599997,29.760192700002]},"properties":{"address":"Houston, TX","placename":"Houston, TX, USA","title":"Petroleum"}},{"type":"Feature","geometry":{"type":"Point","coordinates":[-74.851831099999,40.100666099999]},"properties":{"address":"Bristal, PA","placename":"Bristol, PA, USA","title":"Cup"}},{"type":"Feature","geometry":{"type":"Point","coordinates":[-72.577841500001,44.5588028]},"properties":{"address":"Vermont","placename":"Vermont, USA","title":"Forest"}},{"type":"Feature","geometry":{"type":"Point","coordinates":[-82.324826200002,29.651634400002]},"properties":{"address":"Gainesville, FL","placename":"Gainesville, FL, USA","title":"Filter"}},{"type":"Feature","geometry":{"type":"Point","coordinates":[-72.756263599998,44.337820299998]},"properties":{"address":"Waterbury, VT","placename":"Waterbury, VT, USA","title":"Keurig Cup"}},{"type":"Feature","geometry":{"type":"LineString","coordinates":[[-82.324826200002,29.651634400002],[-72.756263599998,44.337820299998]]},"properties":[]},{"type":"Feature","geometry":{"type":"LineString","coordinates":[[-72.577841500001,44.5588028],[-82.324826200002,29.651634400002]]},"properties":[]},{"type":"Feature","geometry":{"type":"LineString","coordinates":[[-74.851831099999,40.100666099999],[-72.756263599998,44.337820299998]]},"properties":[]},{"type":"Feature","geometry":{"type":"LineString","coordinates":[[-95.369389599997,29.760192700002],[-74.851831099999,40.100666099999]]},"properties":[]},{"type":"Feature","geometry":{"type":"LineString","coordinates":[[-85.207229000001,12.865416000002],[-72.756263599998,44.337820299998]]},"properties":[]},{"type":"Feature","geometry":{"type":"LineString","coordinates":[[-74.050972500003,40.296222200003],[-72.756263599998,44.337820299998]]},"properties":[]},{"type":"Feature","geometry":{"type":"LineString","coordinates":[[-51.925279999999,-14.235004],[-74.050972500003,40.296222200003]]},"properties":[]},{"type":"Feature","geometry":{"type":"LineString","coordinates":[[-72.756263599998,44.337820299998],[-84.387982400002,33.7489954]]},"properties":[]},{"type":"Feature","geometry":{"type":"LineString","coordinates":[[-72.756263599998,44.337820299998],[-96.800451099998,32.780139899999]]},"properties":[]},{"type":"Feature","geometry":{"type":"LineString","coordinates":[[-72.756263599998,44.337820299998],[-118.2436849,34.052234200001]]},"properties":[]},{"type":"Feature","geometry":{"type":"LineString","coordinates":[[-72.756263599998,44.337820299998],[-87.629798199997,41.878113600002]]},"properties":[]}],"properties":{"tags":"keurig cup","description":"","title":"Keurig Cup"}}