{"type":"FeatureCollection","features":[{"type":"Feature","geometry":{"type":"Point","coordinates":[-71.104465900003,42.365334299998]},"properties":{"address":"Central Square, Cambridge","placename":"Central Square, Cambridge, MA 02139, USA","title":"Neighbors"}},{"type":"Feature","geometry":{"type":"Point","coordinates":[-71.453788399997,42.474856600003]},"properties":{"address":"Main St. & Massachusetts Ave.","placename":"Massachusetts Avenue & Main Street, Acton, MA 01720, USA","title":"Lemonade Stand"}},{"type":"Feature","geometry":{"type":"Point","coordinates":[-75.743753599998,41.959857699998]},"properties":{"address":"123 Main St.","placename":"123 Main Street, Hallstead, PA 18822, USA","title":"Family"}},{"type":"Feature","geometry":{"type":"Point","coordinates":[-75.743753599998,41.959857699998]},"properties":{"address":"123 Main St.","placename":"123 Main Street, Hallstead, PA 18822, USA","title":"Refrigerator"}},{"type":"Feature","geometry":{"type":"Point","coordinates":[-71.109733499997,42.373615800001]},"properties":{"address":"Cambridge, MA","placename":"Cambridge, MA, USA","title":"Lemonade"}},{"type":"Feature","geometry":{"type":"Point","coordinates":[10.920086699996,44.648836599998]},"properties":{"address":"modena, Italy","placename":"Modena, Italy","title":"memedesimo"}},{"type":"Feature","geometry":{"type":"Point","coordinates":[11.073776100002,44.8490459]},"properties":{"address":"medolla, italy","placename":"41036 Medolla Modena, Italy","title":"Sugar"}},{"type":"Feature","geometry":{"type":"Point","coordinates":[10.775732699996,44.713817499998]},"properties":{"address":"montecatini, italy","placename":"42018 Montecatini Reggio Emilia, Italy","title":"Lemons"}},{"type":"Feature","geometry":{"type":"Point","coordinates":[18.175016100004,40.351515500002]},"properties":{"address":"lecce, italy","placename":"Lecce, Italy","title":"Lemons"}},{"type":"Feature","geometry":{"type":"Point","coordinates":[9.1865159999977,45.465454199999]},"properties":{"address":"milano, italy","placename":"Milan, Italy","title":"Lemon Juice"}},{"type":"Feature","geometry":{"type":"Point","coordinates":[14.268124399999,40.851774600003]},"properties":{"address":"napoli, italy","placename":"Naples, Italy","title":"Water"}},{"type":"Feature","geometry":{"type":"Point","coordinates":[12.482519900001,41.8929163]},"properties":{"address":"roma, italy","placename":"Rome, Italy","title":"Lemonade"}},{"type":"Feature","geometry":{"type":"LineString","coordinates":[[14.268124399999,40.851774600003],[12.482519900001,41.8929163]]},"properties":[]},{"type":"Feature","geometry":{"type":"LineString","coordinates":[[9.1865159999977,45.465454199999],[12.482519900001,41.8929163]]},"properties":[]},{"type":"Feature","geometry":{"type":"LineString","coordinates":[[18.175016100004,40.351515500002],[9.1865159999977,45.465454199999]]},"properties":[]},{"type":"Feature","geometry":{"type":"LineString","coordinates":[[10.775732699996,44.713817499998],[9.1865159999977,45.465454199999]]},"properties":[]},{"type":"Feature","geometry":{"type":"LineString","coordinates":[[11.073776100002,44.8490459],[12.482519900001,41.8929163]]},"properties":[]},{"type":"Feature","geometry":{"type":"LineString","coordinates":[[10.920086699996,44.648836599998],[12.482519900001,41.8929163]]},"properties":[]},{"type":"Feature","geometry":{"type":"LineString","coordinates":[[-71.109733499997,42.373615800001],[-75.743753599998,41.959857699998]]},"properties":[]},{"type":"Feature","geometry":{"type":"LineString","coordinates":[[-75.743753599998,41.959857699998],[-75.743753599998,41.959857699998]]},"properties":[]},{"type":"Feature","geometry":{"type":"LineString","coordinates":[[-71.109733499997,42.373615800001],[-71.453788399997,42.474856600003]]},"properties":[]},{"type":"Feature","geometry":{"type":"LineString","coordinates":[[-71.453788399997,42.474856600003],[-71.104465900003,42.365334299998]]},"properties":[]}],"properties":{"tags":"","description":"prova","title":"Prova1"}}