{"type":"FeatureCollection","features":[{"type":"Feature","geometry":{"type":"Point","coordinates":[100.6196553,34.047862999999]},"properties":{"address":"Asia","placename":"Asia","title":"Customer 4"}},{"type":"Feature","geometry":{"type":"Point","coordinates":[15.2551187,54.525961399999]},"properties":{"address":"Europe","placename":"Europe","title":"Customer 3"}},{"type":"Feature","geometry":{"type":"Point","coordinates":[-55.491477000003,-8.7831949999966]},"properties":{"address":"South America","placename":"South America","title":"Customer 2"}},{"type":"Feature","geometry":{"type":"Point","coordinates":[-105.2551187,54.525961399999]},"properties":{"address":"North America","placename":"North America","title":"Customer 1"}},{"type":"Feature","geometry":{"type":"Point","coordinates":[100.6196553,34.047862999999]},"properties":{"address":"Asia","placename":"Asia","title":"Transmission Parts 4"}},{"type":"Feature","geometry":{"type":"Point","coordinates":[-55.491477000003,-8.7831949999966]},"properties":{"address":"South America","placename":"South America","title":"Transmission Parts 3"}},{"type":"Feature","geometry":{"type":"Point","coordinates":[15.2551187,54.525961399999]},"properties":{"address":"Europe","placename":"Europe","title":"Transmission Parts 2"}},{"type":"Feature","geometry":{"type":"Point","coordinates":[-95.712890999999,37.090240000003]},"properties":{"address":"USA","placename":"United States","title":"Transmission Parts 1"}},{"type":"Feature","geometry":{"type":"Point","coordinates":[-89.580097800003,40.666148999998]},"properties":{"address":"EAST PEORIA, IL","placename":"East Peoria, IL, USA","title":"Transmission"}},{"type":"Feature","geometry":{"type":"Point","coordinates":[-55.491477000003,-8.7831949999966]},"properties":{"address":"South America","placename":"South America","title":"Engine Parts 2"}},{"type":"Feature","geometry":{"type":"Point","coordinates":[-105.2551187,54.525961399999]},"properties":{"address":"North America","placename":"North America","title":"Engine Parts 1"}},{"type":"Feature","geometry":{"type":"Point","coordinates":[-89.567947400003,40.817118400002]},"properties":{"address":"Mossville, IL","placename":"Mossville, IL 61552, USA","title":"Engine"}},{"type":"Feature","geometry":{"type":"Point","coordinates":[100.6196553,34.047862999999]},"properties":{"address":"Asia","placename":"Asia","title":"Hydraulic Parts 4"}},{"type":"Feature","geometry":{"type":"Point","coordinates":[-55.491477000003,-8.7831949999966]},"properties":{"address":"South America","placename":"South America","title":"Hydraulic Parts 3"}},{"type":"Feature","geometry":{"type":"Point","coordinates":[15.2551187,54.525961399999]},"properties":{"address":"Europe","placename":"Europe","title":"Hydraulic Parts 2"}},{"type":"Feature","geometry":{"type":"Point","coordinates":[-95.712890999999,37.090240000003]},"properties":{"address":"USA","placename":"United States","title":"Hydraulic Parts 1"}},{"type":"Feature","geometry":{"type":"Point","coordinates":[-88.081725099999,41.525030999998]},"properties":{"address":"JOLIET, IL","placename":"Joliet, IL, USA","title":"Hydraulic"}},{"type":"Feature","geometry":{"type":"Point","coordinates":[-88.320071500004,41.760584900002]},"properties":{"address":"AURORA, IL","placename":"Aurora, IL, USA","title":"FG"}},{"type":"Feature","geometry":{"type":"LineString","coordinates":[[-88.081725099999,41.525030999998],[-88.320071500004,41.760584900002]]},"properties":[]},{"type":"Feature","geometry":{"type":"LineString","coordinates":[[-95.712890999999,37.090240000003],[-88.081725099999,41.525030999998]]},"properties":[]},{"type":"Feature","geometry":{"type":"LineString","coordinates":[[15.2551187,54.525961399999],[-88.081725099999,41.525030999998]]},"properties":[]},{"type":"Feature","geometry":{"type":"LineString","coordinates":[[-55.491477000003,-8.7831949999966],[-88.081725099999,41.525030999998]]},"properties":[]},{"type":"Feature","geometry":{"type":"LineString","coordinates":[[100.6196553,34.047862999999],[-88.081725099999,41.525030999998]]},"properties":[]},{"type":"Feature","geometry":{"type":"LineString","coordinates":[[-89.567947400003,40.817118400002],[-88.320071500004,41.760584900002]]},"properties":[]},{"type":"Feature","geometry":{"type":"LineString","coordinates":[[-105.2551187,54.525961399999],[-89.567947400003,40.817118400002]]},"properties":[]},{"type":"Feature","geometry":{"type":"LineString","coordinates":[[-55.491477000003,-8.7831949999966],[-89.567947400003,40.817118400002]]},"properties":[]},{"type":"Feature","geometry":{"type":"LineString","coordinates":[[-89.580097800003,40.666148999998],[-88.320071500004,41.760584900002]]},"properties":[]},{"type":"Feature","geometry":{"type":"LineString","coordinates":[[-95.712890999999,37.090240000003],[-89.580097800003,40.666148999998]]},"properties":[]},{"type":"Feature","geometry":{"type":"LineString","coordinates":[[15.2551187,54.525961399999],[-89.580097800003,40.666148999998]]},"properties":[]},{"type":"Feature","geometry":{"type":"LineString","coordinates":[[-55.491477000003,-8.7831949999966],[-89.580097800003,40.666148999998]]},"properties":[]},{"type":"Feature","geometry":{"type":"LineString","coordinates":[[100.6196553,34.047862999999],[-89.580097800003,40.666148999998]]},"properties":[]},{"type":"Feature","geometry":{"type":"LineString","coordinates":[[-88.320071500004,41.760584900002],[-105.2551187,54.525961399999]]},"properties":[]},{"type":"Feature","geometry":{"type":"LineString","coordinates":[[-88.320071500004,41.760584900002],[-55.491477000003,-8.7831949999966]]},"properties":[]},{"type":"Feature","geometry":{"type":"LineString","coordinates":[[-88.320071500004,41.760584900002],[15.2551187,54.525961399999]]},"properties":[]},{"type":"Feature","geometry":{"type":"LineString","coordinates":[[-88.320071500004,41.760584900002],[100.6196553,34.047862999999]]},"properties":[]}],"properties":{"tags":"","description":"","title":"Test 3"}}